{"version": 0.6, "generator": "Overpass API 0.7.62.1 084b4234", "osm3s": {"timestamp_osm_base": "2024-07-23T20:15:45Z", "copyright": "The data included in this document is from www.openstreetmap.org. The data is made available under ODbL."}, "elements": [{"type": "node", "id": 543620471, "lat": 42.1592194, "lon": -79.3926825, "tags": {"addr:city": "Bemus Point", "addr:housenumber": "13", "addr:postcode": "14712", "addr:state": "NY", "addr:street": "Main Street", "amenity": "library", "name": "Bemus Point Public Library", "phone": "+1 716 386 2274", "website": "https://www.bemuspointlibrary.org/"}}, {"type": "node", "id": 6409591412, "lat": 42.1595747, "lon": -79.393234, "tags": {"amenity": "restaurant", "craft": "brewery", "name": "Ellicottville Brewing Co. (EBC)"}}, {"type": "node", "id": 6409611893, "lat": 42.1595523, "lon": -79.3922634, "tags": {"addr:city": "Bemus Point", "addr:housenumber": "14", "addr:postcode": "14712", "addr:state": "NY", "addr:street": "Main Street", "amenity": "restaurant", "name": "14 Main"}}, {"type": "node", "id": 6409611895, "lat": 42.1599074, "lon": -79.3929003, "tags": {"addr:city": "Bemus Point", "addr:housenumber": "60", "addr:postcode": "14712", "addr:state": "NY", "addr:street": "Lakeside Drive", "amenity": "bar", "name": "Splash Wine Bar", "nysgissam:nysaddresspointid": "CHAU020843"}}, {"type": "node", "id": 6409613587, "lat": 42.1588491, "lon": -79.3919747, "tags": {"amenity": "bank", "atm": "yes", "brand": "Inner Lakes Credit Federal Union", "drive_through": "yes", "name": "Inner Lakes Credit Union"}}, {"type": "node", "id": 6409625875, "lat": 42.160008, "lon": -79.3932788, "tags": {"amenity": "restaurant", "cuisine": "american", "name": "The Fish"}}, {"type": "node", "id": 6737701803, "lat": 42.1575034, "lon": -79.3960179}, {"type": "node", "id": 6737701804, "lat": 42.1577547, "lon": -79.3962683}, {"type": "node", "id": 6737701808, "lat": 42.1573584, "lon": -79.3960753}, {"type": "node", "id": 6737701809, "lat": 42.1575488, "lon": -79.3964557}, {"type": "node", "id": 7657770448, "lat": 42.159197, "lon": -79.391635}, {"type": "node", "id": 7657792953, "lat": 42.1584651, "lon": -79.3923666}, {"type": "node", "id": 7657793006, "lat": 42.159184, "lon": -79.391613}, {"type": "node", "id": 7657793007, "lat": 42.159246, "lon": -79.39155}, {"type": "node", "id": 7657793008, "lat": 42.159308, "lon": -79.39166}, {"type": "node", "id": 7657793009, "lat": 42.1591616, "lon": -79.3918051}, {"type": "node", "id": 7657793010, "lat": 42.1591136, "lon": -79.3917194}, {"type": "node", "id": 7657793123, "lat": 42.160035, "lon": -79.392917}, {"type": "node", "id": 7657793124, "lat": 42.160001, "lon": -79.392946}, {"type": "node", "id": 7657793125, "lat": 42.159978, "lon": -79.392895}, {"type": "node", "id": 7657793126, "lat": 42.159892, "lon": -79.392967}, {"type": "node", "id": 7657793127, "lat": 42.159797, "lon": -79.392762}, {"type": "node", "id": 7657793128, "lat": 42.159917, "lon": -79.392661}, {"type": "node", "id": 7657793195, "lat": 42.160495, "lon": -79.392826}, {"type": "node", "id": 7657793196, "lat": 42.160624, "lon": -79.392732}, {"type": "node", "id": 7657793197, "lat": 42.160752, "lon": -79.39305}, {"type": "node", "id": 7657793198, "lat": 42.160623, "lon": -79.393144}, {"type": "node", "id": 7955539052, "lat": 42.1578471, "lon": -79.3885486, "tags": {"amenity": "restaurant", "name": "Bemus Point Golf Course and Tap House"}}, {"type": "node", "id": 8608470643, "lat": 42.1592246, "lon": -79.3918912}, {"type": "node", "id": 8608470644, "lat": 42.1591927, "lon": -79.3918385}, {"type": "node", "id": 8608470645, "lat": 42.1593015, "lon": -79.3917186}, {"type": "node", "id": 8608470646, "lat": 42.1593435, "lon": -79.391788}, {"type": "node", "id": 8608470647, "lat": 42.1592965, "lon": -79.3918397}, {"type": "node", "id": 8608470648, "lat": 42.1592864, "lon": -79.391823}, {"type": "node", "id": 8713717727, "lat": 42.1584705, "lon": -79.3924933, "tags": {"name": "Bemus Point Historical Society", "tourism": "museum"}}, {"type": "node", "id": 8713877068, "lat": 42.1588478, "lon": -79.3919055, "tags": {"amenity": "atm", "drive_through": "yes", "operator": "Inner Lakes Credit Unit"}}, {"type": "node", "id": 8849568339, "lat": 42.1576302, "lon": -79.3960196, "tags": {"entrance": "yes"}}, {"type": "node", "id": 8849568346, "lat": 42.1576593, "lon": -79.3963551, "tags": {"entrance": "yes"}}, {"type": "node", "id": 8895902182, "lat": 42.1605372, "lon": -79.3929308, "tags": {"entrance": "yes"}}, {"type": "node", "id": 8902915075, "lat": 42.1591376, "lon": -79.3917623, "tags": {"entrance": "yes"}}, {"type": "node", "id": 8902915076, "lat": 42.1592086, "lon": -79.3918649, "tags": {"entrance": "yes"}}, {"type": "node", "id": 8914973313, "lat": 42.1585265, "lon": -79.3924643}, {"type": "node", "id": 8914973314, "lat": 42.1584705, "lon": -79.3925283}, {"type": "node", "id": 8914973315, "lat": 42.1583994, "lon": -79.392415}, {"type": "node", "id": 8914973316, "lat": 42.1584411, "lon": -79.3923673}, {"type": "node", "id": 8914987417, "lat": 42.1584509, "lon": -79.3923829}, {"type": "node", "id": 8914987419, "lat": 42.1585124, "lon": -79.3924802, "tags": {"entrance": "yes"}}, {"type": "node", "id": 9021580976, "lat": 42.1596751, "lon": -79.3926004, "tags": {"amenity": "ice_cream", "name": "Bemus market", "outdoor_seating": "yes"}}, {"type": "node", "id": 10951721953, "lat": 42.1605699, "lon": -79.393012}, {"type": "node", "id": 10951820516, "lat": 42.1574778, "lon": -79.3959666}, {"type": "node", "id": 10951820517, "lat": 42.15759, "lon": -79.3959391}, {"type": "node", "id": 11025397825, "lat": 42.1604752, "lon": -79.3890013, "tags": {"board_type": "welcome_sign", "information": "board", "name": "Bemus Point Elementary", "operator": "Bemus Point Central School", "tourism": "information"}}, {"type": "node", "id": 11092649702, "lat": 42.1598667, "lon": -79.3929124, "tags": {"entrance": "main"}}, {"type": "node", "id": 11092664406, "lat": 42.1598806, "lon": -79.3929425}, {"type": "node", "id": 11092664407, "lat": 42.1599643, "lon": -79.3929065}, {"type": "node", "id": 11096693943, "lat": 42.1598132, "lon": -79.3927969, "tags": {"entrance": "main"}}, {"type": "way", "id": 717438206, "nodes": [6737701804, 8849568339, 10951820517, 6737701803, 10951820516, 6737701808, 6737701809, 8849568346, 6737701804], "tags": {"addr:city": "Bemus Point", "addr:housenumber": "1", "addr:postcode": "14712", "addr:state": "NY", "addr:street": "Lakeside Drive", "amenity": "restaurant", "building": "yes", "name": "The Village Casino", "nysgissam:nysaddresspointid": "CHAU015044", "phone": "+17163861247", "website": "https://www.bemuspointcasino.com"}}, {"type": "way", "id": 820065226, "nodes": [7657770448, 7657793010, 8902915075, 7657793009, 7657793008, 7657793007, 7657793006, 7657770448], "tags": {"addr:city": "Bemus Point", "addr:housenumber": "22", "addr:postcode": "14712", "addr:state": "NY", "addr:street": "Main Street", "amenity": "restaurant", "building": "yes", "name": "Lake Life Cafe", "nysgissam:nysaddresspointid": "CHAU045955"}}, {"type": "way", "id": 820065242, "nodes": [7657793128, 7657793127, 11096693943, 11092649702, 11092664406, 7657793126, 11092664407, 7657793125, 7657793124, 7657793123, 7657793128], "tags": {"addr:city": "Bemus Point", "addr:housenumber": "60", "addr:postcode": "14712", "addr:street": "Lakeside Drive", "amenity": "restaurant", "building": "yes"}}, {"type": "way", "id": 820065257, "nodes": [7657793198, 7657793197, 7657793196, 7657793195, 8895902182, 10951721953, 7657793198], "tags": {"addr:city": "Bemus Point", "addr:housenumber": "73", "addr:postcode": "14712", "addr:state": "NY", "addr:street": "Lakeside Drive", "building": "yes", "museum": "boating", "name": "The Lawson Center for Boating Heritage on Chautauqua Lake", "nysgissam:nysaddresspointid": "CHAU079971", "tourism": "museum"}}, {"type": "way", "id": 927938063, "nodes": [8608470643, 8902915076, 8608470644, 8608470645, 8608470646, 8608470647, 8608470648, 8608470643], "tags": {"addr:city": "Bemus Point", "addr:housenumber": "20", "addr:postcode": "14712", "addr:state": "NY", "addr:street": "Main Street", "amenity": "restaurant", "building": "yes", "cuisine": "pizza", "name": "Copollas", "nysgissam:nysaddresspointid": "CHAU058753"}}, {"type": "way", "id": 963792675, "nodes": [8914973313, 8914987419, 8914973314, 8914973315, 8914973316, 8914987417, 7657792953, 8914973313], "tags": {"building": "yes", "tourism": "museum"}}]}