{"version": 0.6, "generator": "Overpass API 0.7.62.1 084b4234", "osm3s": {"timestamp_osm_base": "2024-07-23T19:56:15Z", "copyright": "The data included in this document is from www.openstreetmap.org. The data is made available under ODbL."}, "elements": [{"type": "node", "id": 1611234264, "lat": 21.3063947, "lon": -157.8661438, "tags": {"amenity": "restaurant", "name": "Pier 9 by Sam Choy", "wheelchair": "yes"}}, {"type": "node", "id": 1649874022, "lat": 21.3087776, "lon": -157.862083, "tags": {"amenity": "bank", "branch": "Headquarters Main Branch", "brand": "Bank of Hawaii", "brand:wikidata": "Q4856124", "name": "Bank of Hawaii"}}, {"type": "node", "id": 1649874035, "lat": 21.3078648, "lon": -157.8613781, "tags": {"amenity": "bank", "atm": "yes", "name": "First Hawaiian Bank Headquarters Branch"}}, {"type": "node", "id": 1815017852, "lat": 21.3055693, "lon": -157.8652126}, {"type": "node", "id": 1815017853, "lat": 21.3058618, "lon": -157.8646982}, {"type": "node", "id": 1815017856, "lat": 21.3059241, "lon": -157.8647459}, {"type": "node", "id": 1815017857, "lat": 21.3055593, "lon": -157.8653575}, {"type": "node", "id": 1815017858, "lat": 21.3058841, "lon": -157.8648586}, {"type": "node", "id": 1815017859, "lat": 21.3057942, "lon": -157.8647915}, {"type": "node", "id": 1815017860, "lat": 21.3055318, "lon": -157.8653387}, {"type": "node", "id": 1815017861, "lat": 21.3055318, "lon": -157.8653038}, {"type": "node", "id": 1815017862, "lat": 21.3056467, "lon": -157.8652716}, {"type": "node", "id": 1815017863, "lat": 21.3059491, "lon": -157.8646145}, {"type": "node", "id": 1815017865, "lat": 21.3055868, "lon": -157.8653467}, {"type": "node", "id": 2623238128, "lat": 21.3062709, "lon": -157.8653668, "tags": {"amenity": "restaurant", "brand": "Hooters", "brand:wikidata": "Q1025921", "cuisine": "burger", "name": "Hooters"}}, {"type": "node", "id": 2800811950, "lat": 21.3086938, "lon": -157.8623165}, {"type": "node", "id": 2800811952, "lat": 21.308561, "lon": -157.8625155}, {"type": "node", "id": 2800811953, "lat": 21.3083064, "lon": -157.8620001}, {"type": "node", "id": 2903614201, "lat": 21.3079292, "lon": -157.8614965, "tags": {"amenity": "cafe", "name": "Cafe Central", "name:it": "Central"}}, {"type": "node", "id": 2925400707, "lat": 21.3071967, "lon": -157.8629655, "tags": {"amenity": "cafe", "name": "Honolulu Cafe"}}, {"type": "node", "id": 2931593101, "lat": 21.3090056, "lon": -157.8621113}, {"type": "node", "id": 2931593301, "lat": 21.3085247, "lon": -157.8620945}, {"type": "node", "id": 2931593401, "lat": 21.308702, "lon": -157.8618435}, {"type": "node", "id": 2933628505, "lat": 21.3087313, "lon": -157.8626463}, {"type": "node", "id": 2933628506, "lat": 21.3086647, "lon": -157.8626057}, {"type": "node", "id": 2933628507, "lat": 21.3088543, "lon": -157.8624024}, {"type": "node", "id": 2933628508, "lat": 21.3088327, "lon": -157.8624373}, {"type": "node", "id": 2933628509, "lat": 21.3088972, "lon": -157.8624835}, {"type": "node", "id": 2933628510, "lat": 21.3088103, "lon": -157.8623709}, {"type": "node", "id": 2933628511, "lat": 21.3087909, "lon": -157.8624022}, {"type": "node", "id": 2933628512, "lat": 21.3088421, "lon": -157.8623586}, {"type": "node", "id": 2933628702, "lat": 21.308776, "lon": -157.8626783}, {"type": "node", "id": 2933628703, "lat": 21.3086014, "lon": -157.8625604}, {"type": "node", "id": 2933628802, "lat": 21.3087112, "lon": -157.8626785}, {"type": "node", "id": 2933628803, "lat": 21.3086581, "lon": -157.8626405}, {"type": "node", "id": 2933628804, "lat": 21.3087277, "lon": -157.8623569}, {"type": "node", "id": 2959358323, "lat": 21.3104713, "lon": -157.862686}, {"type": "node", "id": 2959364777, "lat": 21.3105252, "lon": -157.8625621}, {"type": "node", "id": 2959365551, "lat": 21.3106372, "lon": -157.8626281}, {"type": "node", "id": 2959365949, "lat": 21.3105112, "lon": -157.8628141}, {"type": "node", "id": 2959365950, "lat": 21.3105396, "lon": -157.8628099}, {"type": "node", "id": 2959380733, "lat": 21.3104281, "lon": -157.8627684}, {"type": "node", "id": 4175109984, "lat": 21.3068125, "lon": -157.86197, "tags": {"addr:city": "Honolulu", "addr:housenumber": "801", "addr:postcode": "96813", "addr:state": "HI", "addr:street": "Alakea Street", "amenity": "restaurant", "capacity": "100", "contact:facebook": "https://www.facebook.com/WaterDropVegetarianHouse", "cuisine": "chinese", "delivery": "no", "description": "Belongs to FGS Hawaii (Taiwanese Buddhist temple), so the food is Chinese vegetarian. Gift shop next to kitchen.", "diet:vegetarian": "only", "name": "Water Drop Vegetarian House", "opening_hours": "Mo-Fr 11:00-14:00", "smoking": "no", "takeaway": "no"}}, {"type": "node", "id": 4467668230, "lat": 21.3075255, "lon": -157.8632931, "tags": {"addr:city": "Honolulu", "addr:housenumber": "1111", "addr:postcode": "96813", "addr:state": "HI", "addr:street": "Bishop Street", "amenity": "restaurant", "cuisine": "indian", "delivery": "no", "email": "info@komalacurryhouse.com", "name": "Komala Curry House", "opening_hours": "Mo-Fr 10:30-15:00", "phone": "+1 808 498-7484", "smoking": "no", "takeaway": "yes"}}, {"type": "node", "id": 4517516392, "lat": 21.3075374, "lon": -157.8616931, "tags": {"amenity": "restaurant", "name": "BIC Tacos", "name:en": "BIC Tacos"}}, {"type": "node", "id": 4569931491, "lat": 21.3024595, "lon": -157.8615724, "tags": {"amenity": "atm", "operator": "First Circuit Court"}}, {"type": "node", "id": 4826249869, "lat": 21.3106819, "lon": -157.8628858, "tags": {"amenity": "atm", "branch": "Chinatown Historic District", "brand": "First Hawaiian Bank", "currency:USD": "yes", "description": "outside on corner of building", "drive_through": "no", "name": "First Hawaiian Bank", "opening_hours": "24/7"}}, {"type": "node", "id": 4873114781, "lat": 21.308824, "lon": -157.861931, "tags": {"amenity": "atm", "brand": "Bank of Hawaii", "brand:wikidata": "Q4856124", "drive_through": "no", "name": "Bank of Hawaii", "opening_hours": "24/7", "operator": "Bank of Hawaii", "operator:wikidata": "Q4856124", "operator:wikipedia": "en:Bank of Hawaii"}}, {"type": "node", "id": 4883539086, "lat": 21.3091474, "lon": -157.8624034}, {"type": "node", "id": 4883539087, "lat": 21.3092283, "lon": -157.8622334}, {"type": "node", "id": 4883539088, "lat": 21.3094138, "lon": -157.8623441}, {"type": "node", "id": 4883539089, "lat": 21.3093321, "lon": -157.8625147}, {"type": "node", "id": 4916023045, "lat": 21.3081773, "lon": -157.8622032}, {"type": "node", "id": 4916023046, "lat": 21.3085157, "lon": -157.8621711}, {"type": "node", "id": 4916023047, "lat": 21.3085742, "lon": -157.8622189}, {"type": "node", "id": 4916023048, "lat": 21.3086103, "lon": -157.8621655}, {"type": "node", "id": 4916023049, "lat": 21.3085525, "lon": -157.8621185}, {"type": "node", "id": 5073969509, "lat": 21.3069937, "lon": -157.8611732, "tags": {"addr:city": "Honolulu", "addr:housenumber": "201", "addr:postcode": "96813", "addr:state": "HI", "addr:street": "Merchant Street", "addr:unit": "Suite 2400", "amenity": "bank", "name": "FNL Insurance Company, LTD"}}, {"type": "node", "id": 5729057244, "lat": 21.3100327, "lon": -157.8611689, "tags": {"amenity": "restaurant", "cuisine": "japanese", "name": "Marukame", "outdoor_seating": "yes", "takeaway": "yes"}}, {"type": "node", "id": 6377287044, "lat": 21.3081877, "lon": -157.861072, "tags": {"amenity": "atm", "check_date": "2024-01-30", "name": "American Savings Bank", "opening_hours": "24/7", "wheelchair": "yes"}}, {"type": "node", "id": 6377287050, "lat": 21.3071286, "lon": -157.8657463, "tags": {"amenity": "cafe", "cuisine": "coffee_shop", "name": "Mexican Coffee"}}, {"type": "node", "id": 6377287051, "lat": 21.3087692, "lon": -157.8614876, "tags": {"amenity": "bank", "atm": "yes", "name": "Territorial Savings Bank"}}, {"type": "node", "id": 6377287053, "lat": 21.3071415, "lon": -157.865236, "tags": {"amenity": "restaurant", "brand": "The Old Spaghetti Factory", "brand:wikidata": "Q7754912", "cuisine": "italian", "name": "The Old Spaghetti Factory"}}, {"type": "node", "id": 6377287057, "lat": 21.3076427, "lon": -157.86133, "tags": {"amenity": "fast_food", "brand": "L&L Hawaiian Barbecue", "brand:wikidata": "Q6455441", "cuisine": "hawaiian", "name": "L&L Hawaiian Barbecue", "takeaway": "yes"}}, {"type": "node", "id": 6579520185, "lat": 21.3069691, "lon": -157.8649872, "tags": {"addr:housenumber": "745", "addr:street": "Fort Street", "amenity": "cafe", "name": "Burgers on Bishop", "opening_hours": "Mo-Fr 08:00-15:00", "website": "https://www.burgersonbishop.com/lunch"}}, {"type": "node", "id": 6651547106, "lat": 21.3109731, "lon": -157.8623885, "tags": {"amenity": "bar", "name": "The Dragon Upstairs"}}, {"type": "node", "id": 6906469049, "lat": 21.3104071, "lon": -157.863553, "tags": {"addr:city": "Honolulu", "addr:housenumber": "902", "addr:postcode": "96817", "addr:state": "HI", "addr:street": "Nuuanu Avenue", "amenity": "pub", "name": "Black Shamrock Tavern", "opening_hours": "Mo 14:00-22:00, Tu-Th 12:00-22:00, Fr-Sa 12:00-24:00, Su off", "phone": "+1-808-777-3000", "theme": "irish", "website": "https://www.blackshamrocktavern.com/"}}, {"type": "node", "id": 6906510131, "lat": 21.3080074, "lon": -157.8636351, "tags": {"addr:city": "Honolulu", "addr:housenumber": "745", "addr:postcode": "96813", "addr:state": "HI", "addr:street": "Fort Street Mall", "addr:unit": "127A", "amenity": "bar", "email": "info@barleatherapron.com", "name": "Bar Leather Apron", "outdoor_seating": "no", "phone": "+18085240808", "website": "https://www.barleatherapron.com"}}, {"type": "node", "id": 7675619617, "lat": 21.3073278, "lon": -157.8617296, "tags": {"amenity": "fast_food", "brand": "Domino's", "brand:wikidata": "Q839466", "cuisine": "pizza", "name": "Domino's", "takeaway": "yes"}}, {"type": "node", "id": 7677967068, "lat": 21.310308, "lon": -157.8629853, "tags": {"addr:city": "Honolulu", "addr:housenumber": "1028", "addr:postcode": "96817", "addr:state": "HI", "addr:street": "Nuuanu Avenue", "amenity": "restaurant", "check_date": "2022-07-01", "cuisine": "korean", "diet:vegan": "yes", "diet:vegetarian": "yes", "internet_access": "wlan", "internet_access:fee": "no", "name": "O\u2019Kims", "outdoor_seating": "yes", "payment:apple_pay": "yes", "payment:contactless": "yes", "payment:google_pay": "yes", "payment:mastercard": "yes", "payment:samsung_pay": "yes", "payment:visa": "yes", "phone": "+1 808-537-3787", "reservation": "yes", "website": "https://www.okimshawaii.com/", "wheelchair": "yes"}}, {"type": "node", "id": 7738549037, "lat": 21.3107548, "lon": -157.8638091, "tags": {"addr:housenumber": "110", "addr:street": "Marin Lane", "amenity": "cafe", "name": "Local Joe", "opening_hours": "Mo-Fr 06:30-17:00, Sa 08:00-13:00"}}, {"type": "node", "id": 9861710278, "lat": 21.3105639, "lon": -157.863029, "tags": {"amenity": "bank", "atm": "yes", "brand": "HomeStreet Bank", "brand:wikidata": "Q60762481", "check_date": "2022-07-01", "name": "HomeStreet Bank"}}, {"type": "node", "id": 9932734191, "lat": 21.3050958, "lon": -157.8614447}, {"type": "node", "id": 9932734192, "lat": 21.3051409, "lon": -157.8613641}, {"type": "node", "id": 9932734193, "lat": 21.3052368, "lon": -157.8614258}, {"type": "node", "id": 9932734194, "lat": 21.3051917, "lon": -157.8615065}, {"type": "node", "id": 10762988930, "lat": 21.3090612, "lon": -157.8625489, "tags": {"amenity": "cafe", "cuisine": "coffee_shop", "name": "Downtown Coffee"}}, {"type": "node", "id": 11401118870, "lat": 21.3110241, "lon": -157.8641736, "tags": {"addr:city": "Honolulu", "addr:housenumber": "918", "addr:postcode": "96817", "addr:state": "HI", "addr:street": "Smith Street", "addr:unit": "A", "air_conditioning": "yes", "amenity": "fast_food", "brand": "Blondies Vegan Brand Proteins Hawaii", "cuisine": "coffee_shop;burger;sandwich;mexican;hot_dog;dessert;salad", "delivery": "yes", "description": "Blondies Vegan Brand Proteins + Cafe | Making vegan proteins since 1999 | 100% Vegan Menu | Signature food, Hawaiian Espresso, Signature Smoothies and more | Offering gluten-free, soy-free, nut-free, cholesterol-free | Shelf-stable egg ships world-wide", "diet:cholesterol-free": "yes", "diet:dairy_free": "yes", "diet:gluten_free": "yes", "diet:nut_free": "yes", "diet:soy_free": "yes", "diet:vegetarian": "yes", "email": "aloha@blondiesvegankitchen.com", "name": "Blondies Vegan Brand Proteins + Cafe", "outdoor_seating": "yes", "phone": "+1-808-798-0303", "website": "https://www.blondiesvegankitchenfoodtruckhawaii.com/"}}, {"type": "node", "id": 11679076521, "lat": 21.3060252, "lon": -157.8658909, "tags": {"amenity": "restaurant", "cuisine": "breakfast", "internet_access": "wlan", "internet_access:fee": "no", "name": "Patrick's Roadhouse Five O", "toilets": "yes", "toilets:access": "public", "toilets:unisex": "no"}}, {"type": "node", "id": 12001568886, "lat": 21.3101668, "lon": -157.8635185, "tags": {"addr:city": "Honolulu", "addr:housenumber": "2", "addr:postcode": "96813", "addr:state": "HI", "addr:street": "Merchant Street", "amenity": "pub", "name": "Murphy's Bar and Grill", "opening_hours": "Mo-Th 11:00-20:00+, Fr 11:00-21:00+, Sa-Su off", "phone": "+1-808-531-0422", "theme": "irish", "website": "https://www.murphyshawaii.com/"}}, {"type": "way", "id": 170351085, "nodes": [1815017863, 1815017856, 1815017858, 1815017862, 1815017865, 1815017857, 1815017860, 1815017861, 1815017852, 1815017859, 1815017853, 1815017863], "tags": {"boundary": "protected_area", "building": "ship", "heritage": "2", "heritage:operator": "nrhp", "historic": "ship", "name": "Falls of Clyde", "nrhp:criteria": "(A),(B),(C)", "nrhp:inscription_date": "7/2/1973", "nrhp:nhl": "yes", "protection_title": "protected_site", "ref:nrhp": "73000659", "ship:type": "tanker", "start_date": "1878", "tourism": "attraction", "wikidata": "Q663536", "wikipedia": "en:Falls of Clyde (ship)"}}, {"type": "way", "id": 289828117, "nodes": [2933628702, 2933628505, 2933628802, 2933628803, 2933628506, 2933628703, 2933628804, 2933628511, 2933628510, 2933628507, 2933628508, 2933628509, 2933628702], "tags": {"amenity": "bank", "building": "yes", "building:levels": "11", "height": "52", "name": "American Savings Bank"}}, {"type": "way", "id": 292383015, "nodes": [2959365949, 2959365950, 2959365551, 2959364777, 2959358323, 2959380733, 2959365949], "tags": {"building": "retail", "building:levels": "1", "height": "16", "levels": "2"}}, {"type": "way", "id": 496676912, "nodes": [4883539089, 4883539088, 4883539087, 4883539086, 4883539089], "tags": {"addr:city": "Honolulu", "addr:housenumber": "988", "addr:postcode": "96813", "addr:state": "HI", "addr:street": "Fort Street Mall", "amenity": "bank", "branch": "Fort Street", "brand": "Aloha Pacific Federal Credit Union", "building": "yes", "building:levels": "5", "fax": "+1 808 539 0226", "height": "20", "name": "Aloha Pacific Federal Credit Union", "opening_hours:covid19": "Mo-Fr 07:30-17:30", "phone": "+1 808 531 7111", "website": "alohapacific.com"}}, {"type": "way", "id": 500584363, "nodes": [2800811952, 2800811950, 4916023047, 4916023048, 2933628512, 2931593101, 2931593401, 2931593301, 4916023049, 4916023046, 2800811953, 4916023045, 2800811952], "tags": {"addr:city": "Honolulu", "addr:housenumber": "111", "addr:postcode": "96813", "addr:state": "HI", "addr:street": "South King Street", "building": "retail", "building:levels": "27", "height": "0"}}, {"type": "way", "id": 1083898375, "nodes": [9932734191, 9932734192, 9932734193, 9932734194, 9932734191], "tags": {"amenity": "restaurant", "amenity:restaurant": "yes", "building": "yes", "cuisine": "japanese", "name": "Irifune"}}]}