{"version": 0.6, "generator": "Overpass API 0.7.62.1 084b4234", "osm3s": {"timestamp_osm_base": "2024-07-25T18:41:45Z", "copyright": "The data included in this document is from www.openstreetmap.org. The data is made available under ODbL."}, "elements": [{"type": "node", "id": 2072485791, "lat": 38.9887336, "lon": -104.7933274}, {"type": "node", "id": 2072486702, "lat": 38.9880435, "lon": -104.7943198}, {"type": "node", "id": 5620705210, "lat": 38.9877785, "lon": -104.7940202}, {"type": "node", "id": 5620705211, "lat": 38.9877285, "lon": -104.7940993}, {"type": "node", "id": 5620705212, "lat": 38.9876128, "lon": -104.7939679}, {"type": "node", "id": 5620705213, "lat": 38.9878974, "lon": -104.7935227}, {"type": "node", "id": 5620705214, "lat": 38.9880287, "lon": -104.7936702}, {"type": "node", "id": 5620705215, "lat": 38.9881914, "lon": -104.7934449}, {"type": "node", "id": 5620705216, "lat": 38.9881205, "lon": -104.7933577}, {"type": "node", "id": 5620705217, "lat": 38.9881195, "lon": -104.793241}, {"type": "node", "id": 5620705218, "lat": 38.9885374, "lon": -104.7929111}, {"type": "node", "id": 5620705219, "lat": 38.9884394, "lon": -104.7928011}, {"type": "node", "id": 8495968944, "lat": 38.9901785, "lon": -104.7975661}, {"type": "node", "id": 8495968945, "lat": 38.9900679, "lon": -104.797569}, {"type": "node", "id": 8495968946, "lat": 38.9900679, "lon": -104.7975429}, {"type": "node", "id": 8495968947, "lat": 38.9900129, "lon": -104.7975444}, {"type": "node", "id": 8495968948, "lat": 38.9900123, "lon": -104.7973314}, {"type": "node", "id": 8495968949, "lat": 38.9900407, "lon": -104.7973313}, {"type": "node", "id": 8495968950, "lat": 38.9900409, "lon": -104.7972307}, {"type": "node", "id": 8495968951, "lat": 38.9900891, "lon": -104.797229}, {"type": "node", "id": 8495968952, "lat": 38.9901677, "lon": -104.7972472}, {"type": "node", "id": 8495968953, "lat": 38.9901689, "lon": -104.7973186}, {"type": "node", "id": 8495968954, "lat": 38.9901784, "lon": -104.797396}, {"type": "node", "id": 8495968955, "lat": 38.9902015, "lon": -104.7973453}, {"type": "node", "id": 8495968956, "lat": 38.990187, "lon": -104.7973918}, {"type": "node", "id": 8495968957, "lat": 38.9901981, "lon": -104.7973775}, {"type": "node", "id": 8495968958, "lat": 38.9902026, "lon": -104.7973638}, {"type": "node", "id": 8495968959, "lat": 38.990195, "lon": -104.7973319}, {"type": "node", "id": 8495968960, "lat": 38.990186, "lon": -104.797323}, {"type": "node", "id": 8495968961, "lat": 38.990179, "lon": -104.7973199}, {"type": "node", "id": 8495968962, "lat": 38.9901385, "lon": -104.7972478}, {"type": "node", "id": 8495968963, "lat": 38.9901201, "lon": -104.7972058}, {"type": "node", "id": 8495968964, "lat": 38.9901385, "lon": -104.7972343}, {"type": "node", "id": 8495968965, "lat": 38.9901354, "lon": -104.7972204}, {"type": "node", "id": 8495968966, "lat": 38.9901296, "lon": -104.7972118}, {"type": "node", "id": 8495968967, "lat": 38.9901075, "lon": -104.7972071}, {"type": "node", "id": 8495968968, "lat": 38.9900983, "lon": -104.7972112}, {"type": "node", "id": 8495968969, "lat": 38.9900916, "lon": -104.797218}, {"type": "node", "id": 8495968970, "lat": 38.9901784, "lon": -104.7974996}, {"type": "node", "id": 8495968971, "lat": 38.9901784, "lon": -104.7974216}, {"type": "node", "id": 8495968972, "lat": 38.990191, "lon": -104.7974218}, {"type": "node", "id": 8495968973, "lat": 38.9901912, "lon": -104.7974987}, {"type": "node", "id": 8495968974, "lat": 38.9901928, "lon": -104.7973864}, {"type": "node", "id": 8522954019, "lat": 38.9900287, "lon": -104.7975434}, {"type": "node", "id": 8919908189, "lat": 38.9903218, "lon": -104.7955349}, {"type": "node", "id": 8919908190, "lat": 38.990322, "lon": -104.7951457}, {"type": "node", "id": 8919908191, "lat": 38.9902245, "lon": -104.7951461}, {"type": "node", "id": 8919908192, "lat": 38.9902253, "lon": -104.7955366}, {"type": "node", "id": 8919908193, "lat": 38.9902899, "lon": -104.7945066}, {"type": "node", "id": 8919908194, "lat": 38.990288, "lon": -104.7943336}, {"type": "node", "id": 8919908195, "lat": 38.9901133, "lon": -104.7943376}, {"type": "node", "id": 8919908196, "lat": 38.9901148, "lon": -104.7944816}, {"type": "node", "id": 8919908197, "lat": 38.9901712, "lon": -104.7944796}, {"type": "node", "id": 8919908198, "lat": 38.9901715, "lon": -104.7945086}, {"type": "node", "id": 9634581330, "lat": 38.9902362, "lon": -104.7962331, "tags": {"addr:city": "Colorado Springs", "addr:housenumber": "1846", "addr:postcode": "80908", "addr:state": "CO", "addr:street": "Democracy Point", "amenity": "fast_food", "brand": "Chipotle", "brand:wikidata": "Q465751", "cuisine": "mexican", "name": "Chipotle", "official_name": "Chipotle Mexican Grill", "phone": "+1 719-249-1407", "takeaway": "yes", "website": "https://locations.chipotle.com/co/colorado-springs/1846-democracy-pt"}}, {"type": "node", "id": 10145191697, "lat": 38.991035, "lon": -104.7937701}, {"type": "node", "id": 10145191698, "lat": 38.991035, "lon": -104.793703}, {"type": "node", "id": 10145191699, "lat": 38.9911496, "lon": -104.793703}, {"type": "node", "id": 10145191700, "lat": 38.9911496, "lon": -104.7937701}, {"type": "node", "id": 10147411188, "lat": 38.9882956, "lon": -104.7929701}, {"type": "node", "id": 10147411189, "lat": 38.9883123, "lon": -104.7929889}, {"type": "node", "id": 10147411190, "lat": 38.9883957, "lon": -104.7928521}, {"type": "node", "id": 10147411191, "lat": 38.988503, "lon": -104.7929688}, {"type": "node", "id": 10147411192, "lat": 38.988649, "lon": -104.7924659}, {"type": "node", "id": 10147411193, "lat": 38.9888804, "lon": -104.792718}, {"type": "node", "id": 10147411194, "lat": 38.9885989, "lon": -104.7931793}, {"type": "node", "id": 11038066824, "lat": 38.9900282, "lon": -104.7973313}, {"type": "way", "id": 588495773, "nodes": [2072485791, 10147411194, 10147411193, 10147411192, 5620705219, 5620705218, 10147411191, 10147411190, 10147411189, 10147411188, 5620705217, 5620705216, 5620705215, 5620705214, 5620705213, 5620705212, 5620705211, 5620705210, 2072486702, 2072485791], "tags": {"addr:housenumber": "1818", "addr:state": "CO", "amenity": "cinema", "building": "yes", "name": "Icon Cinema", "wikidata": "Q78658655"}}, {"type": "way", "id": 914584045, "nodes": [8495968944, 8495968945, 8495968946, 8522954019, 8495968947, 8495968948, 11038066824, 8495968949, 8495968950, 8495968951, 8495968969, 8495968968, 8495968967, 8495968963, 8495968966, 8495968965, 8495968964, 8495968962, 8495968952, 8495968953, 8495968961, 8495968960, 8495968959, 8495968955, 8495968958, 8495968957, 8495968974, 8495968956, 8495968954, 8495968971, 8495968972, 8495968973, 8495968970, 8495968944], "tags": {"addr:city": "Colorado Springs", "addr:housenumber": "1840", "addr:postcode": "80908", "addr:state": "CO", "addr:street": "Democracy Point", "amenity": "fast_food", "brand": "In-N-Out Burger", "brand:wikidata": "Q1205312", "building": "retail", "building:levels": "1", "building:use": "fast_food", "cuisine": "burger", "delivery": "no", "drive_through": "yes", "name": "In-N-Out Burger", "opening_hours": "10:30-01:00", "outdoor_seating": "yes", "ref": "359", "roof:levels": "1", "roof:shape": "flat", "start_date": "2020-11-20", "store_number": "359", "takeaway": "yes", "website": "https://locations.in-n-out.com/359"}}, {"type": "way", "id": 964335554, "nodes": [8919908189, 8919908190, 8919908191, 8919908192, 8919908189], "tags": {"addr:housenumber": "1864", "addr:state": "CO", "amenity": "fast_food", "brand": "Slim Chickens", "brand:wikidata": "Q30647224", "building": "yes", "cuisine": "chicken", "name": "Slim Chickens", "takeaway": "yes"}}, {"type": "way", "id": 964335555, "nodes": [8919908193, 8919908194, 8919908195, 8919908196, 8919908197, 8919908198, 8919908193], "tags": {"addr:city": "Colorado Springs", "addr:housenumber": "1888", "addr:postcode": "80921", "addr:state": "CO", "addr:street": "Democracy Point", "amenity": "fast_food", "branch": "Interquest Parkway & Voyager Parkway", "brand": "Panda Express", "brand:wikidata": "Q1358690", "building": "yes", "cuisine": "chinese", "name": "Panda Express", "opening_hours": "10:00-21:00", "phone": "+1 719-602-8007", "takeaway": "yes", "website": "https://www.pandaexpress.com/locations/co/colorado-springs/3387"}}, {"type": "way", "id": 1108854542, "nodes": [10145191700, 10145191699, 10145191698, 10145191697, 10145191700], "tags": {"addr:city": "Colorado Springs", "addr:housenumber": "11020", "addr:postcode": "80921", "addr:state": "CO", "addr:street": "Cross Peak View", "amenity": "cafe", "branch": "Cross Peak View", "brand": "Dutch Bros. Coffee", "brand:wikidata": "Q5317253", "building": "yes", "cuisine": "coffee_shop", "diet:vegetarian": "yes", "name": "Dutch Bros. Coffee", "opening_hours": "05:00-23:00", "ref": "DB488", "takeaway": "only", "website": "https://locations.dutchbros.com/dutch-bros-coffee-9209d748dc70", "wheelchair": "yes"}}]}