{"version": 0.6, "generator": "Overpass API 0.7.62.1 084b4234", "osm3s": {"timestamp_osm_base": "2024-07-25T16:02:31Z", "copyright": "The data included in this document is from www.openstreetmap.org. The data is made available under ODbL."}, "elements": [{"type": "node", "id": 1758055806, "lat": 39.5488543, "lon": -105.001504, "tags": {"addr:city": "Highlands Ranch", "addr:housenumber": "1100", "addr:postcode": "80129", "addr:state": "CO", "addr:street": "Sergeant Jon Stiles Drive", "addr:unit": "Unit 107", "alt_name": "Which Wich Superior Sandwiches", "amenity": "fast_food", "brand": "Which Wich?", "brand:wikidata": "Q7993556", "cuisine": "sandwich", "email": "hrtowncenternorth@whichwich.net", "fax": "(303) 683-5153", "name": "Which Wich?", "opening_hours": "Mo-Sa 10:00-21:00, Su 10:00-19:00", "phone": "+1-303-683-9424", "takeaway": "yes", "website": "http://menus.whichwich.com/Which_Wich_ToGo_Menu_00118.pdf"}}, {"type": "node", "id": 1758055807, "lat": 39.5490878, "lon": -105.00181, "tags": {"addr:city": "Highlands Ranch", "addr:housenumber": "1100", "addr:postcode": "80129", "addr:state": "CO", "addr:street": "Sergeant Jon Stiles Drive", "addr:unit": "Unit 102", "alt_name": "Little Caesars Pizza", "amenity": "fast_food", "brand": "Little Caesars", "brand:wikidata": "Q1393809", "cuisine": "pizza", "name": "Little Caesars", "opening_hours": "Mo-Su 10:00-23:00", "phone": "+1-303-683-0808", "takeaway": "yes", "website": "https://littlecaesars.com/en-us/store/9486/"}}, {"type": "node", "id": 1758055809, "lat": 39.5489229, "lon": -105.001707, "tags": {"addr:city": "Highlands Ranch", "addr:housenumber": "1100", "addr:postcode": "80129", "addr:state": "CO", "addr:street": "Sergeant Jon Stiles Drive", "addr:unit": "Unit 106", "alt_name": "Fujiyama Sushi & Hibachi", "amenity": "restaurant", "cuisine": "japanese;sushi", "name": "Fujiyama", "old_name": "Fujiyama Japanese Sushi & Hibachi", "opening_hours": "Mo-Fr 11:00-15:00,16:30-21:30, Sa 12:00-22:00, Su 12:00-21:30", "phone": "+1-303-470-1888", "website": "https://www.fujiyamaco.com/"}}, {"type": "node", "id": 1758055810, "lat": 39.5487106, "lon": -105.001579, "tags": {"addr:city": "Highlands Ranch", "addr:housenumber": "1100", "addr:postcode": "80129", "addr:state": "CO", "addr:street": "Sergeant Jon Stiles Drive", "addr:unit": "Unit 108", "alt_name": "Garbanzo Mediterranean Fresh", "amenity": "restaurant", "cuisine": "mediterranean", "email": "answers@eatgarbanzo.com", "name": "Garbanzo", "old_name": "Garbanzo Mediterranean Grill", "opening_hours": "Mo-Su 11:00-21:00", "phone": "+1-303-471-6100", "website": "https://www.eatgarbanzo.com/our-locations/highlands-ranch/"}}, {"type": "node", "id": 1758057890, "lat": 39.5472277, "lon": -104.9992344, "tags": {"addr:city": "Highlands Ranch", "addr:housenumber": "9344", "addr:postcode": "80129", "addr:state": "CO", "addr:street": "Dorchester Street", "amenity": "restaurant", "cuisine": "american", "name": "Old Blinking Light", "phone": "+1-303-346-9797", "website": "www.oldblinkinglight.com"}}, {"type": "node", "id": 1758057893, "lat": 39.5465747, "lon": -104.9993605, "tags": {"addr:city": "Littleton", "addr:housenumber": "9325", "addr:postcode": "80126", "addr:state": "CO", "addr:street": "Dorchester Street", "addr:unit": "126", "amenity": "fast_food", "brand": "Jimmy John's", "brand:wikidata": "Q1689380", "cuisine": "sandwich", "name": "Jimmy John's", "official_name": "Jimmy John's Gourmet Sandwiches", "phone": "+1 303-470-3055", "takeaway": "yes", "website": "https://locations.jimmyjohns.com/co/highlandsranch/sandwiches-1551.html"}}, {"type": "node", "id": 1758057897, "lat": 39.5478271, "lon": -104.9999726, "tags": {"addr:city": "Highlands Ranch", "addr:housenumber": "9338", "addr:postcode": "80129", "addr:state": "CO", "addr:street": "South Dorchester Street", "addr:unit": "A104", "alt_name": "Qdoba Mexican Grill", "amenity": "fast_food", "branch": "Dorchester", "brand": "Qdoba", "brand:wikidata": "Q1363885", "cuisine": "mexican", "name": "Qdoba", "official_name": "Qdoba Mexican Grill", "opening_hours": "10:30-22:00", "phone": "+1 303-346-6755", "takeaway": "yes", "website": "https://locations.qdoba.com/us/co/highlands-ranch/9338-s-dorchester-st.html"}}, {"type": "node", "id": 1758057898, "lat": 39.5461862, "lon": -105.004076, "tags": {"amenity": "restaurant", "brand": "Noodles & Company", "brand:wikidata": "Q7049673", "cuisine": "pasta", "name": "Noodles & Company"}}, {"type": "node", "id": 2461407986, "lat": 39.5490945, "lon": -104.9991581, "tags": {"addr:city": "Highlands Ranch", "addr:housenumber": "870", "addr:postcode": "80129", "addr:state": "CO", "addr:street": "CPL Max Donahue Lane", "addr:unit": "A", "amenity": "cafe", "branch": "Highlands Ranch Town Center", "brand": "Starbucks", "brand:wikidata": "Q37158", "cuisine": "coffee_shop", "name": "Starbucks", "official_name": "Starbucks Coffee", "phone": "+1 303-471-0775", "ref": "89943", "takeaway": "yes", "website": "https://www.starbucks.com/store-locator/store/89943/highlands-ranch-town-center-870-cpl-max-donahue-lane-suite-a-highlands-ranch-c"}}, {"type": "node", "id": 2468404870, "lat": 39.5490001, "lon": -104.999384, "tags": {"amenity": "fast_food", "brand": "Wahoo's Fish Taco", "brand:wikidata": "Q7959827", "cuisine": "seafood;mexican", "name": "Wahoo's Fish Taco", "short_name": "Wahoo's", "takeaway": "yes"}}, {"type": "node", "id": 2468405235, "lat": 39.5482093, "lon": -105.0019872}, {"type": "node", "id": 2468405236, "lat": 39.5480124, "lon": -105.001856}, {"type": "node", "id": 2468405237, "lat": 39.5479686, "lon": -105.0019665}, {"type": "node", "id": 2468405238, "lat": 39.5481655, "lon": -105.0020977}, {"type": "node", "id": 2468945077, "lat": 39.5496654, "lon": -104.9999804}, {"type": "node", "id": 2468945078, "lat": 39.5497683, "lon": -104.9997062}, {"type": "node", "id": 2468945079, "lat": 39.549647, "lon": -104.9996296}, {"type": "node", "id": 2468945080, "lat": 39.5495441, "lon": -104.9999038}, {"type": "node", "id": 2468945085, "lat": 39.5484822, "lon": -105.0031284}, {"type": "node", "id": 2468945086, "lat": 39.5484176, "lon": -105.0032981}, {"type": "node", "id": 2468945087, "lat": 39.5482302, "lon": -105.0031782}, {"type": "node", "id": 2468945088, "lat": 39.5482948, "lon": -105.0030085}, {"type": "node", "id": 2469022617, "lat": 39.5458917, "lon": -105.0042097, "tags": {"amenity": "bar", "name": "Indulge Bistro and Wine Bar"}}, {"type": "node", "id": 2469022622, "lat": 39.5460558, "lon": -105.0042332, "tags": {"amenity": "cafe", "brand": "Corner Bakery", "brand:wikidata": "Q5171598", "cuisine": "coffee_shop", "name": "Corner Bakery", "takeaway": "yes"}}, {"type": "node", "id": 2469022628, "lat": 39.5461261, "lon": -105.0041524, "tags": {"amenity": "restaurant", "name": "Bernie's Hot Dog"}}, {"type": "node", "id": 4758972250, "lat": 39.5498709, "lon": -105.0042619}, {"type": "node", "id": 4758972251, "lat": 39.5502409, "lon": -105.0044964}, {"type": "node", "id": 4758972253, "lat": 39.5502246, "lon": -105.0044097}, {"type": "node", "id": 4758972254, "lat": 39.5503249, "lon": -105.0041435}, {"type": "node", "id": 4758972255, "lat": 39.5499944, "lon": -105.003934}, {"type": "node", "id": 4758972260, "lat": 39.5502619, "lon": -105.0032422}, {"type": "node", "id": 4758972261, "lat": 39.5504787, "lon": -105.0033818}, {"type": "node", "id": 4758972262, "lat": 39.5506149, "lon": -105.003025}, {"type": "node", "id": 4758972263, "lat": 39.5505671, "lon": -105.0029943}, {"type": "node", "id": 4758972264, "lat": 39.5505774, "lon": -105.0029672}, {"type": "node", "id": 4758972272, "lat": 39.5503342, "lon": -105.0030516}, {"type": "node", "id": 4758972273, "lat": 39.550321, "lon": -105.0030431}, {"type": "node", "id": 4758972274, "lat": 39.5502786, "lon": -105.0031541}, {"type": "node", "id": 4758972275, "lat": 39.5502922, "lon": -105.0031628}, {"type": "node", "id": 4758972281, "lat": 39.5491758, "lon": -105.0019307}, {"type": "node", "id": 4758972282, "lat": 39.5492644, "lon": -105.0017062}, {"type": "node", "id": 4758972283, "lat": 39.5491132, "lon": -105.0016059}, {"type": "node", "id": 4758972284, "lat": 39.5491214, "lon": -105.0015851}, {"type": "node", "id": 4758972285, "lat": 39.5489106, "lon": -105.0014451}, {"type": "node", "id": 4758972286, "lat": 39.5488964, "lon": -105.001481}, {"type": "node", "id": 4758972287, "lat": 39.5487535, "lon": -105.0013861}, {"type": "node", "id": 4758972288, "lat": 39.5486724, "lon": -105.0015914}, {"type": "node", "id": 4758972289, "lat": 39.5488955, "lon": -105.0017395}, {"type": "node", "id": 4758972290, "lat": 39.5488916, "lon": -105.0017609}, {"type": "node", "id": 4758972291, "lat": 39.5489503, "lon": -105.0017998}, {"type": "node", "id": 4758972292, "lat": 39.5489561, "lon": -105.0017849}, {"type": "node", "id": 4758972293, "lat": 39.5484341, "lon": -105.0011172}, {"type": "node", "id": 4758972294, "lat": 39.5483962, "lon": -105.0012129}, {"type": "node", "id": 4758972295, "lat": 39.5483863, "lon": -105.0012063}, {"type": "node", "id": 4758972297, "lat": 39.5483098, "lon": -105.0013991}, {"type": "node", "id": 4758972298, "lat": 39.5481903, "lon": -105.0013195}, {"type": "node", "id": 4758972299, "lat": 39.5481842, "lon": -105.001335}, {"type": "node", "id": 4758972300, "lat": 39.548092, "lon": -105.0012736}, {"type": "node", "id": 4758972301, "lat": 39.5481619, "lon": -105.001097}, {"type": "node", "id": 4758972302, "lat": 39.5481953, "lon": -105.0011193}, {"type": "node", "id": 4758972303, "lat": 39.5482459, "lon": -105.0009918}, {"type": "node", "id": 4758972434, "lat": 39.5464447, "lon": -105.0033467}, {"type": "node", "id": 4758972435, "lat": 39.5464676, "lon": -105.0032815}, {"type": "node", "id": 4758972436, "lat": 39.5464768, "lon": -105.0032869}, {"type": "node", "id": 4758972437, "lat": 39.5465785, "lon": -105.0029974}, {"type": "node", "id": 4758972438, "lat": 39.5464777, "lon": -105.0029378}, {"type": "node", "id": 4758972439, "lat": 39.5464223, "lon": -105.0030958}, {"type": "node", "id": 4758972440, "lat": 39.5464407, "lon": -105.0031067}, {"type": "node", "id": 4758972441, "lat": 39.5463977, "lon": -105.003229}, {"type": "node", "id": 4758972442, "lat": 39.5464288, "lon": -105.0032473}, {"type": "node", "id": 4758972443, "lat": 39.5464026, "lon": -105.0033219}, {"type": "node", "id": 6129307844, "lat": 39.5500866, "lon": -105.002323, "tags": {"addr:city": "Highlands Ranch", "addr:housenumber": "1105", "addr:postcode": "80129", "addr:state": "CO", "addr:street": "Sergeant Jon Stiles Drive", "alt_name": "Kneaders Bakery & Cafe", "amenity": "cafe", "cuisine": "coffee_shop", "name": "Kneaders", "opening_hours": "Mo-Th 06:00-21:00, Fr 06:00-22:00, Sa 07:00-22:00, Su closed", "phone": "+1-720-974-4896", "shop": "bakery", "website": "https://www.kneaders.com/"}}, {"type": "node", "id": 6131644400, "lat": 39.5492753, "lon": -105.0057634}, {"type": "node", "id": 6131644402, "lat": 39.5491329, "lon": -105.0061323}, {"type": "node", "id": 6131644403, "lat": 39.5495153, "lon": -105.0051912}, {"type": "node", "id": 6131644404, "lat": 39.5491161, "lon": -105.0063722}, {"type": "node", "id": 6131644405, "lat": 39.5504656, "lon": -105.0056378}, {"type": "node", "id": 6131644406, "lat": 39.5499686, "lon": -105.0069256}, {"type": "node", "id": 6131644407, "lat": 39.5504394, "lon": -105.0054108}, {"type": "node", "id": 6131644408, "lat": 39.5492021, "lon": -105.005953}, {"type": "node", "id": 6131644409, "lat": 39.5503987, "lon": -105.0055162}, {"type": "node", "id": 6131644412, "lat": 39.5497101, "lon": -105.0046866}, {"type": "node", "id": 6131644413, "lat": 39.5494081, "lon": -105.0054689}, {"type": "node", "id": 6131644414, "lat": 39.5492627, "lon": -105.0059923}, {"type": "node", "id": 6131644415, "lat": 39.5504094, "lon": -105.0053913}, {"type": "node", "id": 6131644416, "lat": 39.5495688, "lon": -105.0050528}, {"type": "node", "id": 6131644418, "lat": 39.5504897, "lon": -105.0055753}, {"type": "node", "id": 6131644419, "lat": 39.5495051, "lon": -105.0052176}, {"type": "node", "id": 6131644420, "lat": 39.5492656, "lon": -105.0057885}, {"type": "node", "id": 6131644421, "lat": 39.5495789, "lon": -105.0050265}, {"type": "node", "id": 6131644423, "lat": 39.5493928, "lon": -105.0054589}, {"type": "node", "id": 6131644425, "lat": 39.549614, "lon": -105.0050822}, {"type": "node", "id": 6131644426, "lat": 39.5495606, "lon": -105.0052206}, {"type": "node", "id": 6131644428, "lat": 39.5504868, "lon": -105.0051908}, {"type": "node", "id": 6131644429, "lat": 39.5491935, "lon": -105.0061716}, {"type": "node", "id": 6131676013, "lat": 39.5493262, "lon": -105.0058279}, {"type": "node", "id": 6131676015, "lat": 39.549213, "lon": -105.0059248}, {"type": "node", "id": 6131676022, "lat": 39.5492402, "lon": -105.0059428}, {"type": "node", "id": 6131676054, "lat": 39.5492295, "lon": -105.0059707}, {"type": "node", "id": 6131676079, "lat": 39.5492929, "lon": -105.0058063}, {"type": "node", "id": 6131676082, "lat": 39.5497391, "lon": -105.00493, "tags": {"addr:city": "Highlands Ranch", "addr:housenumber": "1265", "addr:postcode": "80129", "addr:state": "CO", "addr:street": "Sergeant Jon Stiles Drive", "addr:unit": "Unit A", "amenity": "pharmacy", "brand": "CVS Pharmacy", "brand:website": "https://www.cvs.com/", "brand:wikidata": "Q2078880", "brand:wikipedia": "en:CVS Pharmacy", "dispensing": "yes", "healthcare": "pharmacy", "name": "CVS Pharmacy", "note": "located inside Super Target", "opening_hours": "Mo-Fr 09:00-21:00, Sa-Su 09:00-18:00", "phone": "+1-303-323-4972", "short_name": "CVS", "website": "https://www.cvs.com/store-locator/highlands-ranch-co-pharmacies/1265-sgt-jon-stiles-dr-highlands-ranch-co-80129/storeid=17603"}}, {"type": "node", "id": 6131704903, "lat": 39.5506294, "lon": -105.0066248}, {"type": "node", "id": 6131704905, "lat": 39.550124, "lon": -105.0044231}, {"type": "node", "id": 6131704913, "lat": 39.5497694, "lon": -105.00453, "tags": {"entrance": "yes"}}, {"type": "node", "id": 6131704915, "lat": 39.5506168, "lon": -105.0066249}, {"type": "node", "id": 6131704916, "lat": 39.5505834, "lon": -105.0061054}, {"type": "node", "id": 6131704923, "lat": 39.5506165, "lon": -105.0065531}, {"type": "node", "id": 6131704924, "lat": 39.5505182, "lon": -105.0066623}, {"type": "node", "id": 6131704925, "lat": 39.5505157, "lon": -105.006106}, {"type": "node", "id": 6131704926, "lat": 39.550617, "lon": -105.0066615}, {"type": "node", "id": 6131704928, "lat": 39.5505292, "lon": -105.0061059}, {"type": "node", "id": 6131704932, "lat": 39.5506291, "lon": -105.0065653}, {"type": "node", "id": 6131704938, "lat": 39.5502604, "lon": -105.0044446}, {"type": "node", "id": 6131704939, "lat": 39.5506165, "lon": -105.0065654}, {"type": "node", "id": 6131704945, "lat": 39.5492894, "lon": -105.0062281, "tags": {"addr:city": "Highlands Ranch", "addr:housenumber": "1265", "addr:postcode": "80129", "addr:state": "CO", "addr:street": "Sergeant Jon Stiles Drive", "addr:unit": "A", "amenity": "cafe", "branch": "Target Highlands Ranch 2716", "brand": "Starbucks", "brand:wikidata": "Q37158", "cuisine": "coffee_shop", "name": "Starbucks", "note": "located inside Super Target", "official_name": "Starbucks Coffee", "opening_hours": "Mo-Su 06:00-20:00", "phone": "+1 303-323-4971", "takeaway": "yes", "website": "https://www.starbucks.com/store-locator/store/11006/target-highlands-ranch-2716-1265-sgt-jon-stiles-dr-highlands-ranch-co-80129226"}}, {"type": "node", "id": 6131704947, "lat": 39.5498176, "lon": -105.0044026}, {"type": "node", "id": 6131704948, "lat": 39.5499632, "lon": -105.0048478}, {"type": "node", "id": 6131704950, "lat": 39.5506062, "lon": -105.0061053}, {"type": "node", "id": 6131704955, "lat": 39.5497522, "lon": -105.0045753}, {"type": "node", "id": 6131704956, "lat": 39.5506083, "lon": -105.0065531}, {"type": "node", "id": 6131838879, "lat": 39.5500988, "lon": -105.0036908}, {"type": "node", "id": 6131840310, "lat": 39.5502689, "lon": -105.0032467}, {"type": "node", "id": 6131840319, "lat": 39.5502067, "lon": -105.0040206}, {"type": "node", "id": 6131840321, "lat": 39.5500481, "lon": -105.0038233}, {"type": "node", "id": 6131840324, "lat": 39.5499901, "lon": -105.0039455}, {"type": "node", "id": 6131840336, "lat": 39.5499021, "lon": -105.0041789}, {"type": "node", "id": 6131840340, "lat": 39.5502338, "lon": -105.0040381}, {"type": "node", "id": 6131840344, "lat": 39.5501461, "lon": -105.0035675}, {"type": "node", "id": 6131840365, "lat": 39.5502184, "lon": -105.0040782}, {"type": "node", "id": 6131840370, "lat": 39.5500035, "lon": -105.0039398}, {"type": "node", "id": 6131840372, "lat": 39.5502208, "lon": -105.0033725}, {"type": "node", "id": 6131840374, "lat": 39.5499922, "lon": -105.0047712}, {"type": "node", "id": 6131840378, "lat": 39.5504568, "lon": -105.0033677}, {"type": "node", "id": 6131871845, "lat": 39.550327, "lon": -105.0029841}, {"type": "node", "id": 6131871848, "lat": 39.5503534, "lon": -105.003001}, {"type": "node", "id": 6131871850, "lat": 39.5504614, "lon": -105.0028927}, {"type": "node", "id": 6131871852, "lat": 39.5502927, "lon": -105.0030744, "tags": {"entrance": "yes"}}, {"type": "node", "id": 6131871853, "lat": 39.5504079, "lon": -105.0028584}, {"type": "node", "id": 6131871855, "lat": 39.5503397, "lon": -105.0029396}, {"type": "node", "id": 6131871858, "lat": 39.5501223, "lon": -105.0036295, "tags": {"entrance": "yes"}}, {"type": "node", "id": 6131871859, "lat": 39.5500155, "lon": -105.0039084, "tags": {"entrance": "yes"}}, {"type": "node", "id": 6131871860, "lat": 39.550471, "lon": -105.0028676}, {"type": "node", "id": 6131871861, "lat": 39.5503696, "lon": -105.0029588}, {"type": "node", "id": 6131871862, "lat": 39.5502712, "lon": -105.0031306}, {"type": "node", "id": 6131871863, "lat": 39.5499342, "lon": -105.0040939, "tags": {"entrance": "yes"}}, {"type": "node", "id": 6131871865, "lat": 39.5502844, "lon": -105.0031391}, {"type": "node", "id": 6131871866, "lat": 39.5503876, "lon": -105.0028141}, {"type": "node", "id": 6132023095, "lat": 39.5500734, "lon": -105.0022055}, {"type": "node", "id": 6132023107, "lat": 39.5501447, "lon": -105.002487}, {"type": "node", "id": 6132023125, "lat": 39.5501962, "lon": -105.0024387}, {"type": "node", "id": 6132023128, "lat": 39.5501901, "lon": -105.0024476}, {"type": "node", "id": 6132023133, "lat": 39.5501674, "lon": -105.0024719}, {"type": "node", "id": 6132023136, "lat": 39.5500009, "lon": -105.0021453}, {"type": "node", "id": 6132023147, "lat": 39.5501579, "lon": -105.0024783}, {"type": "node", "id": 6132023154, "lat": 39.5501788, "lon": -105.0024613}, {"type": "node", "id": 6132023168, "lat": 39.5500545, "lon": -105.0024043}, {"type": "node", "id": 6132023172, "lat": 39.5500886, "lon": -105.0024386}, {"type": "node", "id": 6132023183, "lat": 39.5501592, "lon": -105.0022921}, {"type": "node", "id": 6132023987, "lat": 39.5499345, "lon": -105.0022558}, {"type": "node", "id": 6132023988, "lat": 39.5500917, "lon": -105.0024335}, {"type": "node", "id": 6132023993, "lat": 39.5500187, "lon": -105.0023408}, {"type": "node", "id": 6132023996, "lat": 39.5502182, "lon": -105.0023646}, {"type": "node", "id": 6132024001, "lat": 39.5500618, "lon": -105.0023922}, {"type": "node", "id": 6132024012, "lat": 39.5501544, "lon": -105.0023002}, {"type": "node", "id": 6132024019, "lat": 39.5502068, "lon": -105.0024142}, {"type": "node", "id": 6132024021, "lat": 39.5500158, "lon": -105.0023457}, {"type": "node", "id": 6132024028, "lat": 39.5502151, "lon": -105.0023817}, {"type": "node", "id": 6132024031, "lat": 39.5502115, "lon": -105.0023982}, {"type": "node", "id": 6132024032, "lat": 39.5502005, "lon": -105.0024301}, {"type": "node", "id": 6132024037, "lat": 39.5500686, "lon": -105.0022136}, {"type": "node", "id": 6132060212, "lat": 39.5492134, "lon": -105.001735, "tags": {"addr:city": "Highlands Ranch", "addr:housenumber": "1100", "addr:postcode": "80129", "addr:state": "CO", "addr:street": "Sergeant Jon Stiles Drive", "addr:unit": "Unit 101", "amenity": "fast_food", "brand": "Smoothie King", "brand:wikidata": "Q5491421", "cuisine": "juice", "name": "Smoothie King", "opening_hours": "Mo-Fr 07:00-21:00, Sa 08:00-21:00, Su 10:00-20:00", "phone": "+1-720-379-3073", "takeaway": "yes", "website": "https://locations.smoothieking.com/ll/US/CO/Highlands-Ranch/1100-Stg_-Jon-Stiles-Drive"}}, {"type": "node", "id": 6132131692, "lat": 39.5535435, "lon": -105.0050697, "tags": {"tourism": "artwork"}}, {"type": "node", "id": 6134090610, "lat": 39.5535237, "lon": -105.0075104}, {"type": "node", "id": 6134090612, "lat": 39.5539967, "lon": -105.0056529}, {"type": "node", "id": 6134090618, "lat": 39.5539425, "lon": -105.0075129}, {"type": "node", "id": 6134090619, "lat": 39.5537362, "lon": -105.0060391}, {"type": "node", "id": 6134090620, "lat": 39.5534178, "lon": -105.0073007}, {"type": "node", "id": 6134090621, "lat": 39.5539412, "lon": -105.0077819}, {"type": "node", "id": 6134090622, "lat": 39.5534255, "lon": -105.0068011}, {"type": "node", "id": 6134090626, "lat": 39.5536207, "lon": -105.0075112}, {"type": "node", "id": 6134090629, "lat": 39.553786, "lon": -105.0077652}, {"type": "node", "id": 6134090630, "lat": 39.5542415, "lon": -105.0076839}, {"type": "node", "id": 6134090631, "lat": 39.5535479, "lon": -105.0059857}, {"type": "node", "id": 6134090638, "lat": 39.5535225, "lon": -105.0077631}, {"type": "node", "id": 6134090641, "lat": 39.5536759, "lon": -105.0063966}, {"type": "node", "id": 6134090642, "lat": 39.5540654, "lon": -105.0058709}, {"type": "node", "id": 6134090646, "lat": 39.5538922, "lon": -105.0057089}, {"type": "node", "id": 6134090649, "lat": 39.5542662, "lon": -105.0077849}, {"type": "node", "id": 6134090651, "lat": 39.5536231, "lon": -105.0069295}, {"type": "node", "id": 6134090654, "lat": 39.5536173, "lon": -105.0073058}, {"type": "node", "id": 6134090655, "lat": 39.5538823, "lon": -105.0056779}, {"type": "node", "id": 6134090658, "lat": 39.5535934, "lon": -105.0064962}, {"type": "node", "id": 6134090665, "lat": 39.5538707, "lon": -105.0059059}, {"type": "node", "id": 6134090675, "lat": 39.5536131, "lon": -105.0063788}, {"type": "node", "id": 6134090676, "lat": 39.5535752, "lon": -105.0075109}, {"type": "node", "id": 6134090677, "lat": 39.5538605, "lon": -105.0059799}, {"type": "node", "id": 6134090683, "lat": 39.5535754, "lon": -105.0074759}, {"type": "node", "id": 6134091487, "lat": 39.553842, "lon": -105.0059209}, {"type": "node", "id": 6134091488, "lat": 39.5535644, "lon": -105.0068047}, {"type": "node", "id": 6134091494, "lat": 39.5534679, "lon": -105.0064606}, {"type": "node", "id": 6134091495, "lat": 39.5542667, "lon": -105.0076839}, {"type": "node", "id": 6134091498, "lat": 39.5538106, "lon": -105.0057159}, {"type": "node", "id": 6134091511, "lat": 39.5537872, "lon": -105.0075126}, {"type": "node", "id": 6134091515, "lat": 39.5542423, "lon": -105.0075159}, {"type": "node", "id": 6134091522, "lat": 39.5535626, "lon": -105.0069279}, {"type": "node", "id": 6134281124, "lat": 39.5534578, "lon": -105.0068533, "tags": {"addr:city": "Highlands Ranch", "addr:housename": "Shops At Central Park", "addr:housenumber": "1525", "addr:postcode": "80129", "addr:state": "CO", "addr:street": "Park Central Drive", "addr:unit": "Unit 100", "alt_name": "Mad Greens", "amenity": "restaurant", "diet:vegetarian": "yes", "name": "MAD Greens"}}, {"type": "node", "id": 6134281125, "lat": 39.5539753, "lon": -105.0076055, "tags": {"addr:city": "Highlands Ranch", "addr:housename": "Shops At Central Park", "addr:housenumber": "1515", "addr:postcode": "80129", "addr:state": "CO", "addr:street": "Park Central Drive", "addr:unit": "Unit 100", "amenity": "fast_food", "brand": "Zo\u00ebs Kitchen", "brand:wikidata": "Q8074747", "cuisine": "mediterranean", "name": "Zo\u00ebs Kitchen", "takeaway": "yes"}}, {"type": "node", "id": 6134281136, "lat": 39.5541575, "lon": -105.0076649, "tags": {"addr:city": "Highlands Ranch", "addr:housename": "Shops At Central Park", "addr:housenumber": "1515", "addr:postcode": "80129", "addr:state": "CO", "addr:street": "Park Central Drive", "addr:unit": "Unit 200", "amenity": "restaurant", "cuisine": "mexican", "name": "Torchy's Tacos"}}, {"type": "node", "id": 6134281140, "lat": 39.5535782, "lon": -105.0076341, "tags": {"addr:city": "Highlands Ranch", "addr:housename": "Shops At Central Park", "addr:housenumber": "1519", "addr:postcode": "80129", "addr:state": "CO", "addr:street": "Park Central Drive", "addr:unit": "100", "amenity": "cafe", "branch": "Lucent & Town Center", "brand": "Starbucks", "brand:wikidata": "Q37158", "cuisine": "coffee_shop", "drive_through": "yes", "name": "Starbucks", "official_name": "Starbucks Coffee", "phone": "+1 303-683-8857", "ref": "1021013", "takeaway": "yes", "website": "https://www.starbucks.com/store-locator/store/1021013/lucent-town-center-1519-park-central-drive-highlands-ranch-co-8012927"}}, {"type": "node", "id": 6134281141, "lat": 39.5535314, "lon": -105.00642, "tags": {"addr:city": "Highlands Ranch", "addr:housename": "Shops At Central Park", "addr:housenumber": "1485", "addr:postcode": "80129", "addr:state": "CO", "addr:street": "Park Central Drive", "amenity": "restaurant", "cuisine": "american", "name": "Next Door American Eatery"}}, {"type": "node", "id": 9892121844, "lat": 39.5479247, "lon": -104.998976}, {"type": "node", "id": 9892121845, "lat": 39.5480018, "lon": -104.9987771}, {"type": "node", "id": 9892121846, "lat": 39.5480989, "lon": -104.9987281}, {"type": "node", "id": 9892121847, "lat": 39.5481718, "lon": -104.9987765}, {"type": "node", "id": 9892121848, "lat": 39.5480614, "lon": -104.9990559}, {"type": "node", "id": 9892121849, "lat": 39.5481941, "lon": -104.9991441}, {"type": "node", "id": 9892121850, "lat": 39.5481605, "lon": -104.9992291}, {"type": "node", "id": 9892121851, "lat": 39.5479563, "lon": -104.9990935}, {"type": "node", "id": 9892121852, "lat": 39.5479517, "lon": -104.999105}, {"type": "node", "id": 9892121853, "lat": 39.5479424, "lon": -104.9990988}, {"type": "node", "id": 9892121854, "lat": 39.5479375, "lon": -104.9991114}, {"type": "node", "id": 9892121855, "lat": 39.5478773, "lon": -104.9990717}, {"type": "node", "id": 9892121856, "lat": 39.5478812, "lon": -104.9990617}, {"type": "node", "id": 9892121857, "lat": 39.5478716, "lon": -104.9990554}, {"type": "node", "id": 9892121858, "lat": 39.5479024, "lon": -104.9989764}, {"type": "node", "id": 9892121859, "lat": 39.5479108, "lon": -104.9989818}, {"type": "node", "id": 9892121860, "lat": 39.5479154, "lon": -104.9989699}, {"type": "node", "id": 9892121876, "lat": 39.5476759, "lon": -104.9998637, "tags": {"addr:city": "Highlands Ranch", "addr:housenumber": "9338", "addr:postcode": "80129", "addr:state": "CO", "addr:street": "Dorchester Street", "amenity": "ice_cream", "brand": "Cold Stone Creamery", "brand:wikidata": "Q1094923", "cuisine": "ice_cream", "name": "Cold Stone Creamery", "outdoor_seating": "yes", "phone": "+1-303-683-3222"}}, {"type": "node", "id": 9892121914, "lat": 39.5474221, "lon": -104.9994085, "tags": {"addr:city": "Highlands Ranch", "addr:housenumber": "9344", "addr:postcode": "80129", "addr:state": "CO", "addr:street": "Dorchester Street", "amenity": "restaurant", "cuisine": "indian", "name": "Highlands Indian Cuisine", "phone": "+1-720-420-9374", "website": "https://highlandscuisine.com/"}}, {"type": "node", "id": 9892121915, "lat": 39.5475084, "lon": -104.99927, "tags": {"addr:city": "Highlands Ranch", "addr:housenumber": "9344", "addr:postcode": "80129", "addr:state": "CO", "addr:street": "Dorchester Street", "amenity": "restaurant", "brand": "First Watch", "brand:wikidata": "Q5454064", "cuisine": "american;breakfast", "name": "First Watch", "official_name": "First Watch The Daytime Cafe", "phone": "+1-303-346-8687", "website": "https://highlandscuisine.com/"}}, {"type": "node", "id": 9892238399, "lat": 39.547037, "lon": -105.0003141, "tags": {"addr:city": "Highlands Ranch", "addr:housenumber": "9315", "addr:postcode": "80129", "addr:state": "CO", "addr:street": "Dorchester Street", "alt_name": "Jamba Juice", "amenity": "fast_food", "brand": "Jamba", "brand:wikidata": "Q3088784", "cuisine": "juice", "fixme:atp": "no ATP match, check if still exists", "name": "Jamba", "takeaway": "yes"}}, {"type": "node", "id": 9892238400, "lat": 39.5467619, "lon": -105.0001278, "tags": {"addr:city": "Highlands Ranch", "addr:housenumber": "9315", "addr:postcode": "80129", "addr:state": "CO", "addr:street": "Dorchester Street", "amenity": "restaurant", "cuisine": "dessert", "name": "The Bundt Shoppe", "phone": "+1-720-379-6080", "website": "https://www.thebundtshoppe.com"}}, {"type": "node", "id": 9892238441, "lat": 39.5461025, "lon": -105.0022355}, {"type": "node", "id": 9892238442, "lat": 39.5461104, "lon": -105.0022149}, {"type": "node", "id": 9892238443, "lat": 39.5460683, "lon": -105.0021876}, {"type": "node", "id": 9892238444, "lat": 39.54606, "lon": -105.0022093}, {"type": "node", "id": 9892238445, "lat": 39.545991, "lon": -105.0021647}, {"type": "node", "id": 9892238446, "lat": 39.5459301, "lon": -105.0023231}, {"type": "node", "id": 9892238447, "lat": 39.5459671, "lon": -105.002347}, {"type": "node", "id": 9892238448, "lat": 39.545916, "lon": -105.0024799}, {"type": "node", "id": 9892238449, "lat": 39.545966, "lon": -105.0025122}, {"type": "node", "id": 9892238450, "lat": 39.5460163, "lon": -105.0023813}, {"type": "node", "id": 9892238451, "lat": 39.5461088, "lon": -105.0024411}, {"type": "node", "id": 9892238452, "lat": 39.5461708, "lon": -105.0022796}, {"type": "node", "id": 9892238499, "lat": 39.5454704, "lon": -105.0035886}, {"type": "node", "id": 9892238500, "lat": 39.5454526, "lon": -105.0036126}, {"type": "node", "id": 9892238501, "lat": 39.5454693, "lon": -105.0036329}, {"type": "node", "id": 9892238502, "lat": 39.5454667, "lon": -105.0036455}, {"type": "node", "id": 9892238503, "lat": 39.545463, "lon": -105.0036576}, {"type": "node", "id": 9892238504, "lat": 39.5454588, "lon": -105.0036698}, {"type": "node", "id": 9892238505, "lat": 39.5454527, "lon": -105.0036834}, {"type": "node", "id": 9892238506, "lat": 39.5454457, "lon": -105.0036953}, {"type": "node", "id": 9892238507, "lat": 39.5454382, "lon": -105.0037059}, {"type": "node", "id": 9892238508, "lat": 39.5454307, "lon": -105.0037141}, {"type": "node", "id": 9892238509, "lat": 39.5454211, "lon": -105.0037226}, {"type": "node", "id": 9892238510, "lat": 39.5454118, "lon": -105.0037289}, {"type": "node", "id": 9892238511, "lat": 39.5454026, "lon": -105.0037353}, {"type": "node", "id": 9892238512, "lat": 39.5453931, "lon": -105.0037399}, {"type": "node", "id": 9892238513, "lat": 39.5453818, "lon": -105.0037453}, {"type": "node", "id": 9892238514, "lat": 39.5453659, "lon": -105.0037256}, {"type": "node", "id": 9892238515, "lat": 39.5453507, "lon": -105.0037462}, {"type": "node", "id": 9892238516, "lat": 39.5452672, "lon": -105.0036449}, {"type": "node", "id": 9892238517, "lat": 39.5451849, "lon": -105.003748}, {"type": "node", "id": 9892238518, "lat": 39.5451465, "lon": -105.0036977}, {"type": "node", "id": 9892238519, "lat": 39.5452279, "lon": -105.0035945}, {"type": "node", "id": 9892238520, "lat": 39.5452246, "lon": -105.0035888}, {"type": "node", "id": 9892238521, "lat": 39.5452789, "lon": -105.0035157}, {"type": "node", "id": 9892238522, "lat": 39.5452854, "lon": -105.0035239}, {"type": "node", "id": 9892238523, "lat": 39.545314, "lon": -105.0034862}, {"type": "node", "id": 9892238524, "lat": 39.5453025, "lon": -105.0034714}, {"type": "node", "id": 9892238525, "lat": 39.5453402, "lon": -105.0034219}, {"type": "node", "id": 9892264139, "lat": 39.5486166, "lon": -105.0002473}, {"type": "node", "id": 9892264140, "lat": 39.5486643, "lon": -105.0001226}, {"type": "node", "id": 9892264141, "lat": 39.5486701, "lon": -105.0001263}, {"type": "node", "id": 9892264142, "lat": 39.5486883, "lon": -105.0000787}, {"type": "node", "id": 9892264143, "lat": 39.5486817, "lon": -105.0000744}, {"type": "node", "id": 9892264144, "lat": 39.5486974, "lon": -105.0000334}, {"type": "node", "id": 9892264145, "lat": 39.5486097, "lon": -104.9999767}, {"type": "node", "id": 9892264146, "lat": 39.5485958, "lon": -105.0000129}, {"type": "node", "id": 9892264147, "lat": 39.5485833, "lon": -105.0000048}, {"type": "node", "id": 9892264148, "lat": 39.548468, "lon": -105.0003042}, {"type": "node", "id": 9892264149, "lat": 39.548482, "lon": -105.0003751}, {"type": "node", "id": 9892264150, "lat": 39.5485114, "lon": -105.0003958}, {"type": "node", "id": 9892264151, "lat": 39.5485022, "lon": -105.0004209}, {"type": "node", "id": 9892264152, "lat": 39.5485411, "lon": -105.0004458}, {"type": "node", "id": 9892264153, "lat": 39.5485985, "lon": -105.0002955}, {"type": "node", "id": 9892264154, "lat": 39.5486062, "lon": -105.0003004}, {"type": "node", "id": 9892264155, "lat": 39.5486245, "lon": -105.0002524}, {"type": "node", "id": 9892264156, "lat": 39.5484675, "lon": -105.0003451}, {"type": "node", "id": 9892264157, "lat": 39.5484656, "lon": -105.0003248}, {"type": "node", "id": 9892264158, "lat": 39.5484655, "lon": -105.000335}, {"type": "node", "id": 9892264159, "lat": 39.5484661, "lon": -105.000314}, {"type": "node", "id": 9892264160, "lat": 39.5484716, "lon": -105.0003585}, {"type": "node", "id": 9892264161, "lat": 39.5484767, "lon": -105.0003693}, {"type": "node", "id": 9892264169, "lat": 39.5495081, "lon": -105.0011107}, {"type": "node", "id": 9892264170, "lat": 39.549579, "lon": -105.0009277}, {"type": "node", "id": 9892264171, "lat": 39.5493492, "lon": -105.0007779}, {"type": "node", "id": 9892264172, "lat": 39.5493297, "lon": -105.0008281}, {"type": "node", "id": 9892264173, "lat": 39.5493111, "lon": -105.0008159}, {"type": "node", "id": 9892264174, "lat": 39.5492905, "lon": -105.000869}, {"type": "node", "id": 9892264175, "lat": 39.5493093, "lon": -105.0008812}, {"type": "node", "id": 9892264176, "lat": 39.5492784, "lon": -105.0009609}, {"type": "node", "id": 10303545549, "lat": 39.5535921, "lon": -105.0072736, "tags": {"amenity": "restaurant", "cuisine": "sandwich", "diet:vegan": "yes", "diet:vegetarian": "yes", "name": "Ike\u2019s Love & Sandwiches"}}, {"type": "way", "id": 239024734, "nodes": [2468405235, 2468405236, 2468405237, 2468405238, 2468405235], "tags": {"amenity": "fast_food", "brand": "Raising Cane's", "brand:wikidata": "Q7285144", "building": "retail", "building:levels": "1", "cuisine": "chicken", "name": "Raising Cane's", "official_name": "Raising Cane's Chicken Fingers", "takeaway": "yes"}}, {"type": "way", "id": 239080133, "nodes": [2468945077, 2468945078, 2468945079, 2468945080, 2468945077], "tags": {"addr:housenumber": "900", "addr:postcode": "80129", "addr:state": "CO", "addr:street": "Sergeant Jon Stiles Drive", "amenity": "fast_food", "branch": "Steakburgers", "brand": "Freddy's", "brand:wikidata": "Q5496837", "building": "yes", "building:levels": "1", "cuisine": "ice_cream;burger", "name": "Freddy's", "official_name": "Freddys Frozen Custard & Steakburgers", "phone": "+1 3034071045", "takeaway": "yes"}}, {"type": "way", "id": 239080135, "nodes": [2468945085, 2468945086, 2468945087, 2468945088, 2468945085], "tags": {"amenity": "restaurant", "brand": "Denny's", "brand:wikidata": "Q1189695", "building": "retail", "building:levels": "1", "cuisine": "american", "name": "Denny's"}}, {"type": "way", "id": 483144649, "nodes": [4758972281, 4758972282, 4758972283, 4758972284, 4758972285, 4758972286, 4758972287, 4758972288, 4758972289, 4758972290, 4758972291, 4758972292, 4758972281], "tags": {"building": "retail", "building:levels": "1"}}, {"type": "way", "id": 483144650, "nodes": [4758972293, 4758972294, 4758972295, 4758972297, 4758972298, 4758972299, 4758972300, 4758972301, 4758972302, 4758972303, 4758972293], "tags": {"building": "retail", "building:levels": "1"}}, {"type": "way", "id": 483144668, "nodes": [4758972434, 4758972435, 4758972436, 4758972437, 4758972438, 4758972439, 4758972440, 4758972441, 4758972442, 4758972443, 4758972434], "tags": {"addr:city": "Highlands Ranch", "addr:housenumber": "9365", "addr:postcode": "80129", "addr:state": "CO", "addr:street": "Hepburn Street", "amenity": "fast_food", "brand": "Wendy's", "brand:wikidata": "Q550258", "building": "retail", "cuisine": "burger", "name": "Wendy's", "opening_hours": "07:00-22:00", "opening_hours:drive_through": "Mo-Su 06:30-00:00", "phone": "+1 720-348-2906", "takeaway": "yes", "website": "https://locations.wendys.com/highlands-ranch-co-10501"}}, {"type": "way", "id": 654357099, "nodes": [6131644429, 6131644402, 6131644408, 6131676015, 6131676022, 6131676054, 6131644414, 6131644429], "tags": {"building": "retail", "building:levels": "1", "source": "Mapbox"}}, {"type": "way", "id": 654362999, "nodes": [6131704956, 6131704923, 6131704939, 6131704932, 6131704903, 6131704915, 6131704926, 6131704924, 6131704925, 6131704928, 6131704916, 6131704950, 6131704956], "tags": {"building": "retail", "building:levels": "1", "source": "Mapbox"}}, {"type": "way", "id": 654363001, "nodes": [6131644414, 6131676013, 6131676079, 6131644420, 6131644400, 6131644423, 6131644413, 6131644419, 6131644403, 6131644426, 6131644425, 6131644416, 6131644421, 6131644412, 6131704948, 6131644428, 6131644415, 6131644407, 6131644409, 6131644418, 6131644405, 6131644406, 6131644404, 6131644429, 6131644414], "tags": {"building": "retail", "building:levels": "2", "roof:shape": "flat", "source": "Mapbox"}}, {"type": "way", "id": 654363003, "nodes": [6131704948, 6131644412, 6131704955, 6131704913, 6131704947, 4758972250, 6131704905, 6131840374, 6131704948], "tags": {"building": "retail", "building:levels": "1", "source": "Mapbox"}}, {"type": "way", "id": 654380796, "nodes": [4758972251, 6131704938, 4758972253, 4758972254, 6131840365, 6131840370, 4758972255, 6131840324, 6131871863, 6131840336, 4758972250, 6131704905, 4758972251], "tags": {"building": "retail", "building:levels": "1", "source": "Mapbox"}}, {"type": "way", "id": 654380800, "nodes": [6131840321, 6131838879, 6131871858, 6131840344, 6131840372, 6131840310, 6131840378, 6131840319, 6131840340, 6131840365, 6131840370, 6131871859, 6131840321], "tags": {"building": "retail", "building:levels": "1", "source": "Mapbox"}}, {"type": "way", "id": 654384967, "nodes": [6131871861, 6131871853, 6131871850, 6131871860, 6131871866, 6131871855, 6131871861], "tags": {"building": "retail", "building:levels": "1", "source": "Mapbox"}}, {"type": "way", "id": 654384968, "nodes": [6131871861, 6131871848, 4758972272, 4758972273, 6131871865, 4758972274, 4758972275, 4758972260, 6131840310, 6131840378, 4758972261, 4758972262, 4758972263, 4758972264, 6131871850, 6131871853, 6131871861], "tags": {"building": "retail", "building:levels": "2", "source": "Mapbox"}}, {"type": "way", "id": 654384969, "nodes": [6131871848, 4758972272, 4758972273, 6131871865, 6131871862, 6131871852, 6131871845, 6131871848], "tags": {"building": "retail", "building:levels": "1", "source": "Mapbox"}}, {"type": "way", "id": 654399323, "nodes": [6132023996, 6132024012, 6132023183, 6132023095, 6132024037, 6132023136, 6132023987, 6132023993, 6132024021, 6132024001, 6132023168, 6132023172, 6132023988, 6132023107, 6132023147, 6132023133, 6132023154, 6132023128, 6132023125, 6132024032, 6132024019, 6132024031, 6132024028, 6132023996], "tags": {"building": "retail", "building:levels": "1", "source": "Mapbox"}}, {"type": "way", "id": 654636689, "nodes": [6134090622, 6134090620, 6134090654, 6134090651, 6134091522, 6134091488, 6134090622], "tags": {"addr:city": "Highlands Ranch", "addr:housename": "Shops At Central Park", "addr:housenumber": "1525", "addr:postcode": "80129", "addr:state": "CO", "addr:street": "Park Central Drive", "building": "retail", "building:levels": "1", "source": "EsriWorldImagery"}}, {"type": "way", "id": 654636692, "nodes": [6134090641, 6134090619, 6134090631, 6134091494, 6134090658, 6134090675, 6134090641], "tags": {"addr:city": "Highlands Ranch", "addr:housename": "Shops At Central Park", "addr:housenumber": "1485", "addr:postcode": "80129", "addr:state": "CO", "addr:street": "Park Central Drive", "building": "retail", "building:levels": "1", "source": "EsriWorldImagery"}}, {"type": "way", "id": 654636694, "nodes": [6134090642, 6134090677, 6134091487, 6134090665, 6134091498, 6134090655, 6134090646, 6134090612, 6134090642], "tags": {"addr:city": "Highlands Ranch", "addr:housename": "Shops At Central Park", "addr:housenumber": "1489", "addr:postcode": "80129", "addr:state": "CO", "addr:street": "Park Central Drive", "amenity": "restaurant", "brand": "Old Chicago", "brand:wikidata": "Q64411347", "building": "retail", "building:levels": "1", "cuisine": "pizza", "name": "Old Chicago", "official_name": "Old Chicago Pizza & Taproom", "source": "DigitalGlobe-Standard"}}, {"type": "way", "id": 654636699, "nodes": [6134090610, 6134090638, 6134090629, 6134091511, 6134090626, 6134090683, 6134090676, 6134090610], "tags": {"addr:city": "Highlands Ranch", "addr:housename": "Shops At Central Park", "addr:housenumber": "1519", "addr:postcode": "80129", "addr:state": "CO", "addr:street": "Park Central Drive", "building": "retail", "building:levels": "1", "source": "EsriWorldImagery"}}, {"type": "way", "id": 654636702, "nodes": [6134090618, 6134090621, 6134090649, 6134091495, 6134090630, 6134091515, 6134090618], "tags": {"addr:city": "Highlands Ranch", "addr:housename": "Shops At Central Park", "addr:housenumber": "1515", "addr:postcode": "80129", "addr:state": "CO", "addr:street": "Park Central Drive", "building": "retail", "building:levels": "1", "source": "EsriWorldImagery"}}, {"type": "way", "id": 1079109216, "nodes": [9892121844, 9892121845, 9892121846, 9892121847, 9892121848, 9892121849, 9892121850, 9892121851, 9892121852, 9892121853, 9892121854, 9892121855, 9892121856, 9892121857, 9892121858, 9892121859, 9892121860, 9892121844], "tags": {"amenity": "bank", "building": "yes"}}, {"type": "way", "id": 1079109225, "nodes": [9892238441, 9892238442, 9892238443, 9892238444, 9892238445, 9892238446, 9892238447, 9892238448, 9892238449, 9892238450, 9892238451, 9892238452, 9892238441], "tags": {"amenity": "bank", "brand": "KeyBank", "brand:wikidata": "Q1740314", "building": "yes", "name": "KeyBank"}}, {"type": "way", "id": 1079109226, "nodes": [9892238499, 9892238500, 9892238501, 9892238502, 9892238503, 9892238504, 9892238505, 9892238506, 9892238507, 9892238508, 9892238509, 9892238510, 9892238511, 9892238512, 9892238513, 9892238514, 9892238515, 9892238516, 9892238517, 9892238518, 9892238519, 9892238520, 9892238521, 9892238522, 9892238523, 9892238524, 9892238525, 9892238499], "tags": {"amenity": "bank", "brand": "Chase", "brand:wikidata": "Q524629", "building": "yes", "name": "Chase"}}, {"type": "way", "id": 1079111610, "nodes": [9892264139, 9892264140, 9892264141, 9892264142, 9892264143, 9892264144, 9892264145, 9892264146, 9892264147, 9892264148, 9892264159, 9892264157, 9892264158, 9892264156, 9892264160, 9892264161, 9892264149, 9892264150, 9892264151, 9892264152, 9892264153, 9892264154, 9892264155, 9892264139], "tags": {"addr:city": "Highlands Ranch", "addr:housenumber": "950", "addr:postcode": "80129", "addr:state": "CO", "addr:street": "Cpl Max Donahue Lane", "amenity": "fast_food", "branch": "Highlands Ranch Town Center", "brand": "Chick-fil-A", "brand:wikidata": "Q491516", "building": "yes", "cuisine": "chicken", "delivery": "yes", "drive_through": "yes", "indoor_seating": "no", "internet_access": "wlan", "name": "Chick-fil-A", "opening_hours": "Mo-Sa 06:00-22:00; Su off", "phone": "+1 303-470-1300", "ref": "03183", "takeaway": "yes", "website": "https://www.chick-fil-a.com/locations/co/highlands-ranch-town-center"}}, {"type": "way", "id": 1079111611, "nodes": [9892264169, 9892264170, 9892264171, 9892264172, 9892264173, 9892264174, 9892264175, 9892264176, 9892264169], "tags": {"amenity": "restaurant", "brand": "Buffalo Wild Wings", "brand:wikidata": "Q509255", "building": "yes", "cuisine": "wings", "name": "Buffalo Wild Wings"}}]}