{"version": 0.6, "generator": "Overpass API 0.7.62.1 084b4234", "osm3s": {"timestamp_osm_base": "2024-07-25T16:01:30Z", "copyright": "The data included in this document is from www.openstreetmap.org. The data is made available under ODbL."}, "elements": [{"type": "node", "id": 1407415161, "lat": 40.5250058, "lon": -105.0253064, "tags": {"addr:city": "Fort Collins", "addr:housenumber": "2733", "addr:postcode": "80525", "addr:state": "CO", "addr:street": "Council Tree Avenue", "addr:unit": "200", "amenity": "library", "contact:website": "http://www.poudrelibraries.org/", "name": "Library - Council Tree Branch", "opening_hours": "Mo-Sa 09:00-21:00; Su 12:00-17:00"}}, {"type": "node", "id": 1451457167, "lat": 40.5279596, "lon": -105.023313}, {"type": "node", "id": 1451457171, "lat": 40.5279636, "lon": -105.0220335}, {"type": "node", "id": 1451457173, "lat": 40.5277416, "lon": -105.0218165}, {"type": "node", "id": 1451457183, "lat": 40.5279555, "lon": -105.0218109}, {"type": "node", "id": 1451457206, "lat": 40.5271634, "lon": -105.023698}, {"type": "node", "id": 1451457213, "lat": 40.527929, "lon": -105.0237019}, {"type": "node", "id": 1451457231, "lat": 40.5277373, "lon": -105.0216232}, {"type": "node", "id": 1451457240, "lat": 40.5270854, "lon": -105.0230642}, {"type": "node", "id": 1451457253, "lat": 40.5271716, "lon": -105.0216112}, {"type": "node", "id": 1451457254, "lat": 40.5280921, "lon": -105.0220443}, {"type": "node", "id": 1451457262, "lat": 40.5271206, "lon": -105.0222657}, {"type": "node", "id": 1451457272, "lat": 40.5279249, "lon": -105.023439}, {"type": "node", "id": 1451457276, "lat": 40.5271206, "lon": -105.0219438}, {"type": "node", "id": 1451457278, "lat": 40.5271696, "lon": -105.0219465}, {"type": "node", "id": 1451457284, "lat": 40.5271624, "lon": -105.0236751}, {"type": "node", "id": 1451457286, "lat": 40.5271043, "lon": -105.0236738}, {"type": "node", "id": 1451457305, "lat": 40.5271074, "lon": -105.0233049}, {"type": "node", "id": 1451457321, "lat": 40.527063, "lon": -105.0224768}, {"type": "node", "id": 1451457322, "lat": 40.5280941, "lon": -105.0233049}, {"type": "node", "id": 1451457330, "lat": 40.5270905, "lon": -105.0224813}, {"type": "node", "id": 1451457334, "lat": 40.5279616, "lon": -105.0234417}, {"type": "node", "id": 1451457341, "lat": 40.527057, "lon": -105.0230689}, {"type": "node", "id": 1451457347, "lat": 40.5270564, "lon": -105.0233049}, {"type": "node", "id": 1451457355, "lat": 40.5270666, "lon": -105.0222669}, {"type": "node", "id": 1865228256, "lat": 40.5275256, "lon": -105.0270573}, {"type": "node", "id": 1865228257, "lat": 40.5275267, "lon": -105.0271403}, {"type": "node", "id": 1865228258, "lat": 40.5275398, "lon": -105.027204}, {"type": "node", "id": 1865228259, "lat": 40.52754, "lon": -105.0271391}, {"type": "node", "id": 1865228260, "lat": 40.5275402, "lon": -105.0270573}, {"type": "node", "id": 1865228261, "lat": 40.5275404, "lon": -105.0270016}, {"type": "node", "id": 1865228262, "lat": 40.5278207, "lon": -105.0272055}, {"type": "node", "id": 1865228263, "lat": 40.5278213, "lon": -105.0270031}, {"type": "node", "id": 2065698427, "lat": 40.5256835, "lon": -105.026595, "tags": {"amenity": "restaurant", "cuisine": "pizza", "name": "Pablo's Pizza"}}, {"type": "node", "id": 2291919082, "lat": 40.5257527, "lon": -105.024297, "tags": {"addr:housenumber": "2842", "addr:postcode": "80525", "addr:street": "Council Tree Avenue", "air_conditioning": "yes", "amenity": "restaurant", "check_date:opening_hours": "2022-07-02", "cuisine": "greek", "diet:vegan": "no", "diet:vegetarian": "yes", "name": "Cafe Athens", "name:en": "Cafe Athens", "opening_hours": "Mo-Sa 11:00-21:00; Su 11:00-19:00", "payment:credit_cards": "yes", "payment:debit_cards": "yes", "phone": "+1-970-232-9084", "website": "https://www.cafe-athens.com/"}}, {"type": "node", "id": 2291919083, "lat": 40.5256801, "lon": -105.0242939, "tags": {"addr:postcode": "80525", "addr:street": "Council Tree Avenue", "amenity": "fast_food", "brand": "Which Wich?", "brand:wikidata": "Q7993556", "cuisine": "sandwich", "name": "Which Wich?", "name:en": "Which Wich", "takeaway": "yes"}}, {"type": "node", "id": 2291919085, "lat": 40.5238348, "lon": -105.0250172, "tags": {"addr:city": "Fort Collins", "addr:housenumber": "2680", "addr:postcode": "80525", "addr:state": "CO", "addr:street": "East Harmony Road", "amenity": "fast_food", "branch": "Harmony Road", "brand": "Five Guys", "brand:wikidata": "Q1131810", "cuisine": "burger", "name": "Five Guys", "name:en": "Five Guys Burgers and Fries", "official_name": "Five Guys Burgers and Fries", "opening_hours": "11:00-21:30", "phone": "+1 970-204-9140", "takeaway": "yes", "website": "https://www.fiveguys.com/"}}, {"type": "node", "id": 2291919086, "lat": 40.526173, "lon": -105.02421, "tags": {"addr:unit": "131", "amenity": "restaurant", "facebook": "https://www.facebook.com/honolulupokebarfortcollins", "name": "Honolulu Poke Bar"}}, {"type": "node", "id": 2291919087, "lat": 40.5258439, "lon": -105.0242939, "tags": {"amenity": "restaurant", "cuisine": "american", "name": "Doug's Day Diner"}}, {"type": "node", "id": 2346603812, "lat": 40.5256608, "lon": -105.0253407, "tags": {"amenity": "cafe", "cuisine": "frozen_yogurt", "name": "Spooners"}}, {"type": "node", "id": 2346664871, "lat": 40.5256768, "lon": -105.0263048, "tags": {"addr:city": "Fort Collins", "addr:housenumber": "2720", "addr:postcode": "80525", "addr:state": "CO", "addr:street": "Council Tree Avenue", "addr:unit": "118", "amenity": "fast_food", "branch": "Council Tree", "brand": "Qdoba", "brand:wikidata": "Q1363885", "cuisine": "mexican", "diet:vegan": "yes", "diet:vegetarian": "yes", "name": "Qdoba", "official_name": "Qdoba Mexican Grill", "opening_hours": "PH,Mo-Su 06:30-22:00", "phone": "+1 970-377-0155", "takeaway": "yes", "website": "https://locations.qdoba.com/us/co/fort-collins/2720-council-tree-ave.html"}}, {"type": "node", "id": 2346664884, "lat": 40.525194, "lon": -105.0255839, "tags": {"addr:city": "Fort Collins", "addr:housenumber": "2721", "addr:postcode": "80525", "addr:state": "CO", "addr:street": "Council Tree Avenue", "addr:unit": "143", "amenity": "fast_food", "brand": "Panera Bread", "brand:wikidata": "Q7130852", "cuisine": "sandwich;bakery", "diet:vegetarian": "yes", "name": "Panera Bread", "opening_hours": "Mo-Sa 06:00-21:00; Su 07:00-20:00", "phone": "+1 970-530-1020", "short_name": "Panera", "takeaway": "yes", "website": "https://locations.panerabread.com/co/fort-collins/2721-council-tree-avenue.html"}}, {"type": "node", "id": 2436245428, "lat": 40.5237912, "lon": -105.0274115, "tags": {"addr:city": "Fort Collins", "addr:housenumber": "2670", "addr:postcode": "80528", "addr:state": "CO", "addr:street": "East Harmony Road", "amenity": "restaurant", "brand": "BJ's", "brand:wikidata": "Q4835755", "contact:email": "bjs539@bjsrestaurants.com", "contact:fax": "+1-970-282-3725", "contact:phone": "+1-970-282-3700", "contact:website": "http://bjsrestaurants.com/", "cuisine": "american", "internet_access": "wlan", "name": "BJ's", "official_name": "BJ's Restaurant & Brewhouse", "opening_hours": "Mo-Th 11:00-24:00; Fr-Sa 11:00-01:00", "ref:store_number": "539"}}, {"type": "node", "id": 3200453648, "lat": 40.5237748, "lon": -105.0314615, "tags": {"amenity": "bank", "name": "Credit Union of Colorado"}}, {"type": "node", "id": 3200456306, "lat": 40.5237843, "lon": -105.0309201, "tags": {"addr:unit": "102", "amenity": "restaurant", "cuisine": "sandwich", "name": "Cheba Hut", "website": "https://chebahut.com/locations/fort-collins-harmony/"}}, {"type": "node", "id": 3200458738, "lat": 40.5237943, "lon": -105.030706, "tags": {"addr:unit": "101", "amenity": "restaurant", "name": "Pulcinella Pizzeria", "website": "https://pulcinellapizzeria.com/"}}, {"type": "node", "id": 3200460667, "lat": 40.5237763, "lon": -105.030548, "tags": {"addr:unit": "100", "amenity": "fast_food", "brand": "Smashburger", "brand:wikidata": "Q17061332", "cuisine": "burger", "name": "Smashburger", "takeaway": "yes", "website": "https://smashburger.com/locations/us/co/fort-collins/2550-e-harmony-rd"}}, {"type": "node", "id": 3200474722, "lat": 40.5238721, "lon": -105.0282018}, {"type": "node", "id": 3379085150, "lat": 40.5225702, "lon": -105.0239138}, {"type": "node", "id": 3379085151, "lat": 40.5225702, "lon": -105.0240479}, {"type": "node", "id": 3379085152, "lat": 40.5225894, "lon": -105.0238072}, {"type": "node", "id": 3379085153, "lat": 40.5225894, "lon": -105.0239138}, {"type": "node", "id": 3379085154, "lat": 40.5225894, "lon": -105.0240479}, {"type": "node", "id": 3379085155, "lat": 40.5225894, "lon": -105.0241633}, {"type": "node", "id": 3379085159, "lat": 40.522628, "lon": -105.0241633}, {"type": "node", "id": 3379085161, "lat": 40.5226853, "lon": -105.0241633}, {"type": "node", "id": 3379085164, "lat": 40.5227799, "lon": -105.0238072}, {"type": "node", "id": 3379085165, "lat": 40.5227799, "lon": -105.0239259}, {"type": "node", "id": 3379085166, "lat": 40.5227799, "lon": -105.0240369}, {"type": "node", "id": 3379085167, "lat": 40.5227799, "lon": -105.0241633}, {"type": "node", "id": 3379085168, "lat": 40.5227916, "lon": -105.0239259}, {"type": "node", "id": 3379085169, "lat": 40.5227916, "lon": -105.0240369}, {"type": "node", "id": 3495812552, "lat": 40.5226454, "lon": -105.0233941, "tags": {"addr:city": "Fort Collins", "addr:housenumber": "2909", "addr:postcode": "80528", "addr:street": "East Harmony Road", "amenity": "restaurant", "cuisine": "sandwich", "name": "Tom+Chee"}}, {"type": "node", "id": 3495812553, "lat": 40.5227153, "lon": -105.0232794, "tags": {"addr:city": "Fort Collins", "addr:housenumber": "2909", "addr:postcode": "80528", "addr:street": "East Harmony Road", "amenity": "restaurant", "cuisine": "mexican", "name": "Fuzzy's Tacos", "opening_hours": "Su-Th 08:00-22:00; Fr-Sa 08:00-23:00", "website": "http://www.fuzzystacoshop.com/locations/30080-fuzzys-taco-shop-fort-collins-co-coming-soon"}}, {"type": "node", "id": 3509284696, "lat": 40.525194, "lon": -105.0257538, "tags": {"addr:city": "Fort Collins", "addr:housenumber": "2721", "addr:postcode": "80525", "addr:state": "CO", "addr:street": "Council Tree Avenue", "addr:suite": "137", "air_conditioning": "yes", "amenity": "restaurant", "check_date:opening_hours": "2022-07-01", "contact:phone": "+1-970-377-1282", "contact:website": "http://www.bannthairestaurant.net", "cuisine": "thai", "diet:vegan": "yes", "diet:vegetarian": "yes", "drive_through": "yes", "happy_hours": "Mo-Su 15:00-18:00", "name": "Bann Thai", "opening_hours": "Mo-Sa 11:00-21:00; Su 12:00-21:00", "payment:credit_cards": "yes", "payment:debit_cards": "yes", "take_out": "yes"}}, {"type": "node", "id": 3668827497, "lat": 40.5249567, "lon": -105.025587}, {"type": "node", "id": 3668827498, "lat": 40.5249568, "lon": -105.0254814}, {"type": "node", "id": 3668827499, "lat": 40.5249583, "lon": -105.0265887}, {"type": "node", "id": 3668827500, "lat": 40.5249585, "lon": -105.0264807}, {"type": "node", "id": 3668827501, "lat": 40.5249844, "lon": -105.0264807}, {"type": "node", "id": 3668827502, "lat": 40.5249855, "lon": -105.0255871}, {"type": "node", "id": 3668827503, "lat": 40.5252622, "lon": -105.0264858}, {"type": "node", "id": 3668827504, "lat": 40.5252633, "lon": -105.0255854}, {"type": "node", "id": 3668827505, "lat": 40.525283, "lon": -105.0255854}, {"type": "node", "id": 3668827506, "lat": 40.5252832, "lon": -105.0254821}, {"type": "node", "id": 3668827507, "lat": 40.5252841, "lon": -105.0265894}, {"type": "node", "id": 3668827508, "lat": 40.5252842, "lon": -105.0264859}, {"type": "node", "id": 3668827513, "lat": 40.5256287, "lon": -105.0247997}, {"type": "node", "id": 3668827514, "lat": 40.5256288, "lon": -105.0247037}, {"type": "node", "id": 3668827515, "lat": 40.5256305, "lon": -105.0254059}, {"type": "node", "id": 3668827516, "lat": 40.5256306, "lon": -105.0253103}, {"type": "node", "id": 3668827519, "lat": 40.5256339, "lon": -105.0266541}, {"type": "node", "id": 3668827520, "lat": 40.5256341, "lon": -105.0265081}, {"type": "node", "id": 3668827521, "lat": 40.5256393, "lon": -105.025109}, {"type": "node", "id": 3668827522, "lat": 40.5256394, "lon": -105.0250028}, {"type": "node", "id": 3668827523, "lat": 40.5256428, "lon": -105.0265081}, {"type": "node", "id": 3668827524, "lat": 40.525644, "lon": -105.0255309}, {"type": "node", "id": 3668843825, "lat": 40.5256505, "lon": -105.0253103}, {"type": "node", "id": 3668843826, "lat": 40.5256507, "lon": -105.0251091}, {"type": "node", "id": 3668843827, "lat": 40.5256508, "lon": -105.0250028}, {"type": "node", "id": 3668843828, "lat": 40.5256511, "lon": -105.0247997}, {"type": "node", "id": 3668843829, "lat": 40.5257046, "lon": -105.024729}, {"type": "node", "id": 3668843830, "lat": 40.5257046, "lon": -105.0247038}, {"type": "node", "id": 3668843831, "lat": 40.5257051, "lon": -105.0253875}, {"type": "node", "id": 3668843832, "lat": 40.525705, "lon": -105.025406}, {"type": "node", "id": 3668843833, "lat": 40.5257478, "lon": -105.0266543}, {"type": "node", "id": 3668843834, "lat": 40.5257479, "lon": -105.0266368}, {"type": "node", "id": 3668843835, "lat": 40.5258725, "lon": -105.0253878}, {"type": "node", "id": 3668843836, "lat": 40.5258724, "lon": -105.0254084}, {"type": "node", "id": 3668843837, "lat": 40.525874, "lon": -105.0247086}, {"type": "node", "id": 3668843838, "lat": 40.525874, "lon": -105.0247294}, {"type": "node", "id": 3668843839, "lat": 40.5259322, "lon": -105.0253113}, {"type": "node", "id": 3668843840, "lat": 40.5259329, "lon": -105.0248025}, {"type": "node", "id": 3668843841, "lat": 40.525936, "lon": -105.0266372}, {"type": "node", "id": 3668843842, "lat": 40.5259374, "lon": -105.0255315}, {"type": "node", "id": 3668843843, "lat": 40.5259479, "lon": -105.0254086}, {"type": "node", "id": 3668843844, "lat": 40.525948, "lon": -105.0253114}, {"type": "node", "id": 3668843845, "lat": 40.5259484, "lon": -105.0248025}, {"type": "node", "id": 3668843846, "lat": 40.5259485, "lon": -105.0247088}, {"type": "node", "id": 3877230358, "lat": 40.525282, "lon": -105.0253825}, {"type": "node", "id": 3877230359, "lat": 40.5251808, "lon": -105.0253835}, {"type": "node", "id": 3877230360, "lat": 40.5251767, "lon": -105.0253647}, {"type": "node", "id": 3877230361, "lat": 40.5251038, "lon": -105.0253653}, {"type": "node", "id": 3877230362, "lat": 40.5251039, "lon": -105.025395}, {"type": "node", "id": 3877230363, "lat": 40.524959, "lon": -105.0253963}, {"type": "node", "id": 3877230364, "lat": 40.5249578, "lon": -105.0251492}, {"type": "node", "id": 3877230365, "lat": 40.5249801, "lon": -105.025149}, {"type": "node", "id": 3877230366, "lat": 40.5249781, "lon": -105.0247627}, {"type": "node", "id": 3877230367, "lat": 40.5252755, "lon": -105.0247601}, {"type": "node", "id": 3877230368, "lat": 40.5252758, "lon": -105.0248203}, {"type": "node", "id": 3877230369, "lat": 40.5252974, "lon": -105.0248202}, {"type": "node", "id": 3877230370, "lat": 40.5252981, "lon": -105.0249475}, {"type": "node", "id": 3877230371, "lat": 40.5252754, "lon": -105.0249477}, {"type": "node", "id": 3877230372, "lat": 40.5252765, "lon": -105.0251464}, {"type": "node", "id": 3877230373, "lat": 40.5252958, "lon": -105.0251463}, {"type": "node", "id": 3877230374, "lat": 40.5252964, "lon": -105.0252654}, {"type": "node", "id": 3877230375, "lat": 40.5252813, "lon": -105.0252655}, {"type": "node", "id": 3877230377, "lat": 40.5278455, "lon": -105.025692}, {"type": "node", "id": 3877230378, "lat": 40.5278478, "lon": -105.0253097}, {"type": "node", "id": 3877230379, "lat": 40.5279268, "lon": -105.0253105}, {"type": "node", "id": 3877230380, "lat": 40.5279285, "lon": -105.0250304}, {"type": "node", "id": 3877230381, "lat": 40.5278538, "lon": -105.0250296}, {"type": "node", "id": 3877230382, "lat": 40.5278561, "lon": -105.0246478}, {"type": "node", "id": 3877230383, "lat": 40.5273256, "lon": -105.0246421}, {"type": "node", "id": 3877230384, "lat": 40.5273258, "lon": -105.0245984}, {"type": "node", "id": 3877230385, "lat": 40.5272396, "lon": -105.0245975}, {"type": "node", "id": 3877230386, "lat": 40.5272382, "lon": -105.0248189}, {"type": "node", "id": 3877230387, "lat": 40.527211, "lon": -105.0248186}, {"type": "node", "id": 3877230388, "lat": 40.5272093, "lon": -105.0251024}, {"type": "node", "id": 3877230389, "lat": 40.5272547, "lon": -105.0251029}, {"type": "node", "id": 3877230390, "lat": 40.527254, "lon": -105.0252108}, {"type": "node", "id": 3877230391, "lat": 40.5272157, "lon": -105.0252104}, {"type": "node", "id": 3877230392, "lat": 40.527214, "lon": -105.0254786}, {"type": "node", "id": 3877230393, "lat": 40.5272544, "lon": -105.025479}, {"type": "node", "id": 3877230394, "lat": 40.5272531, "lon": -105.0256856}, {"type": "node", "id": 3877230396, "lat": 40.5272086, "lon": -105.0237009}, {"type": "node", "id": 3877230397, "lat": 40.5272066, "lon": -105.0244869}, {"type": "node", "id": 3877230398, "lat": 40.5274808, "lon": -105.0244881}, {"type": "node", "id": 3877230399, "lat": 40.5274817, "lon": -105.0241374}, {"type": "node", "id": 3877230400, "lat": 40.5275374, "lon": -105.0241376}, {"type": "node", "id": 3877230401, "lat": 40.5275385, "lon": -105.0237023}, {"type": "node", "id": 3877230404, "lat": 40.5256745, "lon": -105.024765, "tags": {"amenity": "bank", "brand": "First Tech Federal Credit Union", "brand:wikidata": "Q5453865", "name": "First Tech Federal Credit Union", "opening_hours": "Mo-Fr 09:00-17:00; Sa 10:00-13:00; Su off"}}, {"type": "node", "id": 3877230415, "lat": 40.5252316, "lon": -105.0248442, "tags": {"amenity": "cafe", "name": "Dazbog Coffee", "opening_hours": "PH,Mo-Su 06:00-17:00"}}, {"type": "node", "id": 3877230419, "lat": 40.5253281, "lon": -105.0274847}, {"type": "node", "id": 3877230420, "lat": 40.5253297, "lon": -105.0273555}, {"type": "node", "id": 3877230421, "lat": 40.5253143, "lon": -105.0273552}, {"type": "node", "id": 3877230422, "lat": 40.5253159, "lon": -105.0272148}, {"type": "node", "id": 3877230423, "lat": 40.5253302, "lon": -105.0272151}, {"type": "node", "id": 3877230424, "lat": 40.5253321, "lon": -105.0270495}, {"type": "node", "id": 3877230425, "lat": 40.5252086, "lon": -105.027047}, {"type": "node", "id": 3877230426, "lat": 40.5252084, "lon": -105.0270709}, {"type": "node", "id": 3877230427, "lat": 40.5249931, "lon": -105.0270664}, {"type": "node", "id": 3877230428, "lat": 40.5249962, "lon": -105.0270522}, {"type": "node", "id": 3877230429, "lat": 40.5248411, "lon": -105.0270497}, {"type": "node", "id": 3877230430, "lat": 40.5248347, "lon": -105.0274775}, {"type": "node", "id": 3877230431, "lat": 40.5249631, "lon": -105.0274796}, {"type": "node", "id": 3877230432, "lat": 40.524962, "lon": -105.0275208}, {"type": "node", "id": 3877230433, "lat": 40.5250755, "lon": -105.0275217}, {"type": "node", "id": 3877230434, "lat": 40.5250751, "lon": -105.0274816}, {"type": "node", "id": 3877230437, "lat": 40.5252589, "lon": -105.027161, "tags": {"amenity": "restaurant", "check_date": "2022-08-21", "cuisine": "sushi", "name": "Suehrio Sushi"}}, {"type": "node", "id": 3877230438, "lat": 40.526054, "lon": -105.0274765}, {"type": "node", "id": 3877230439, "lat": 40.526054, "lon": -105.0273753}, {"type": "node", "id": 3877230440, "lat": 40.5260431, "lon": -105.0273753}, {"type": "node", "id": 3877230441, "lat": 40.5260428, "lon": -105.0271593}, {"type": "node", "id": 3877230442, "lat": 40.526055, "lon": -105.0271593}, {"type": "node", "id": 3877230443, "lat": 40.5260547, "lon": -105.0270595}, {"type": "node", "id": 3877230444, "lat": 40.5259821, "lon": -105.0270599}, {"type": "node", "id": 3877230445, "lat": 40.5259822, "lon": -105.0270743}, {"type": "node", "id": 3877230446, "lat": 40.5256375, "lon": -105.0270773}, {"type": "node", "id": 3877230447, "lat": 40.5256255, "lon": -105.027085}, {"type": "node", "id": 3877230448, "lat": 40.5256187, "lon": -105.0270932}, {"type": "node", "id": 3877230450, "lat": 40.5255837, "lon": -105.0271339}, {"type": "node", "id": 3877230452, "lat": 40.5255622, "lon": -105.0271976}, {"type": "node", "id": 3877230453, "lat": 40.525562, "lon": -105.0273761}, {"type": "node", "id": 3877230454, "lat": 40.5255498, "lon": -105.0273761}, {"type": "node", "id": 3877230455, "lat": 40.5255497, "lon": -105.027476}, {"type": "node", "id": 3877230461, "lat": 40.5261041, "lon": -105.0293563}, {"type": "node", "id": 3877230462, "lat": 40.5258133, "lon": -105.0293545}, {"type": "node", "id": 3877230463, "lat": 40.5258126, "lon": -105.0295271}, {"type": "node", "id": 3877230464, "lat": 40.5257283, "lon": -105.0295265}, {"type": "node", "id": 3877230465, "lat": 40.5257287, "lon": -105.0294435}, {"type": "node", "id": 3877230466, "lat": 40.5256456, "lon": -105.0294429}, {"type": "node", "id": 3877230467, "lat": 40.5256458, "lon": -105.0293866}, {"type": "node", "id": 3877230468, "lat": 40.5253423, "lon": -105.0293846}, {"type": "node", "id": 3877230469, "lat": 40.5253431, "lon": -105.029195}, {"type": "node", "id": 3877230470, "lat": 40.5251149, "lon": -105.0291934}, {"type": "node", "id": 3877230471, "lat": 40.5251139, "lon": -105.0294392}, {"type": "node", "id": 3877230472, "lat": 40.5247817, "lon": -105.0294369}, {"type": "node", "id": 3877230473, "lat": 40.5247813, "lon": -105.0295447}, {"type": "node", "id": 3877230474, "lat": 40.5245663, "lon": -105.0295432}, {"type": "node", "id": 3877230475, "lat": 40.5245671, "lon": -105.0293494}, {"type": "node", "id": 3877230476, "lat": 40.5245971, "lon": -105.0293496}, {"type": "node", "id": 3877230477, "lat": 40.5245993, "lon": -105.0288544}, {"type": "node", "id": 3877230478, "lat": 40.5245564, "lon": -105.0288541}, {"type": "node", "id": 3877230479, "lat": 40.5245574, "lon": -105.0286145}, {"type": "node", "id": 3877230480, "lat": 40.5247, "lon": -105.0286155}, {"type": "node", "id": 3877230481, "lat": 40.5247, "lon": -105.0286224}, {"type": "node", "id": 3877230485, "lat": 40.5249823, "lon": -105.0286246}, {"type": "node", "id": 3877230486, "lat": 40.5249823, "lon": -105.0286138}, {"type": "node", "id": 3877230487, "lat": 40.5251304, "lon": -105.0286149}, {"type": "node", "id": 3877230488, "lat": 40.5251299, "lon": -105.0287298}, {"type": "node", "id": 3877230489, "lat": 40.5253435, "lon": -105.0287314}, {"type": "node", "id": 3877230490, "lat": 40.5253433, "lon": -105.028786}, {"type": "node", "id": 3877230491, "lat": 40.525425, "lon": -105.0287866}, {"type": "node", "id": 3877230492, "lat": 40.5254252, "lon": -105.0287275}, {"type": "node", "id": 3877230494, "lat": 40.5256522, "lon": -105.0287292}, {"type": "node", "id": 3877230495, "lat": 40.525652, "lon": -105.0287767}, {"type": "node", "id": 3877230496, "lat": 40.5257266, "lon": -105.0287772}, {"type": "node", "id": 3877230497, "lat": 40.5257265, "lon": -105.0288021}, {"type": "node", "id": 3877230498, "lat": 40.5257702, "lon": -105.0288024}, {"type": "node", "id": 3877230499, "lat": 40.5257705, "lon": -105.0287484}, {"type": "node", "id": 3877230500, "lat": 40.5260741, "lon": -105.0287504}, {"type": "node", "id": 3877230501, "lat": 40.5260739, "lon": -105.0288051}, {"type": "node", "id": 3877230502, "lat": 40.5261062, "lon": -105.0288053}, {"type": "node", "id": 3877242372, "lat": 40.5252632, "lon": -105.0256942}, {"type": "node", "id": 3877284004, "lat": 40.5238109, "lon": -105.0257269}, {"type": "node", "id": 3877284005, "lat": 40.5237879, "lon": -105.0257267}, {"type": "node", "id": 3877284006, "lat": 40.5237882, "lon": -105.0256755}, {"type": "node", "id": 3877284007, "lat": 40.5236758, "lon": -105.0256745}, {"type": "node", "id": 3877284008, "lat": 40.5236755, "lon": -105.0257248}, {"type": "node", "id": 3877284009, "lat": 40.5236272, "lon": -105.0257243}, {"type": "node", "id": 3877284010, "lat": 40.5236258, "lon": -105.0259744}, {"type": "node", "id": 3877284011, "lat": 40.5236717, "lon": -105.0259749}, {"type": "node", "id": 3877284012, "lat": 40.5236716, "lon": -105.0259913}, {"type": "node", "id": 3877284013, "lat": 40.5238094, "lon": -105.0259928}, {"type": "node", "id": 3877284031, "lat": 40.5241415, "lon": -105.0259139}, {"type": "node", "id": 3877284032, "lat": 40.5241422, "lon": -105.0258351}, {"type": "node", "id": 3877284033, "lat": 40.5242481, "lon": -105.0258367}, {"type": "node", "id": 3877284034, "lat": 40.524248, "lon": -105.0258532}, {"type": "node", "id": 3877284035, "lat": 40.5242667, "lon": -105.0258525}, {"type": "node", "id": 3877284036, "lat": 40.5242668, "lon": -105.0259013}, {"type": "node", "id": 3877284037, "lat": 40.5242497, "lon": -105.0259013}, {"type": "node", "id": 3877284038, "lat": 40.5242496, "lon": -105.0259156}, {"type": "node", "id": 4020855950, "lat": 40.5227842, "lon": -105.0250623}, {"type": "node", "id": 4307895432, "lat": 40.5224332, "lon": -105.0254751}, {"type": "node", "id": 4307895433, "lat": 40.5224344, "lon": -105.0250606}, {"type": "node", "id": 4307895438, "lat": 40.5224961, "lon": -105.0254934}, {"type": "node", "id": 4307895439, "lat": 40.5224962, "lon": -105.0254755}, {"type": "node", "id": 4307895440, "lat": 40.5225178, "lon": -105.025061}, {"type": "node", "id": 4307895441, "lat": 40.5225179, "lon": -105.0250373}, {"type": "node", "id": 4307895446, "lat": 40.5225838, "lon": -105.0254759}, {"type": "node", "id": 4307895447, "lat": 40.5225838, "lon": -105.0254938}, {"type": "node", "id": 4307895448, "lat": 40.5226272, "lon": -105.0250615}, {"type": "node", "id": 4307895449, "lat": 40.5226273, "lon": -105.0250378}, {"type": "node", "id": 4307895450, "lat": 40.5226319, "lon": -105.0254941}, {"type": "node", "id": 4307895451, "lat": 40.522632, "lon": -105.0254761}, {"type": "node", "id": 4307895458, "lat": 40.5227224, "lon": -105.0254766}, {"type": "node", "id": 4307895459, "lat": 40.5227224, "lon": -105.0254945}, {"type": "node", "id": 4307895466, "lat": 40.522783, "lon": -105.0254769}, {"type": "node", "id": 4449867324, "lat": 40.5238277, "lon": -105.0282444}, {"type": "node", "id": 4449867325, "lat": 40.5238277, "lon": -105.0283778}, {"type": "node", "id": 4449867326, "lat": 40.5238403, "lon": -105.0283778}, {"type": "node", "id": 4449867327, "lat": 40.5238403, "lon": -105.0284125}, {"type": "node", "id": 4449867328, "lat": 40.5238571, "lon": -105.0282231}, {"type": "node", "id": 4449867329, "lat": 40.5238571, "lon": -105.0282444}, {"type": "node", "id": 4449867330, "lat": 40.5238571, "lon": -105.0284125}, {"type": "node", "id": 4449867331, "lat": 40.5238571, "lon": -105.0284622}, {"type": "node", "id": 4449867332, "lat": 40.5238721, "lon": -105.0282231}, {"type": "node", "id": 4449867333, "lat": 40.5239219, "lon": -105.0284622}, {"type": "node", "id": 4449867334, "lat": 40.5239219, "lon": -105.0284768}, {"type": "node", "id": 4449867335, "lat": 40.5239513, "lon": -105.0282018}, {"type": "node", "id": 4449867336, "lat": 40.5239513, "lon": -105.0282444}, {"type": "node", "id": 4449867337, "lat": 40.5239693, "lon": -105.0282444}, {"type": "node", "id": 4449867338, "lat": 40.5239693, "lon": -105.0283496}, {"type": "node", "id": 4449867339, "lat": 40.52398, "lon": -105.0283496}, {"type": "node", "id": 4449867340, "lat": 40.52398, "lon": -105.0283683}, {"type": "node", "id": 4449867341, "lat": 40.52398, "lon": -105.028459}, {"type": "node", "id": 4449867342, "lat": 40.52398, "lon": -105.0284768}, {"type": "node", "id": 4650492807, "lat": 40.5214392, "lon": -105.0208476}, {"type": "node", "id": 4650492808, "lat": 40.5214396, "lon": -105.0207506}, {"type": "node", "id": 4650492809, "lat": 40.5214599, "lon": -105.0207507}, {"type": "node", "id": 4650492810, "lat": 40.5214604, "lon": -105.0206278}, {"type": "node", "id": 4650492811, "lat": 40.521442, "lon": -105.0206277}, {"type": "node", "id": 4650492812, "lat": 40.5214425, "lon": -105.0205112}, {"type": "node", "id": 4650492813, "lat": 40.5213802, "lon": -105.0205107}, {"type": "node", "id": 4650492814, "lat": 40.5212325, "lon": -105.0208461}, {"type": "node", "id": 4650492815, "lat": 40.5212337, "lon": -105.0205087}, {"type": "node", "id": 4650492816, "lat": 40.5213022, "lon": -105.0205088}, {"type": "node", "id": 4650492817, "lat": 40.5213022, "lon": -105.0205039}, {"type": "node", "id": 4650492818, "lat": 40.521378, "lon": -105.0205039}, {"type": "node", "id": 4650492819, "lat": 40.5212337, "lon": -105.0206301}, {"type": "node", "id": 4650492820, "lat": 40.5212328, "lon": -105.0207477}, {"type": "node", "id": 4650492821, "lat": 40.5212272, "lon": -105.0207477}, {"type": "node", "id": 4650492822, "lat": 40.5212274, "lon": -105.0206301}, {"type": "node", "id": 9083259396, "lat": 40.5226864, "lon": -105.025432, "tags": {"addr:city": "Fort Collins", "addr:housenumber": "2815", "addr:postcode": "80528", "addr:state": "CO", "addr:street": "Harmony Road East", "addr:unit": "104", "amenity": "fast_food", "brand": "Subway", "brand:wikidata": "Q244457", "cuisine": "sandwich", "name": "Subway", "opening_hours": "Mo-Fr 07:30-21:00; Sa-Su 09:00-21:00", "phone": "+1 970-377-0070", "takeaway": "yes", "website": "https://restaurants.subway.com/united-states/co/fort-collins/2815-harmony-rd-e"}}, {"type": "node", "id": 9607742676, "lat": 40.5239451, "lon": -105.0288034}, {"type": "node", "id": 9607742677, "lat": 40.5239448, "lon": -105.0286049}, {"type": "node", "id": 9607742678, "lat": 40.5237248, "lon": -105.0286055}, {"type": "node", "id": 9607742679, "lat": 40.5237251, "lon": -105.0288041}, {"type": "node", "id": 11824438236, "lat": 40.5252624, "lon": -105.0263069}, {"type": "node", "id": 11824438332, "lat": 40.5257009, "lon": -105.0266542}, {"type": "node", "id": 11824438341, "lat": 40.5256428, "lon": -105.0264961}, {"type": "node", "id": 11824438345, "lat": 40.5258026, "lon": -105.0274763}, {"type": "node", "id": 11827421643, "lat": 40.5270635, "lon": -105.0224465, "tags": {"entrance": "yes"}}, {"type": "way", "id": 131940828, "nodes": [1451457213, 1451457272, 1451457334, 1451457167, 1451457322, 1451457254, 1451457171, 1451457183, 1451457173, 1451457231, 1451457253, 1451457278, 1451457276, 1451457262, 1451457355, 11827421643, 1451457321, 1451457330, 1451457240, 1451457341, 1451457347, 1451457305, 1451457286, 1451457284, 1451457206, 3877230396, 3877230401, 1451457213], "tags": {"addr:city": "Fort Collins", "addr:housenumber": "2936", "addr:postcode": "80525-6300", "addr:state": "CO", "addr:street": "Council Tree Avenue", "brand": "Target", "brand:wikidata": "Q1046951", "building": "retail", "building:levels": "1", "name": "Target", "opening_hours": "PH,Mo-Su 07:00-22:00", "phone": "+1 970-530-3120", "roof:levels": "0", "shop": "department_store", "toilets": "yes", "website": "https://www.target.com/sl/fort-collins-east/2403"}}, {"type": "way", "id": 175955920, "nodes": [1865228259, 1865228257, 1865228256, 1865228260, 1865228261, 1865228263, 1865228262, 1865228258, 1865228259], "tags": {"addr:city": "Fort Collins", "addr:housenumber": "4215", "addr:postcode": "80525", "addr:state": "CO", "addr:street": "Corbett Drive", "brand": "Sherwin-Williams", "brand:wikidata": "Q48881", "building": "retail", "contact:email": "sw1649@sherwin.com", "contact:fax": "+1-970-226-1709", "contact:phone": "+1-970-226-0891", "contact:website": "http://www.sherwin-williams.com/", "name": "Sherwin-Williams", "opening_hours": "Mo-Fr 07:00-18:00, Sa 20:00-17:00, Su 10:00-16:00", "shop": "paint"}}, {"type": "way", "id": 330875915, "nodes": [3379085153, 3379085150, 3379085151, 3379085154, 3379085155, 3379085159, 3379085161, 3379085167, 3379085166, 3379085169, 3379085168, 3379085165, 3379085164, 3379085152, 3379085153], "tags": {"addr:city": "Fort Collins", "addr:housenumber": "2827", "addr:postcode": "80528", "addr:state": "CO", "addr:street": "East Harmony Road", "amenity": "bank", "atm": "yes", "brand": "Wells Fargo", "brand:wikidata": "Q744149", "building": "yes", "contact:phone": "+1-970-266-4420", "contact:website": "https://www.wellsfargo.com", "drive_through": "yes", "name": "Wells Fargo", "opening_hours": "Mo-Fr 09:00-18:00; Sa 09:00-14:00 \"Lobby\" || Mo-Fr 08:30-18:00; Sa 09:00-14:00 \"Drive-Up\""}}, {"type": "way", "id": 362613120, "nodes": [3668827499, 3668827507, 3668827508, 3668827503, 11824438236, 3877242372, 3668827504, 3668827505, 3668827506, 3668827498, 3668827497, 3668827502, 3668827501, 3668827500, 3668827499], "tags": {"building": "retail", "building:levels": "2", "name": "Front Range Village", "roof:levels": "0"}}, {"type": "way", "id": 362613122, "nodes": [3668843826, 3668843825, 3668827516, 3668827515, 3668843832, 3668843831, 3668843835, 3668843836, 3668843843, 3668843844, 3668843839, 3668843840, 3668843845, 3668843846, 3668843837, 3668843838, 3668843829, 3668843830, 3668827514, 3668827513, 3668843828, 3668843827, 3668827522, 3668827521, 3668843826], "tags": {"building": "retail"}}, {"type": "way", "id": 362613123, "nodes": [3668843841, 3668843842, 3668827524, 11824438341, 3668827523, 3668827520, 3668827519, 11824438332, 3668843833, 3668843834, 3668843841], "tags": {"building": "retail", "building:levels": "2", "roof:levels": "0"}}, {"type": "way", "id": 384432487, "nodes": [3877230358, 3877230359, 3877230360, 3877230361, 3877230362, 3877230363, 3877230364, 3877230365, 3877230366, 3877230367, 3877230368, 3877230369, 3877230370, 3877230371, 3877230372, 3877230373, 3877230374, 3877230375, 3877230358], "tags": {"building": "retail", "building:levels": "2", "name": "Front Range Village", "roof:levels": "0"}}, {"type": "way", "id": 384432488, "nodes": [3877230377, 3877230378, 3877230379, 3877230380, 3877230381, 3877230382, 3877230383, 3877230384, 3877230385, 3877230386, 3877230387, 3877230388, 3877230389, 3877230390, 3877230391, 3877230392, 3877230393, 3877230394, 3877230377], "tags": {"building": "retail"}}, {"type": "way", "id": 384432489, "nodes": [3877230396, 3877230397, 3877230398, 3877230399, 3877230400, 3877230401, 3877230396], "tags": {"building": "retail"}}, {"type": "way", "id": 384432490, "nodes": [3877230419, 3877230420, 3877230421, 3877230422, 3877230423, 3877230424, 3877230425, 3877230426, 3877230427, 3877230428, 3877230429, 3877230430, 3877230431, 3877230432, 3877230433, 3877230434, 3877230419], "tags": {"building": "retail"}}, {"type": "way", "id": 384432491, "nodes": [3877230438, 3877230439, 3877230440, 3877230441, 3877230442, 3877230443, 3877230444, 3877230445, 3877230446, 3877230447, 3877230448, 3877230450, 3877230452, 3877230453, 3877230454, 3877230455, 11824438345, 3877230438], "tags": {"building": "retail"}}, {"type": "way", "id": 384432492, "nodes": [3877230461, 3877230462, 3877230463, 3877230464, 3877230465, 3877230466, 3877230467, 3877230468, 3877230469, 3877230470, 3877230471, 3877230472, 3877230473, 3877230474, 3877230475, 3877230476, 3877230477, 3877230478, 3877230479, 3877230480, 3877230481, 3877230485, 3877230486, 3877230487, 3877230488, 3877230489, 3877230490, 3877230491, 3877230492, 3877230494, 3877230495, 3877230496, 3877230497, 3877230498, 3877230499, 3877230500, 3877230501, 3877230502, 3877230461], "tags": {"building": "retail"}}, {"type": "way", "id": 384440905, "nodes": [3877284004, 3877284005, 3877284006, 3877284007, 3877284008, 3877284009, 3877284010, 3877284011, 3877284012, 3877284013, 3877284004], "tags": {"addr:city": "Fort Collins", "addr:housenumber": "2820", "addr:postcode": "80528", "addr:state": "CO", "addr:street": "East Harmony Road", "amenity": "bank", "atm": "yes", "brand": "Chase", "brand:wikidata": "Q524629", "building": "yes", "contact:phone": "+1-970-377-9599", "contact:website": "https://www.chase.com/", "name": "Chase", "opening_hours": "Mo-Fr 09:00-18:00; Sa 09:00-14:00 \"Lobby\" || Mo-Fr 08:30-18:00; Sa 09:00-14:00 \"Drive-up\"", "source": "https://locator.chase.com/co/fort-collins/4919"}}, {"type": "way", "id": 384440913, "nodes": [3877284031, 3877284032, 3877284033, 3877284034, 3877284035, 3877284036, 3877284037, 3877284038, 3877284031], "tags": {"amenity": "bank", "atm": "yes", "branch": "Drive Thru", "brand": "Chase", "brand:wikidata": "Q524629", "building": "roof", "drive_through": "yes", "layer": "1", "name": "Chase", "opening_hours": "Mo-Fr 08:30-18:00; Sa 09:00-14:00"}}, {"type": "way", "id": 431572931, "nodes": [4307895448, 4307895449, 4307895441, 4307895440, 4307895433, 4307895432, 4307895439, 4307895438, 4307895447, 4307895446, 4307895451, 4307895450, 4307895459, 4307895458, 4307895466, 4020855950, 4307895448], "tags": {"addr:city": "Fort Collins", "addr:housenumber": "2815", "addr:postcode": "80528", "addr:state": "CO", "addr:street": "East Harmony Road", "amenity": "restaurant", "building": "yes", "contact:email": "harmony@austinsamericangrill.com", "contact:phone": "+1-970-267-6532", "contact:website": "http://austinsamericangrill.com/", "cuisine": "american", "happy_hours": "Mo-Fr 15:00-18:00; Sa-Su 16:00-18:00", "name": "Austin's American Grill - Harmony", "opening_hours": "Mo-Fr 11:00-21:00; Sa 11:00-22:00; Su 10:00-21:00", "phone": "+1-970-267-6532", "website": "http://austinsamericangrill.com/"}}, {"type": "way", "id": 447931534, "nodes": [4449867342, 4449867341, 4449867340, 4449867339, 4449867338, 4449867337, 4449867336, 4449867335, 3200474722, 4449867332, 4449867328, 4449867329, 4449867324, 4449867325, 4449867326, 4449867327, 4449867330, 4449867331, 4449867333, 4449867334, 4449867342], "tags": {"addr:city": "Fort Collins", "addr:housenumber": "2640", "addr:postcode": "80528", "addr:state": "CO", "addr:street": "East Harmony Road", "amenity": "bank", "brand": "PNC Bank", "brand:wikidata": "Q38928", "building": "yes", "contact:fax": "+1-970-658-4087", "contact:phone": "+1-970-658-4086", "contact:website": "https://www.bbvacompass.com/", "drive_through": "yes", "name": "PNC Bank", "opening_hours": "Mo-Th 09:00-17:00; Fr 09:00-18:00 \"Lobby\" || Mo-Th 08:30-17:30; Fr 08:30-18:00 \"Drive-Up\"", "source": "https://apps.pnc.com/locator/location-details/colorado/fort-collins/80528/05738054/harmony-banking-center"}}, {"type": "way", "id": 470869292, "nodes": [4650492807, 4650492808, 4650492809, 4650492810, 4650492811, 4650492812, 4650492813, 4650492818, 4650492817, 4650492816, 4650492815, 4650492819, 4650492822, 4650492821, 4650492820, 4650492814, 4650492807], "tags": {"addr:city": "Fort Collins", "addr:housenumber": "4645", "addr:postcode": "80528", "addr:state": "CO", "addr:street": "Ziegler Road", "amenity": "bank", "building": "yes", "name": "Cache Bank & Trust"}}, {"type": "way", "id": 1044086238, "nodes": [9607742676, 9607742677, 9607742678, 9607742679, 9607742676], "tags": {"addr:city": "Fort Collins", "addr:housenumber": "2610", "addr:postcode": "80525", "addr:state": "CO", "addr:street": "East Harmony Road", "amenity": "bank", "brand": "Bank of America", "brand:wikidata": "Q487907", "building": "yes", "name": "Bank of America"}}]}