{"version": 0.6, "generator": "Overpass API 0.7.62.1 084b4234", "osm3s": {"timestamp_osm_base": "2024-07-25T18:17:09Z", "copyright": "The data included in this document is from www.openstreetmap.org. The data is made available under ODbL."}, "elements": [{"type": "node", "id": 806257717, "lat": 42.2657638, "lon": -84.4253049}, {"type": "node", "id": 806257735, "lat": 42.2660514, "lon": -84.4237138}, {"type": "node", "id": 2334682656, "lat": 42.2661585, "lon": -84.4241}, {"type": "node", "id": 2334682659, "lat": 42.2661585, "lon": -84.4237138}, {"type": "node", "id": 2334682660, "lat": 42.2660514, "lon": -84.4241}, {"type": "node", "id": 2348401753, "lat": 42.2659005, "lon": -84.424671}, {"type": "node", "id": 2348401754, "lat": 42.2662443, "lon": -84.4248063}, {"type": "node", "id": 2348401755, "lat": 42.2661077, "lon": -84.4254403}, {"type": "node", "id": 3262580900, "lat": 42.2705649, "lon": -84.4301159, "tags": {"addr:city": "Jackson", "addr:housenumber": "1285", "addr:postcode": "49202", "addr:state": "MI", "addr:street": "Boardman Road", "amenity": "fast_food", "brand": "Panera Bread", "brand:wikidata": "Q7130852", "cuisine": "sandwich;bakery", "internet_access": "wlan", "internet_access:fee": "no", "name": "Panera Bread", "opening_hours": "Mo-We 06:00-21:00; Fr, Sa 06:00-21:30; Su 07:00-20:00", "outdoor_seating": "yes", "phone": "+1 517-783-0800", "short_name": "Panera", "smoking": "no", "takeaway": "yes", "toilets": "yes", "toilets:access": "customers", "website": "https://locations.panerabread.com/mi/jackson/1285-boardman-road.html", "wheelchair": "yes"}}, {"type": "node", "id": 3262580913, "lat": 42.2694599, "lon": -84.4339953}, {"type": "node", "id": 3262580914, "lat": 42.269462, "lon": -84.4337059}, {"type": "node", "id": 3262580915, "lat": 42.2697393, "lon": -84.433999}, {"type": "node", "id": 3262580916, "lat": 42.2697414, "lon": -84.4337095}, {"type": "node", "id": 4846200585, "lat": 42.2668108, "lon": -84.4279696}, {"type": "node", "id": 4846200586, "lat": 42.2665184, "lon": -84.4278793}, {"type": "node", "id": 4846200587, "lat": 42.2665369, "lon": -84.4277701}, {"type": "node", "id": 4846200588, "lat": 42.2665098, "lon": -84.4277618}, {"type": "node", "id": 4846200589, "lat": 42.2665313, "lon": -84.4276353}, {"type": "node", "id": 4846200590, "lat": 42.2665044, "lon": -84.427627}, {"type": "node", "id": 4846200591, "lat": 42.2665226, "lon": -84.4275205}, {"type": "node", "id": 4846200592, "lat": 42.2664922, "lon": -84.427511}, {"type": "node", "id": 4846200593, "lat": 42.2665407, "lon": -84.4272267}, {"type": "node", "id": 4846200594, "lat": 42.2669629, "lon": -84.4273581}, {"type": "node", "id": 4846200595, "lat": 42.266927, "lon": -84.4275689}, {"type": "node", "id": 4846200596, "lat": 42.2669122, "lon": -84.4275643}, {"type": "node", "id": 4846200597, "lat": 42.2668932, "lon": -84.427676}, {"type": "node", "id": 4846200598, "lat": 42.2668829, "lon": -84.4276728}, {"type": "node", "id": 4846200599, "lat": 42.2668612, "lon": -84.4277998}, {"type": "node", "id": 4846200600, "lat": 42.2668336, "lon": -84.4278348}, {"type": "node", "id": 5034391521, "lat": 42.267022, "lon": -84.4309933}, {"type": "node", "id": 5034391522, "lat": 42.266866, "lon": -84.4306602}, {"type": "node", "id": 5034391523, "lat": 42.2669361, "lon": -84.4306002}, {"type": "node", "id": 5034391524, "lat": 42.266895, "lon": -84.4305125}, {"type": "node", "id": 5034391525, "lat": 42.2670329, "lon": -84.4303945}, {"type": "node", "id": 5034391526, "lat": 42.2669723, "lon": -84.4302652}, {"type": "node", "id": 5034391527, "lat": 42.2670358, "lon": -84.4302109}, {"type": "node", "id": 5034391528, "lat": 42.267026, "lon": -84.4301899}, {"type": "node", "id": 5034391529, "lat": 42.2671392, "lon": -84.4300932}, {"type": "node", "id": 5034391530, "lat": 42.2671619, "lon": -84.4301416}, {"type": "node", "id": 5034391531, "lat": 42.267259, "lon": -84.4300586}, {"type": "node", "id": 5034391532, "lat": 42.2672992, "lon": -84.4301444}, {"type": "node", "id": 5034391533, "lat": 42.2673171, "lon": -84.4301291}, {"type": "node", "id": 5034391534, "lat": 42.2673553, "lon": -84.4302108}, {"type": "node", "id": 5034391535, "lat": 42.2673696, "lon": -84.4301985}, {"type": "node", "id": 5034391539, "lat": 42.2674599, "lon": -84.4302716}, {"type": "node", "id": 5034391542, "lat": 42.2674869, "lon": -84.4303712}, {"type": "node", "id": 5034391544, "lat": 42.2674809, "lon": -84.4304363}, {"type": "node", "id": 5034391545, "lat": 42.2674556, "lon": -84.4304578}, {"type": "node", "id": 5034391546, "lat": 42.2675103, "lon": -84.4305753}, {"type": "node", "id": 5034391547, "lat": 42.2674126, "lon": -84.4306585}, {"type": "node", "id": 5034391548, "lat": 42.2674244, "lon": -84.4306839}, {"type": "node", "id": 5034391549, "lat": 42.2673878, "lon": -84.4307151}, {"type": "node", "id": 5034391550, "lat": 42.2673971, "lon": -84.430735}, {"type": "node", "id": 5034391551, "lat": 42.2673026, "lon": -84.4308158}, {"type": "node", "id": 5034391552, "lat": 42.2672817, "lon": -84.4307712}, {"type": "node", "id": 5034391553, "lat": 42.2674991, "lon": -84.4316565}, {"type": "node", "id": 5034391554, "lat": 42.2675011, "lon": -84.4318201}, {"type": "node", "id": 5034391555, "lat": 42.2676073, "lon": -84.4318187}, {"type": "node", "id": 5034391556, "lat": 42.2676083, "lon": -84.4318415}, {"type": "node", "id": 5034391557, "lat": 42.2676798, "lon": -84.4318442}, {"type": "node", "id": 5034391558, "lat": 42.2676808, "lon": -84.4318214}, {"type": "node", "id": 5034391559, "lat": 42.267779, "lon": -84.4318201}, {"type": "node", "id": 5034391560, "lat": 42.267781, "lon": -84.4316591}, {"type": "node", "id": 5034391561, "lat": 42.2677215, "lon": -84.4316524}, {"type": "node", "id": 5034391562, "lat": 42.2677215, "lon": -84.4315908}, {"type": "node", "id": 5034391563, "lat": 42.2676907, "lon": -84.4315867}, {"type": "node", "id": 5034391564, "lat": 42.2676897, "lon": -84.4314848}, {"type": "node", "id": 5034391565, "lat": 42.2675905, "lon": -84.4314768}, {"type": "node", "id": 5034391566, "lat": 42.2675934, "lon": -84.4315814}, {"type": "node", "id": 5034391567, "lat": 42.2675567, "lon": -84.431584}, {"type": "node", "id": 5034391568, "lat": 42.2675567, "lon": -84.4316565}, {"type": "node", "id": 5034391617, "lat": 42.2702473, "lon": -84.4292523}, {"type": "node", "id": 5034391618, "lat": 42.2701799, "lon": -84.42907}, {"type": "node", "id": 5034391621, "lat": 42.2702901, "lon": -84.429376}, {"type": "node", "id": 5034391622, "lat": 42.2705363, "lon": -84.429208}, {"type": "node", "id": 5034391623, "lat": 42.2704383, "lon": -84.4289569}, {"type": "node", "id": 5034391624, "lat": 42.270468, "lon": -84.4289338}, {"type": "node", "id": 5034391625, "lat": 42.2704292, "lon": -84.4288306}, {"type": "node", "id": 5034391626, "lat": 42.2703642, "lon": -84.4288768}, {"type": "node", "id": 5034391627, "lat": 42.2703768, "lon": -84.4289123}, {"type": "node", "id": 5034391632, "lat": 42.2671105, "lon": -84.4242716}, {"type": "node", "id": 5034391633, "lat": 42.2672128, "lon": -84.4243082}, {"type": "node", "id": 5034391634, "lat": 42.2672595, "lon": -84.4240541}, {"type": "node", "id": 5034391635, "lat": 42.2671466, "lon": -84.4240195}, {"type": "node", "id": 5034391636, "lat": 42.2679604, "lon": -84.4249203}, {"type": "node", "id": 5034391637, "lat": 42.2679906, "lon": -84.4247567}, {"type": "node", "id": 5034391638, "lat": 42.267796, "lon": -84.4246911}, {"type": "node", "id": 5034391639, "lat": 42.2677658, "lon": -84.4248547}, {"type": "node", "id": 5034391658, "lat": 42.269511, "lon": -84.4257349}, {"type": "node", "id": 5034391659, "lat": 42.2695474, "lon": -84.4258894}, {"type": "node", "id": 5034391660, "lat": 42.2696179, "lon": -84.4258591}, {"type": "node", "id": 5034391661, "lat": 42.2696114, "lon": -84.4258312}, {"type": "node", "id": 5034391662, "lat": 42.2696442, "lon": -84.4258171}, {"type": "node", "id": 5034391663, "lat": 42.2696492, "lon": -84.4258385}, {"type": "node", "id": 5034391664, "lat": 42.2696359, "lon": -84.4258442}, {"type": "node", "id": 5034391665, "lat": 42.269645, "lon": -84.425883}, {"type": "node", "id": 5034391666, "lat": 42.2697215, "lon": -84.4258501}, {"type": "node", "id": 5034391667, "lat": 42.2697151, "lon": -84.4258227}, {"type": "node", "id": 5034391668, "lat": 42.2697473, "lon": -84.4258089}, {"type": "node", "id": 5034391669, "lat": 42.269718, "lon": -84.4256841}, {"type": "node", "id": 5034391670, "lat": 42.269697, "lon": -84.4256931}, {"type": "node", "id": 5034391671, "lat": 42.2696889, "lon": -84.4256585}, {"type": "node", "id": 6403164992, "lat": 42.2705244, "lon": -84.4298619, "tags": {"addr:city": "Jackson", "addr:housenumber": "1275", "addr:postcode": "49202", "addr:state": "MI", "addr:street": "Boardman Road", "amenity": "restaurant", "brand": "Pizza Hut", "brand:wikidata": "Q191615", "cuisine": "pizza", "name": "Pizza Hut", "phone": "+1 517-544-8000", "takeaway": "yes", "website": "https://locations.pizzahut.com/mi/jackson/1275-boardman-road"}}, {"type": "node", "id": 6634345407, "lat": 42.2691811, "lon": -84.4301307, "tags": {"addr:housenumber": "1188", "addr:street": "Jackson Crossing Mall", "amenity": "restaurant", "cuisine": "sandwich;burger;american;greek", "description": "Coney island and family restaurant.", "internet_access": "wlan", "internet_access:fee": "no", "name": "Alpha Coney Island", "opening_hours": "Mo-Sa 10:00-21:00; Su 07:00-17:00", "outdoor_seating": "yes", "phone": "+1-517-787-6290", "smoking": "no", "takeaway": "yes", "toilets": "yes", "toilets:access": "customers"}}, {"type": "node", "id": 9095335701, "lat": 42.2684051, "lon": -84.4241062, "tags": {"amenity": "bank", "name": "Flagstar Bank"}}, {"type": "node", "id": 9847572611, "lat": 42.2668792, "lon": -84.4266694, "tags": {"addr:housenumber": "1076", "addr:street": "Jackson Crossing", "amenity": "pharmacy", "brand": "CVS Pharmacy", "brand:website": "https://www.cvs.com/", "brand:wikidata": "Q2078880", "brand:wikipedia": "en:CVS Pharmacy", "dispensing": "yes", "healthcare": "pharmacy", "name": "CVS Pharmacy", "opening_hours": "Mo-Fr 09:00-13:30,14:00-19:00; Sa 09:00-13:30,14:00-17:00; Su 11:00-13:30,14:00-17:00", "short_name": "CVS", "website": "https://www.cvs.com/store-locator/jackson-mi-pharmacies/1076-jackson-xing-jackson-mi-49202/storeid=16198"}}, {"type": "way", "id": 224670250, "nodes": [806257735, 2334682659, 2334682656, 2334682660, 806257735], "tags": {"addr:housenumber": "1500", "addr:state": "MI", "addr:street": "North West Avenue", "amenity": "fast_food", "brand": "Fazoli's", "brand:wikidata": "Q1399195", "building": "yes", "cuisine": "italian", "description": "Italian quick service restuarant", "name": "Fazoli's", "opening_hours": "Su-Th 10:00-22:00; Fr-Sa 10:00-23:00", "phone": "+1-517-796-1974", "takeaway": "yes", "website": "https://www.fazolis.com/"}}, {"type": "way", "id": 225997661, "nodes": [806257717, 2348401753, 2348401754, 2348401755, 806257717], "tags": {"addr:housenumber": "1510", "addr:postcode": "49202", "addr:street": "N West Ave", "brand": "Office Depot", "brand:wikidata": "Q1337797", "building": "retail", "name": "Office Depot", "shop": "stationery"}}, {"type": "way", "id": 319797195, "nodes": [3262580915, 3262580916, 3262580914, 3262580913, 3262580915], "tags": {"amenity": "restaurant", "brand": "Outback Steakhouse", "brand:wikidata": "Q1064893", "building": "yes", "cuisine": "american;steak", "name": "Outback Steakhouse"}}, {"type": "way", "id": 492632468, "nodes": [4846200585, 4846200586, 4846200587, 4846200588, 4846200589, 4846200590, 4846200591, 4846200592, 4846200593, 4846200594, 4846200595, 4846200596, 4846200597, 4846200598, 4846200599, 4846200600, 4846200585], "tags": {"amenity": "cinema", "building": "yes", "name": "Jackson 10", "website": "https://www.goodrichqualitytheaters.com/michigan/jackson-10/theater-info", "wikidata": "Q42769310"}}, {"type": "way", "id": 515526309, "nodes": [5034391521, 5034391522, 5034391523, 5034391524, 5034391525, 5034391526, 5034391527, 5034391528, 5034391529, 5034391530, 5034391531, 5034391532, 5034391533, 5034391534, 5034391535, 5034391539, 5034391542, 5034391544, 5034391545, 5034391546, 5034391547, 5034391548, 5034391549, 5034391550, 5034391551, 5034391552, 5034391521], "tags": {"addr:city": "Jackson", "addr:housenumber": "1700", "addr:street": "North Wisner Street", "amenity": "cinema", "brand": "AMC", "brand:wikidata": "Q294721", "building": "yes", "name": "AMC Classic Plaza 8", "screen": "8", "website": "https://www.amctheatres.com/movie-theatres/lansing-mi/amc-classic-plaza-8", "wikidata": "Q42769287"}}, {"type": "way", "id": 515526310, "nodes": [5034391553, 5034391554, 5034391555, 5034391556, 5034391557, 5034391558, 5034391559, 5034391560, 5034391561, 5034391562, 5034391563, 5034391564, 5034391565, 5034391566, 5034391567, 5034391568, 5034391553], "tags": {"amenity": "bank", "building": "yes"}}, {"type": "way", "id": 515526316, "nodes": [5034391617, 5034391621, 5034391622, 5034391623, 5034391624, 5034391625, 5034391626, 5034391627, 5034391618, 5034391617], "tags": {"addr:state": "MI", "amenity": "restaurant", "brand": "Buffalo Wild Wings", "brand:wikidata": "Q509255", "building": "commercial", "cuisine": "wings", "name": "Buffalo Wild Wings"}}, {"type": "way", "id": 515526318, "nodes": [5034391632, 5034391633, 5034391634, 5034391635, 5034391632], "tags": {"addr:city": "Jackson", "addr:housenumber": "1520", "addr:postcode": "49202", "addr:state": "MI", "addr:street": "North West Avenue", "amenity": "fast_food", "branch": "Northwest & St Clair", "brand": "Panda Express", "brand:wikidata": "Q1358690", "building": "yes", "cuisine": "chinese", "name": "Panda Express", "opening_hours": "Mo-Th 10:00-21:00; Fr-Sa 10:00-21:30; Su 10:00-21:00", "phone": "+1 517-787-1410", "takeaway": "yes", "website": "https://www.pandaexpress.com/locations/mi/jackson/2530"}}, {"type": "way", "id": 515526319, "nodes": [5034391636, 5034391637, 5034391638, 5034391639, 5034391636], "tags": {"building": "retail"}}, {"type": "way", "id": 515526322, "nodes": [5034391658, 5034391659, 5034391660, 5034391661, 5034391662, 5034391663, 5034391664, 5034391665, 5034391666, 5034391667, 5034391668, 5034391669, 5034391670, 5034391671, 5034391658], "tags": {"building": "retail"}}]}