{"version": 0.6, "generator": "Overpass API 0.7.62.1 084b4234", "osm3s": {"timestamp_osm_base": "2024-07-25T18:58:59Z", "copyright": "The data included in this document is from www.openstreetmap.org. The data is made available under ODbL."}, "elements": [{"type": "node", "id": 313348722, "lat": 40.0429823, "lon": -75.3892916}, {"type": "node", "id": 313348730, "lat": 40.0425357, "lon": -75.388985}, {"type": "node", "id": 313519001, "lat": 40.0430622, "lon": -75.3890931}, {"type": "node", "id": 313519002, "lat": 40.0429295, "lon": -75.3890021}, {"type": "node", "id": 313519003, "lat": 40.0429747, "lon": -75.3888898}, {"type": "node", "id": 313519004, "lat": 40.0427888, "lon": -75.3887622}, {"type": "node", "id": 313519005, "lat": 40.0427743, "lon": -75.3887985}, {"type": "node", "id": 313519006, "lat": 40.0426461, "lon": -75.3887105}, {"type": "node", "id": 511117188, "lat": 40.0441381, "lon": -75.3831088, "tags": {"addr:housenumber": "223", "addr:street": "East Lancaster Avenue", "amenity": "fast_food", "brand": "Sweetgreen", "brand:wikidata": "Q18636413", "cuisine": "salad", "name": "Sweetgreen", "takeaway": "yes"}}, {"type": "node", "id": 877499231, "lat": 40.0453846, "lon": -75.3880308, "tags": {"addr:housenumber": "4", "addr:postcode": "19087", "addr:street": "West Avenue", "amenity": "pub", "check_date": "2023-06-07", "contact:facebook": "https://www.facebook.com/GreatAmericanPubWayne", "name": "Great American Pub", "opening_hours": "11:30-22:00", "phone": "+1 610-964-9535", "website": "https://thegreatamericanpub.com/wayne/"}}, {"type": "node", "id": 928389223, "lat": 40.043618, "lon": -75.3843081, "tags": {"addr:housenumber": "212", "amenity": "bank", "brand": "Commerce Bank", "name": "Commerce Bank", "not:brand:wikidata": "Q5152411"}}, {"type": "node", "id": 989292632, "lat": 40.0453865, "lon": -75.3886341, "tags": {"amenity": "restaurant", "name": "Real Pizza"}}, {"type": "node", "id": 989294479, "lat": 40.0454071, "lon": -75.3898679, "tags": {"amenity": "bank", "brand": "M&T Bank", "brand:wikidata": "Q3272257", "name": "M&T Bank"}}, {"type": "node", "id": 989306169, "lat": 40.0450827, "lon": -75.3879904, "tags": {"addr:city": "Wayne", "addr:housenumber": "124", "addr:postcode": "19087", "addr:state": "PA", "addr:street": "North Wayne Avenue", "amenity": "restaurant", "check_date": "2024-06-11", "contact:instagram": "https://www.instagram.com/teresas_wayne/", "cuisine": "italian", "name": "Teresa's Cafe and Next Door", "opening_hours": "11:30-22:00", "phone": "+1 610-293-9909", "website": "https://www.teresas-cafe.com/"}}, {"type": "node", "id": 989315331, "lat": 40.0444174, "lon": -75.3880333, "tags": {"addr:housenumber": "108", "addr:street": "North Wayne Avenue", "amenity": "restaurant", "check_date": "2023-06-07", "name": "Christopher's", "opening_hours": "Mo-Th 11:00-21:00; Fr 11:00-22:00; Sa 10:30-22:00; Su 10:30-21:00", "phone": "+1 610-687-6558", "website": "https://christophersaneighborhoodplace.com/"}}, {"type": "node", "id": 989516630, "lat": 40.0456899, "lon": -75.3879771, "tags": {"amenity": "cafe", "name": "Cafe Procopio"}}, {"type": "node", "id": 989578445, "lat": 40.0440272, "lon": -75.3837042, "tags": {"addr:city": "Wayne", "addr:housenumber": "219", "addr:street": "East Lancaster Avenue", "amenity": "bank", "brand": "Bank of America", "brand:wikidata": "Q487907", "check_date": "2023-06-07", "name": "Bank of America", "opening_hours": "Mo-Fr 10:00-16:00; Sa-Su off", "phone": "+1 610-688-6791", "website": "https://locators.bankofamerica.com/pa/wayne/financial-centers-wayne-15913.html"}}, {"type": "node", "id": 989578532, "lat": 40.0438584, "lon": -75.3873242, "tags": {"amenity": "cafe", "name": "Saxbys Coffee"}}, {"type": "node", "id": 989578537, "lat": 40.0438366, "lon": -75.387144, "tags": {"amenity": "restaurant", "name": "Your Gormet Kitchen"}}, {"type": "node", "id": 989578555, "lat": 40.0435303, "lon": -75.3878402, "tags": {"addr:housenumber": "109", "addr:street": "South Wayne Avenue", "amenity": "restaurant", "name": "New Wayne Pizza", "opening_hours": "Mo-Th 11:00-22:00; Fr-Sa 11:00-23:00; Su 12:00-22:00", "phone": "+1 610-688-2301; +1 610-688-2302", "website": "http://www.newwaynepizza.com"}}, {"type": "node", "id": 989578561, "lat": 40.0438548, "lon": -75.3876632, "tags": {"amenity": "restaurant", "cuisine": "pizza", "name": "Pie in the Sky"}}, {"type": "node", "id": 989613786, "lat": 40.0453291, "lon": -75.3875398, "tags": {"amenity": "cafe", "name": "Elegance Cafe"}}, {"type": "node", "id": 989613826, "lat": 40.0441154, "lon": -75.3856998, "tags": {"amenity": "cafe", "name": "PB and U"}}, {"type": "node", "id": 989613836, "lat": 40.0441348, "lon": -75.3859481, "tags": {"amenity": "bank", "name": "Customers USA Bank"}}, {"type": "node", "id": 989613859, "lat": 40.0440765, "lon": -75.385394, "tags": {"addr:city": "Wayne", "addr:housenumber": "175", "addr:street": "East Lancaster Avenue", "amenity": "restaurant", "check_date": "2023-06-07", "cuisine": "asian", "name": "Margaret Kuo's", "opening_hours": "Mo-Th 11:00-22:00; Fr 11:00-23:00; Sa 12:00-23:00; Su 12:00-22:00", "phone": "+1 610-688-7200", "website": "https://margaretkuo.com/wayne/"}}, {"type": "node", "id": 1034706011, "lat": 40.0432672, "lon": -75.3798205, "tags": {"amenity": "pharmacy", "brand": "CVS Pharmacy", "brand:website": "https://www.cvs.com/", "brand:wikidata": "Q2078880", "brand:wikipedia": "en:CVS Pharmacy", "healthcare": "pharmacy", "name": "CVS Pharmacy", "short_name": "CVS", "website": "https://www.cvs.com/store-locator/wayne-pa-pharmacies/316-east-lancaster-avenue-wayne-pa-19087/storeid=370"}}, {"type": "node", "id": 1839758427, "lat": 40.043793, "lon": -75.380559, "tags": {"addr:city": "Wayne", "addr:housenumber": "305", "addr:postcode": "19087", "addr:state": "PA", "addr:street": "East Lancaster Avenue", "amenity": "bank", "atm": "yes", "brand": "Wells Fargo", "brand:wikidata": "Q744149", "check_date": "2023-06-07", "name": "Wells Fargo", "opening_hours": "Mo-Fr 09:00-17:00; Sa-Su off", "phone": "+1 610-687-3705", "website": "https://www.wellsfargo.com/locator/bank/305__E__LANCASTER__AVE_WAYNE_PA_19087/"}}, {"type": "node", "id": 3990681891, "lat": 40.0442426, "lon": -75.3882212}, {"type": "node", "id": 3990681892, "lat": 40.0442445, "lon": -75.3882796}, {"type": "node", "id": 3990681894, "lat": 40.0442536, "lon": -75.3885689}, {"type": "node", "id": 3990681910, "lat": 40.0443766, "lon": -75.3882139}, {"type": "node", "id": 3990681912, "lat": 40.0443784, "lon": -75.3882723}, {"type": "node", "id": 3990681935, "lat": 40.0448356, "lon": -75.3882476}, {"type": "node", "id": 3990681937, "lat": 40.0448448, "lon": -75.3885369}, {"type": "node", "id": 4788776058, "lat": 40.0442973, "lon": -75.388732, "tags": {"addr:city": "Wayne", "addr:housenumber": "123", "addr:postcode": "19087", "addr:state": "PA", "addr:street": "West Lancaster Avenue", "amenity": "bank", "atm": "yes", "brand": "Santander", "brand:wikidata": "Q5835668", "drive_through": "yes", "name": "Santander", "opening_hours": "Mo-Th 09:00-17:00; Fr 09:00-18:00; Sa 09:00-13:00", "phone": "+1 610-688-7330", "survey:date": "2022-05-02", "wheelchair": "yes"}}, {"type": "node", "id": 4790712311, "lat": 40.0442514, "lon": -75.3887885, "tags": {"addr:housenumber": "123", "addr:street": "West Lancaster Avenue", "amenity": "atm", "branch": "Bank", "brand": "Santander", "brand:wikidata": "Q5835668", "check_date": "2023-06-07", "drive_through": "no", "name": "Santander", "operator": "Santander", "operator:wikidata": "Q5835668", "operator:wikipedia": "en:Santander Bank", "wheelchair": "yes"}}, {"type": "node", "id": 4795756319, "lat": 40.0440989, "lon": -75.3855732, "tags": {"addr:city": "Wayne", "addr:housenumber": "165", "addr:postcode": "19087", "addr:state": "PA", "addr:street": "East Lancaster Avenue", "amenity": "cafe", "cuisine": "tacos", "name": "Pipeline Taco", "opening_hours": "Mo-Sa 11:00-21:00; Su 11:00-20:00", "outdoor_seating": "no"}}, {"type": "node", "id": 9558678077, "lat": 40.0457246, "lon": -75.3869963}, {"type": "node", "id": 9558678078, "lat": 40.0456887, "lon": -75.3870034}, {"type": "node", "id": 9558678079, "lat": 40.0456954, "lon": -75.3870574}, {"type": "node", "id": 9558678080, "lat": 40.0456264, "lon": -75.3870751}, {"type": "node", "id": 9558678081, "lat": 40.0456663, "lon": -75.3873918}, {"type": "node", "id": 9558678082, "lat": 40.0457124, "lon": -75.387383}, {"type": "node", "id": 9558678083, "lat": 40.0457239, "lon": -75.3874759}, {"type": "node", "id": 9558678084, "lat": 40.0457462, "lon": -75.3874697}, {"type": "node", "id": 9558678085, "lat": 40.0457605, "lon": -75.38759}, {"type": "node", "id": 9558678086, "lat": 40.0458011, "lon": -75.387583}, {"type": "node", "id": 9710435817, "lat": 40.0451717, "lon": -75.3879775, "tags": {"addr:city": "Wayne", "addr:housenumber": "128", "addr:postcode": "19087", "addr:state": "PA", "addr:street": "North Wayne Avenue", "amenity": "restaurant", "check_date": "2024-06-11", "cuisine": "italian", "name": "Paola's Cucina", "opening_hours": "Mo off; Tu-Th,Su 11:00-20:00; Fr,Sa 11:00-21:00", "phone": "+1 610-688-6898", "website": "https://www.paolascucina.com/"}}, {"type": "node", "id": 9710439217, "lat": 40.0453129, "lon": -75.3879643, "tags": {"addr:full": "134 N Wayne Ave Suite 102, Wayne, PA 19087", "amenity": "fast_food", "name": "Spread Bagelry", "opening_hours": "Mo-Su 07:00-15:00", "phone": "+1-484-279-0022", "survey:date": "2022-05-02", "website": "spreadbagelry.com"}}, {"type": "node", "id": 10047905835, "lat": 40.0441868, "lon": -75.3825863}, {"type": "node", "id": 10047905836, "lat": 40.0439222, "lon": -75.3826026}, {"type": "node", "id": 10047905837, "lat": 40.0438883, "lon": -75.3820375}, {"type": "node", "id": 10047905838, "lat": 40.044151, "lon": -75.3820235}, {"type": "way", "id": 28541052, "nodes": [313348730, 313348722, 313519001, 313519002, 313519003, 313519004, 313519005, 313519006, 313348730], "tags": {"acreage": "1.041772655271400", "addr:housenumber": "114", "addr:street": "West Wayne Avenue", "amenity": "library", "building": "yes", "check_date": "2023-06-07", "created_by": "Potlatch 0.10f", "gnis:feature_id": "2348927", "import": "radnor-public-11-20-08-alexrudd", "name": "Radnor Library", "opening_hours": "Mo-Th 09:00-21:00; Fr 09:00-18:00; Sa 09:00-17:00; Su 13:00-17:00", "phone": "+1 610-687-1124", "radnor:BY_TWP": "T", "radnor:ID": "28", "ref": "OCLC-RADNR", "source": "Radnor Township", "website": "https://radnorlibrary.org/"}}, {"type": "way", "id": 396266004, "nodes": [3990681892, 3990681912, 3990681935, 3990681937, 3990681894, 3990681892], "tags": {"amenity": "cinema", "name": "Anthony Wayne Movie Theatre", "survey:date": "2022-06-24"}}, {"type": "way", "id": 396266005, "nodes": [3990681912, 3990681910, 3990681891, 3990681892, 3990681912], "tags": {"addr:city": "Wayne", "addr:housenumber": "105", "addr:postcode": "19087", "addr:state": "PA", "addr:street": "West Lancaster Avenue", "amenity": "cafe", "building": "yes", "cuisine": "coffee_shop", "internet_access": "wlan", "internet_access:fee": "yes", "name": "Gryphon Cafe", "opening_hours": "06:45-17:00", "outdoor_seating": "no", "phone": "+1 610-688-1988", "smoking": "no", "survey:date": "2022-05-02", "takeaway": "yes", "website": "https://gryphoncoffee.com/", "wheelchair": "yes"}}, {"type": "way", "id": 1037766441, "nodes": [9558678077, 9558678078, 9558678079, 9558678080, 9558678081, 9558678082, 9558678083, 9558678084, 9558678085, 9558678086, 9558678077], "tags": {"addr:city": "Wayne", "addr:housenumber": "135", "addr:postcode": "19087", "addr:state": "PA", "addr:street": "North Wayne Avenue", "amenity": "cafe", "building": "yes", "cuisine": "coffee_shop", "name": "Mad Anthony Wayne Cafe", "opening_hours": "Mo-Su 07:30-21:30", "outdoor_seating": "yes", "phone": "+1 484 367 7249", "website": "https://madanthonywaynecafe.com/"}}, {"type": "way", "id": 1097345561, "nodes": [10047905835, 10047905836, 10047905837, 10047905838, 10047905835], "tags": {"addr:city": "Wayne", "addr:housenumber": "237", "addr:postcode": "19087", "addr:state": "PA", "addr:street": "East Lancaster Avenue", "amenity": "pharmacy", "brand": "Rite Aid", "brand:wikidata": "Q3433273", "building": "yes", "check_date": "2024-06-19", "dispensing": "yes", "healthcare": "pharmacy", "name": "Rite Aid", "opening_hours": "Mo-Fr 08:00-22:00; Sa 08:00-21:00; Su 09:00-21:00", "phone": "+1 610-293-1496", "ref": "00995", "website": "https://www.riteaid.com/locations/pa/wayne/237-east-lancaster-avenue.html"}}]}