{"version": 0.6, "generator": "Overpass API 0.7.62.1 084b4234", "osm3s": {"timestamp_osm_base": "2024-07-25T18:52:56Z", "copyright": "The data included in this document is from www.openstreetmap.org. The data is made available under ODbL."}, "elements": [{"type": "node", "id": 7590449894, "lat": 42.1102877, "lon": -80.1195069, "tags": {"addr:city": "Erie", "addr:postcode": "16505", "addr:state": "PA", "bus": "yes", "highway": "bus_stop", "name": "Lincoln Park & Ride", "network": "EMTA", "operator": "EMTA", "public_transport": "platform", "ref": "43"}}, {"type": "node", "id": 10688879995, "lat": 42.115573, "lon": -80.1232017, "tags": {"bus": "yes", "highway": "bus_stop", "name": "W 6th St at Lincoln Ave", "network": "EMTA", "operator": "EMTA", "public_transport": "platform", "ref": "242"}}, {"type": "node", "id": 10692971310, "lat": 42.1105523, "lon": -80.1160602, "tags": {"bus": "yes", "highway": "bus_stop", "name": "W 12th St at Greengarden Blvd", "network": "EMTA", "operator": "EMTA", "public_transport": "platform", "ref": "131"}}, {"type": "node", "id": 10692971338, "lat": 42.1142614, "lon": -80.1127487, "tags": {"bus": "yes", "highway": "bus_stop", "name": "W 10th St at Weschler Ave", "network": "EMTA", "operator": "EMTA", "public_transport": "platform", "ref": "133"}}]}