{"version": 0.6, "generator": "Overpass API 0.7.62.1 084b4234", "osm3s": {"timestamp_osm_base": "2024-07-29T14:29:15Z", "copyright": "The data included in this document is from www.openstreetmap.org. The data is made available under ODbL."}, "elements": [{"type": "node", "id": 2276072726, "lat": 38.8904607, "lon": -76.988355, "tags": {"amenity": "bicycle_rental", "bicycle_rental": "docking_station", "brand": "Capital Bikeshare", "brand:wikidata": "Q1034635", "capacity": "25", "dcgis:dataset": "CapitalBikeSharePt", "dcgis:gis_id": "14751601", "dcgis:pubdate": "2013-03-11", "fee": "yes", "name": "Lincoln Park / 13th and East Capitol St NE", "network": "Capital Bikeshare", "network:wikidata": "Q1034635", "opening_hours": "24/7", "operator": "Lyft", "operator:type": "private", "operator:wikidata": "Q17077936", "ref": "31619", "source": "dcgis", "website": "https://www.capitalbikeshare.com/", "wheelchair": "yes"}}, {"type": "node", "id": 2276095598, "lat": 38.8869517, "lon": -76.996806, "tags": {"amenity": "bicycle_rental", "bicycle_rental": "docking_station", "brand": "Capital Bikeshare", "brand:wikidata": "Q1034635", "capacity": "15", "dcgis:dataset": "CapitalBikeSharePt", "dcgis:gis_id": "14751570", "dcgis:pubdate": "2013-03-11", "fee": "yes", "name": "Eastern Market / 7th and North Carolina Ave SE", "network": "Capital Bikeshare", "network:wikidata": "Q1034635", "opening_hours": "24/7", "operator": "Lyft", "operator:type": "private", "operator:wikidata": "Q17077936", "ref": "31610", "source": "dcgis", "website": "https://www.capitalbikeshare.com/"}}, {"type": "node", "id": 3498072870, "lat": 38.8899569, "lon": -76.9951766, "tags": {"amenity": "bicycle_rental", "bicycle_rental": "docking_station", "brand": "Capital Bikeshare", "brand:wikidata": "Q1034635", "capacity": "11", "fee": "yes", "name": "8th & East Capitol St NE", "network": "Capital Bikeshare", "network:wikidata": "Q1034635", "opening_hours": "24/7", "operator": "Lyft", "operator:type": "private", "operator:wikidata": "Q17077936", "website": "https://www.capitalbikeshare.com/"}}, {"type": "node", "id": 6285398387, "lat": 38.8859158, "lon": -76.9914783, "tags": {"amenity": "bicycle_rental", "bicycle_rental": "docking_station", "brand": "Capital Bikeshare", "brand:wikidata": "Q1034635", "capacity": "18", "dcgis:dataset": "CapitalBikeSharePt", "dcgis:gis_id": "243045691", "dcgis:pubdate": "2018-08-20", "fee": "yes", "name": "11th and C St SE", "network": "Capital Bikeshare", "network:wikidata": "Q1034635", "opening_hours": "24/7", "operator": "Lyft", "operator:type": "private", "operator:wikidata": "Q17077936", "source": "dcgis", "website": "https://www.capitalbikeshare.com/"}}, {"type": "node", "id": 6285398440, "lat": 38.8922278, "lon": -76.9960223, "tags": {"amenity": "bicycle_rental", "bicycle_rental": "docking_station", "brand": "Capital Bikeshare", "brand:wikidata": "Q1034635", "capacity": "18", "dcgis:dataset": "CapitalBikeSharePt", "dcgis:gis_id": "243045648", "dcgis:pubdate": "2018-08-20", "fee": "yes", "name": "7th St and Massachusetts Ave NE", "network": "Capital Bikeshare", "network:wikidata": "Q1034635", "opening_hours": "24/7", "operator": "Lyft", "operator:type": "private", "operator:wikidata": "Q17077936", "source": "dcgis", "website": "https://www.capitalbikeshare.com/"}}]}