{"version": 0.6, "generator": "Overpass API 0.7.62.1 084b4234", "osm3s": {"timestamp_osm_base": "2024-07-25T18:16:10Z", "copyright": "The data included in this document is from www.openstreetmap.org. The data is made available under ODbL."}, "elements": [{"type": "node", "id": 2911707691, "lat": 45.3739174, "lon": -84.9620413, "tags": {"addr:housenumber": "109", "addr:street": "W Mitchell St", "amenity": "restaurant", "cuisine": "italian", "name": "Mancino's"}}, {"type": "node", "id": 5371337968, "lat": 45.3699148, "lon": -84.9704424}, {"type": "node", "id": 5371337969, "lat": 45.3697672, "lon": -84.970447}, {"type": "node", "id": 5371337970, "lat": 45.3697738, "lon": -84.9700548}, {"type": "node", "id": 5371337971, "lat": 45.3699247, "lon": -84.9700594}, {"type": "node", "id": 5371337972, "lat": 45.3693538, "lon": -84.9702789}, {"type": "node", "id": 5371337973, "lat": 45.3694063, "lon": -84.9702182}, {"type": "node", "id": 5371337974, "lat": 45.3694096, "lon": -84.969924}, {"type": "node", "id": 5371337975, "lat": 45.369239, "lon": -84.9699287}, {"type": "node", "id": 5371337976, "lat": 45.3692357, "lon": -84.9702836}, {"type": "node", "id": 5371337979, "lat": 45.3698619, "lon": -84.9718821}, {"type": "node", "id": 5371337980, "lat": 45.3698713, "lon": -84.9713698}, {"type": "node", "id": 5371337981, "lat": 45.3698374, "lon": -84.9713135}, {"type": "node", "id": 5371337982, "lat": 45.3695661, "lon": -84.9713028}, {"type": "node", "id": 5371337983, "lat": 45.3695585, "lon": -84.9718767}, {"type": "node", "id": 5371337984, "lat": 45.3708304, "lon": -84.9717319}, {"type": "node", "id": 5371337985, "lat": 45.3708304, "lon": -84.9713752}, {"type": "node", "id": 5371337986, "lat": 45.3704442, "lon": -84.9713725}, {"type": "node", "id": 5371337987, "lat": 45.370446, "lon": -84.9717373}, {"type": "node", "id": 5371337994, "lat": 45.370463, "lon": -84.973073}, {"type": "node", "id": 5371337995, "lat": 45.370463, "lon": -84.9728557}, {"type": "node", "id": 5371337996, "lat": 45.3702595, "lon": -84.9728584}, {"type": "node", "id": 5371337997, "lat": 45.3702595, "lon": -84.9730784}, {"type": "node", "id": 5371337998, "lat": 45.3713147, "lon": -84.9712243}, {"type": "node", "id": 5371337999, "lat": 45.3711263, "lon": -84.9712431}, {"type": "node", "id": 5371338000, "lat": 45.3711188, "lon": -84.9711063}, {"type": "node", "id": 5371338001, "lat": 45.3713091, "lon": -84.9710795}, {"type": "node", "id": 5391117878, "lat": 45.3704706, "lon": -84.9704194}, {"type": "node", "id": 5391117879, "lat": 45.3704716, "lon": -84.9703054}, {"type": "node", "id": 5391117880, "lat": 45.3702628, "lon": -84.9703131}, {"type": "node", "id": 5391117881, "lat": 45.370266, "lon": -84.9704224}, {"type": "node", "id": 5391117937, "lat": 45.3739053, "lon": -84.9659924}, {"type": "node", "id": 5391117938, "lat": 45.373679, "lon": -84.9659897}, {"type": "node", "id": 5391117942, "lat": 45.3737758, "lon": -84.9659909}, {"type": "node", "id": 5391117949, "lat": 45.3743795, "lon": -84.9666971}, {"type": "node", "id": 5391117950, "lat": 45.3743778, "lon": -84.9665407}, {"type": "node", "id": 5391117951, "lat": 45.3741663, "lon": -84.9665477}, {"type": "node", "id": 5391117952, "lat": 45.3741695, "lon": -84.9667018}, {"type": "node", "id": 5391117982, "lat": 45.373879, "lon": -84.9686969}, {"type": "node", "id": 5391117983, "lat": 45.3738798, "lon": -84.9686448}, {"type": "node", "id": 5391117984, "lat": 45.3739769, "lon": -84.9686406}, {"type": "node", "id": 5391117985, "lat": 45.3739769, "lon": -84.9685414}, {"type": "node", "id": 5391117986, "lat": 45.3738846, "lon": -84.9685414}, {"type": "node", "id": 5391117987, "lat": 45.3738846, "lon": -84.9684233}, {"type": "node", "id": 5391117988, "lat": 45.373781, "lon": -84.9684245}, {"type": "node", "id": 5391117989, "lat": 45.373781, "lon": -84.9687002}, {"type": "node", "id": 5391486132, "lat": 45.3744266, "lon": -84.9648584}, {"type": "node", "id": 5391486133, "lat": 45.3744273, "lon": -84.9646459}, {"type": "node", "id": 5391486134, "lat": 45.3742063, "lon": -84.9646442}, {"type": "node", "id": 5391486135, "lat": 45.3742055, "lon": -84.9648568}, {"type": "node", "id": 5391486136, "lat": 45.3743235, "lon": -84.9645125}, {"type": "node", "id": 5391486137, "lat": 45.374323, "lon": -84.9642961}, {"type": "node", "id": 5391486138, "lat": 45.3742489, "lon": -84.9642965}, {"type": "node", "id": 5391486139, "lat": 45.3742161, "lon": -84.9643455}, {"type": "node", "id": 5391486140, "lat": 45.3742165, "lon": -84.9645131}, {"type": "node", "id": 5393789163, "lat": 45.3737706, "lon": -84.9621603}, {"type": "node", "id": 5393789164, "lat": 45.373796, "lon": -84.9621147}, {"type": "node", "id": 5393789165, "lat": 45.3737995, "lon": -84.9618602}, {"type": "node", "id": 5393789166, "lat": 45.3736062, "lon": -84.961875}, {"type": "node", "id": 5393789167, "lat": 45.3735967, "lon": -84.9621713}, {"type": "node", "id": 5393789168, "lat": 45.3736135, "lon": -84.9615786}, {"type": "node", "id": 5393789169, "lat": 45.3737824, "lon": -84.9615705}, {"type": "node", "id": 5393789170, "lat": 45.3738116, "lon": -84.9616157}, {"type": "node", "id": 5393789171, "lat": 45.3738073, "lon": -84.9629347}, {"type": "node", "id": 5393789172, "lat": 45.3737217, "lon": -84.9629363}, {"type": "node", "id": 5393789173, "lat": 45.373722, "lon": -84.9627537}, {"type": "node", "id": 5393789174, "lat": 45.3738065, "lon": -84.962754}, {"type": "node", "id": 5393789186, "lat": 45.37393, "lon": -84.9652432}, {"type": "node", "id": 5393789187, "lat": 45.3739301, "lon": -84.9649855}, {"type": "node", "id": 5393789188, "lat": 45.3736986, "lon": -84.9649902}, {"type": "node", "id": 5393789189, "lat": 45.3736992, "lon": -84.9652544}, {"type": "node", "id": 5393789194, "lat": 45.3737492, "lon": -84.9649886}, {"type": "node", "id": 5393789195, "lat": 45.3737487, "lon": -84.9648926}, {"type": "node", "id": 5393789196, "lat": 45.3737712, "lon": -84.9648923}, {"type": "node", "id": 5393789197, "lat": 45.3737706, "lon": -84.9647763}, {"type": "node", "id": 5393789198, "lat": 45.3738539, "lon": -84.9647755}, {"type": "node", "id": 5393789199, "lat": 45.373853, "lon": -84.9647084}, {"type": "node", "id": 5393789200, "lat": 45.3739312, "lon": -84.9647085}, {"type": "node", "id": 5393789213, "lat": 45.3738913, "lon": -84.9647091}, {"type": "node", "id": 5393789214, "lat": 45.3738526, "lon": -84.9647459}, {"type": "node", "id": 6216427387, "lat": 45.373702, "lon": -84.9704296}, {"type": "node", "id": 6216427388, "lat": 45.3736899, "lon": -84.9704449}, {"type": "node", "id": 6216427389, "lat": 45.3736751, "lon": -84.9704538}, {"type": "node", "id": 6216427390, "lat": 45.373659, "lon": -84.9704556}, {"type": "node", "id": 6216427391, "lat": 45.3736433, "lon": -84.9704501}, {"type": "node", "id": 6216427392, "lat": 45.3736273, "lon": -84.9703345}, {"type": "node", "id": 6216427393, "lat": 45.373641, "lon": -84.9703204}, {"type": "node", "id": 6216427394, "lat": 45.3736572, "lon": -84.9703136}, {"type": "node", "id": 6216427395, "lat": 45.3736742, "lon": -84.9703148}, {"type": "node", "id": 6216427396, "lat": 45.3736898, "lon": -84.970324}, {"type": "node", "id": 6216427397, "lat": 45.3736297, "lon": -84.9704377}, {"type": "node", "id": 6216427398, "lat": 45.3736196, "lon": -84.9704198}, {"type": "node", "id": 6216427399, "lat": 45.373614, "lon": -84.9703983}, {"type": "node", "id": 6216427400, "lat": 45.3736134, "lon": -84.9703754}, {"type": "node", "id": 6216427401, "lat": 45.373618, "lon": -84.9703533}, {"type": "node", "id": 6216427402, "lat": 45.3737024, "lon": -84.97034}, {"type": "node", "id": 6216427403, "lat": 45.3737106, "lon": -84.9703611}, {"type": "node", "id": 6216427404, "lat": 45.3737133, "lon": -84.9703849}, {"type": "node", "id": 6216427405, "lat": 45.3737104, "lon": -84.9704087}, {"type": "node", "id": 6264079977, "lat": 45.3739045, "lon": -84.9661174}, {"type": "node", "id": 6264079978, "lat": 45.3736501, "lon": -84.9660877}, {"type": "node", "id": 6264079979, "lat": 45.3736507, "lon": -84.9659894}, {"type": "node", "id": 7417584007, "lat": 45.3756533, "lon": -84.9637826}, {"type": "node", "id": 7417584008, "lat": 45.3756464, "lon": -84.9637908}, {"type": "node", "id": 7417584009, "lat": 45.375638, "lon": -84.9637957}, {"type": "node", "id": 7417584010, "lat": 45.3756016, "lon": -84.9637536}, {"type": "node", "id": 7417584011, "lat": 45.3756037, "lon": -84.9637393}, {"type": "node", "id": 7417584012, "lat": 45.3756091, "lon": -84.963727}, {"type": "node", "id": 7417584013, "lat": 45.3756171, "lon": -84.963718}, {"type": "node", "id": 7417584014, "lat": 45.3756291, "lon": -84.9637968}, {"type": "node", "id": 7417584015, "lat": 45.3756203, "lon": -84.963794}, {"type": "node", "id": 7417584016, "lat": 45.3756125, "lon": -84.9637875}, {"type": "node", "id": 7417584017, "lat": 45.3756064, "lon": -84.963778}, {"type": "node", "id": 7417584018, "lat": 45.3756027, "lon": -84.9637663}, {"type": "node", "id": 7417584019, "lat": 45.3756268, "lon": -84.9637134}, {"type": "node", "id": 7417584020, "lat": 45.375637, "lon": -84.9637138}, {"type": "node", "id": 7417584021, "lat": 45.3756465, "lon": -84.9637191}, {"type": "node", "id": 7417584022, "lat": 45.3756541, "lon": -84.9637288}, {"type": "node", "id": 7417584023, "lat": 45.375659, "lon": -84.9637415}, {"type": "node", "id": 7417584024, "lat": 45.3756606, "lon": -84.9637559}, {"type": "node", "id": 7417584025, "lat": 45.3756585, "lon": -84.9637701}, {"type": "node", "id": 7422871452, "lat": 45.3705689, "lon": -84.9651748, "tags": {"information": "sign", "name": "Audio Tour Stop 701", "tourism": "information"}}, {"type": "node", "id": 7422871453, "lat": 45.37002, "lon": -84.9628178, "tags": {"information": "sign", "name": "Audio tour Stop 704", "tourism": "information"}}, {"type": "node", "id": 7422871454, "lat": 45.3712241, "lon": -84.9627548, "tags": {"information": "sign", "name": "Audio Tour Stop 700", "tourism": "information"}}, {"type": "node", "id": 7802260954, "lat": 45.3736835, "lon": -84.9660881}, {"type": "node", "id": 7802260955, "lat": 45.3736834, "lon": -84.9661148}, {"type": "node", "id": 9820795005, "lat": 45.3703774, "lon": -84.9703089}, {"type": "node", "id": 9820795006, "lat": 45.3703768, "lon": -84.9704208}, {"type": "node", "id": 9820795007, "lat": 45.370419, "lon": -84.9704202}, {"type": "node", "id": 9820795008, "lat": 45.3704194, "lon": -84.9703073}, {"type": "node", "id": 9820795009, "lat": 45.3704579, "lon": -84.9704196}, {"type": "node", "id": 9820795010, "lat": 45.3704588, "lon": -84.9703059}, {"type": "node", "id": 9820820908, "lat": 45.3739356, "lon": -84.9686424}, {"type": "node", "id": 9820820909, "lat": 45.3739371, "lon": -84.9685414}, {"type": "way", "id": 556867546, "nodes": [5371337968, 5371337969, 5371337970, 5371337971, 5371337968], "tags": {"amenity": "fast_food", "brand": "McDonald's", "brand:wikidata": "Q38076", "building": "yes", "cuisine": "burger", "name": "McDonald's", "takeaway": "yes", "website": "https://www.mcdonalds.com/us/en-us/location/mi/petoskey/747-spring-street-us-131/35919.html"}}, {"type": "way", "id": 556867547, "nodes": [5371337972, 5371337973, 5371337974, 5371337975, 5371337976, 5371337972], "tags": {"amenity": "restaurant", "brand": "Big Boy", "brand:wikidata": "Q4386779", "building": "yes", "cuisine": "burger", "name": "Big Boy", "official_name": "Big Boy Restaurant & Bakery"}}, {"type": "way", "id": 556867549, "nodes": [5371337979, 5371337980, 5371337981, 5371337982, 5371337983, 5371337979], "tags": {"amenity": "pharmacy", "brand": "Walgreens", "brand:wikidata": "Q1591889", "building": "yes", "healthcare": "pharmacy", "name": "Walgreens"}}, {"type": "way", "id": 556867550, "nodes": [5371337984, 5371337985, 5371337986, 5371337987, 5371337984], "tags": {"amenity": "pharmacy", "brand": "Rite Aid", "brand:wikidata": "Q3433273", "building": "yes", "healthcare": "pharmacy", "name": "Rite Aid"}}, {"type": "way", "id": 556867552, "nodes": [5371337994, 5371337995, 5371337996, 5371337997, 5371337994], "tags": {"addr:city": "Petoskey", "addr:housenumber": "822", "addr:postcode": "49770", "addr:state": "MI", "addr:street": "Charlevoix Avenue", "amenity": "fast_food", "brand": "Wendy's", "brand:wikidata": "Q550258", "building": "yes", "cuisine": "burger", "name": "Wendy's", "opening_hours": "06:00-22:00", "opening_hours:drive_through": "Mo 05:30-01:00; Tu-Th 05:00-01:00; Fr-Su 00:00-24:00", "phone": "+1 231-348-5118", "takeaway": "yes", "website": "https://locations.wendys.com/united-states/mi/petoskey/822-charlevoix-avenue"}}, {"type": "way", "id": 556867553, "nodes": [5371337998, 5371337999, 5371338000, 5371338001, 5371337998], "tags": {"addr:city": "Petoskey", "addr:housenumber": "610", "addr:postcode": "49770", "addr:state": "MI", "addr:street": "West Mitchell Street", "amenity": "fast_food", "brand": "Subway", "brand:wikidata": "Q244457", "building": "yes", "cuisine": "sandwich", "name": "Subway", "opening_hours": "09:00-22:00", "phone": "+1 231-347-8448", "takeaway": "yes", "website": "https://restaurants.subway.com/united-states/mi/petoskey/610-w-mitchell-st"}}, {"type": "way", "id": 558923142, "nodes": [5391117878, 5391117879, 9820795010, 9820795008, 9820795005, 5391117880, 5391117881, 9820795006, 9820795007, 9820795009, 5391117878], "tags": {"amenity": "bank", "brand": "Chase", "brand:wikidata": "Q524629", "building": "yes", "name": "Chase"}}, {"type": "way", "id": 558923157, "nodes": [5391117949, 5391117950, 5391117951, 5391117952, 5391117949], "tags": {"addr:city": "Petoskey", "addr:housenumber": "438", "addr:postcode": "49770", "addr:state": "MI", "addr:street": "West Mitchell Street", "amenity": "fast_food", "brand": "Arby's", "brand:wikidata": "Q630866", "building": "commercial", "check_date": "2024-06-21", "cuisine": "sandwich", "name": "Arby's", "opening_hours": "10:00-22:00", "phone": "+1 231-347-3351", "takeaway": "yes", "website": "https://www.arbys.com/locations/us/mi/petoskey/438-w-mitchell-st/store-1073/"}}, {"type": "way", "id": 558923162, "nodes": [5391117982, 5391117983, 9820820908, 5391117984, 5391117985, 9820820909, 5391117986, 5391117987, 5391117988, 5391117989, 5391117982], "tags": {"amenity": "bank", "brand": "Fifth Third Bank", "brand:wikidata": "Q1411810", "building": "yes", "name": "Fifth Third Bank", "short_name": "5/3 Bank"}}, {"type": "way", "id": 558953902, "nodes": [5391486132, 5391486133, 5391486134, 5391486135, 5391486132], "tags": {"amenity": "restaurant", "building": "yes", "name": "Nagoya"}}, {"type": "way", "id": 558953903, "nodes": [5391486136, 5391486137, 5391486138, 5391486139, 5391486140, 5391486136], "tags": {"amenity": "restaurant", "brand": "Jet's Pizza", "brand:wikidata": "Q16997713", "building": "yes", "cuisine": "pizza", "name": "Jet's Pizza"}}, {"type": "way", "id": 559186797, "nodes": [5393789163, 5393789164, 5393789165, 5393789166, 5393789167, 5393789163], "tags": {"amenity": "restaurant", "building": "yes", "name": "Mancino's"}}, {"type": "way", "id": 559186798, "nodes": [5393789166, 5393789168, 5393789169, 5393789170, 5393789165, 5393789166], "tags": {"brand": "West Marine", "brand:wikidata": "Q7985852", "building": "retail", "name": "West Marine", "seamark:small_craft_facility:category": "chandler", "seamark:type": "small_craft_facility", "shop": "boat"}}, {"type": "way", "id": 559186799, "nodes": [5393789171, 5393789172, 5393789173, 5393789174, 5393789171], "tags": {"amenity": "post_office", "brand": "The UPS Store", "brand:wikidata": "Q7771029", "building": "retail", "name": "The UPS Store", "operator": "The UPS Store", "operator:type": "private", "operator:wikidata": "Q7771029", "operator:wikipedia": "en:The UPS Store", "shop": "copyshop", "short_name": "UPS"}}, {"type": "way", "id": 559186804, "nodes": [5393789186, 5393789187, 5393789194, 5393789188, 5393789189, 5393789186], "tags": {"building": "retail"}}, {"type": "way", "id": 559186806, "nodes": [5393789194, 5393789195, 5393789196, 5393789197, 5393789198, 5393789214, 5393789199, 5393789213, 5393789200, 5393789187, 5393789194], "tags": {"building": "retail"}}, {"type": "way", "id": 664157623, "nodes": [6216427402, 6216427403, 6216427404, 6216427405, 6216427387, 6216427388, 6216427389, 6216427390, 6216427391, 6216427397, 6216427398, 6216427399, 6216427400, 6216427401, 6216427392, 6216427393, 6216427394, 6216427395, 6216427396, 6216427402], "tags": {"area": "yes", "artwork_type": "sculpture", "tourism": "artwork"}}, {"type": "way", "id": 668918385, "nodes": [6264079977, 7802260955, 7802260954, 6264079978, 6264079979, 5391117938, 5391117942, 5391117937, 6264079977], "tags": {"building": "retail"}}, {"type": "way", "id": 793269319, "nodes": [7417584019, 7417584020, 7417584021, 7417584022, 7417584023, 7417584024, 7417584025, 7417584007, 7417584008, 7417584009, 7417584014, 7417584015, 7417584016, 7417584017, 7417584018, 7417584010, 7417584011, 7417584012, 7417584013, 7417584019], "tags": {"area": "yes", "artwork_type": "installation", "tourism": "artwork"}}]}