{"version": 0.6, "generator": "Overpass API 0.7.62.1 084b4234", "osm3s": {"timestamp_osm_base": "2024-07-23T20:19:59Z", "copyright": "The data included in this document is from www.openstreetmap.org. The data is made available under ODbL."}, "elements": [{"type": "node", "id": 11136744989, "lat": 43.1141552, "lon": -75.5892136, "tags": {"amenity": "restaurant", "name": "TS Steakhouse"}}, {"type": "node", "id": 11136744990, "lat": 43.114107, "lon": -75.5889598, "tags": {"amenity": "restaurant", "name": "7 Kitchens"}}, {"type": "node", "id": 11136744997, "lat": 43.1155109, "lon": -75.5884963, "tags": {"amenity": "restaurant", "name": "Delta Cafe"}}, {"type": "node", "id": 11136744998, "lat": 43.1154209, "lon": -75.5888144, "tags": {"amenity": "restaurant", "name": "Sushi Sushi"}}, {"type": "node", "id": 11136744999, "lat": 43.1153048, "lon": -75.5891325, "tags": {"amenity": "food_court", "name": "The Food Hall at Turning Stone"}}, {"type": "node", "id": 11136745000, "lat": 43.1157489, "lon": -75.5895699, "tags": {"amenity": "bar", "name": "The Lounge with Caesars Sportsbook"}}, {"type": "node", "id": 11136745001, "lat": 43.115508, "lon": -75.5893631, "tags": {"amenity": "restaurant", "name": "Tin Rooster Dancehall & BBQ"}}, {"type": "node", "id": 11136745002, "lat": 43.1160101, "lon": -75.5889655, "tags": {"amenity": "restaurant", "name": "Emerald Restaurant at Turning Stone"}}, {"type": "node", "id": 11136745003, "lat": 43.1156473, "lon": -75.589045, "tags": {"amenity": "restaurant", "name": "Upstate Tavern"}}, {"type": "node", "id": 11136745004, "lat": 43.1157605, "lon": -75.5887548, "tags": {"amenity": "restaurant", "name": "Pino Bianco"}}, {"type": "node", "id": 11136756805, "lat": 43.1158795, "lon": -75.5892717, "tags": {"amenity": "restaurant", "name": "Peach Blossom"}}, {"type": "node", "id": 11136756806, "lat": 43.1156908, "lon": -75.5861105, "tags": {"amenity": "restaurant", "name": "Wildflowers"}}]}