{"version": 0.6, "generator": "Overpass API 0.7.62.1 084b4234", "osm3s": {"timestamp_osm_base": "2024-07-25T16:22:11Z", "copyright": "The data included in this document is from www.openstreetmap.org. The data is made available under ODbL."}, "elements": [{"type": "node", "id": 1726117328, "lat": 61.2120452, "lon": -149.7363845, "tags": {"access": "private", "amenity": "loading_dock", "entrance": "service"}}, {"type": "node", "id": 1933301495, "lat": 61.2109736, "lon": -149.7368815}, {"type": "node", "id": 1933301496, "lat": 61.2111872, "lon": -149.7358165}, {"type": "node", "id": 1933301497, "lat": 61.2109538, "lon": -149.7358135}, {"type": "node", "id": 1933301498, "lat": 61.2119739, "lon": -149.7375485}, {"type": "node", "id": 1933301499, "lat": 61.2121023, "lon": -149.7375505}, {"type": "node", "id": 1933301500, "lat": 61.2119725, "lon": -149.7380625}, {"type": "node", "id": 1933301501, "lat": 61.2121055, "lon": -149.7363855}, {"type": "node", "id": 1933301502, "lat": 61.2119743, "lon": -149.7363835}, {"type": "node", "id": 1933301503, "lat": 61.2114274, "lon": -149.7382295}, {"type": "node", "id": 1933301504, "lat": 61.2109518, "lon": -149.7365495}, {"type": "node", "id": 1933301505, "lat": 61.2109223, "lon": -149.7365495}, {"type": "node", "id": 1933301506, "lat": 61.2114279, "lon": -149.7380595}, {"type": "node", "id": 1933301507, "lat": 61.2109213, "lon": -149.7368805}, {"type": "node", "id": 1933301508, "lat": 61.2111886, "lon": -149.7353155}, {"type": "node", "id": 1933301509, "lat": 61.2119772, "lon": -149.7353245}, {"type": "node", "id": 1933301510, "lat": 61.2118991, "lon": -149.7380615}, {"type": "node", "id": 1933301511, "lat": 61.2118986, "lon": -149.7382355}, {"type": "node", "id": 1933301512, "lat": 61.2109701, "lon": -149.7380545}, {"type": "node", "id": 5157775962, "lat": 61.2094124, "lon": -149.739692}, {"type": "node", "id": 5157775963, "lat": 61.209043, "lon": -149.7396807}, {"type": "node", "id": 5157775964, "lat": 61.2090418, "lon": -149.7389779}, {"type": "node", "id": 5157775965, "lat": 61.2094402, "lon": -149.7389908}, {"type": "node", "id": 5157783597, "lat": 61.2091712, "lon": -149.7360234, "tags": {"addr:city": "Anchorage", "addr:housenumber": "7710", "addr:postcode": "99504", "addr:state": "AK", "addr:street": "Grasscreek Road", "amenity": "fast_food", "brand": "BurgerFi", "brand:wikidata": "Q39045496", "cuisine": "burger", "name": "BurgerFi", "phone": "+1-907-770-2739", "takeaway": "yes"}}, {"type": "node", "id": 5315598063, "lat": 61.2124737, "lon": -149.7432257, "tags": {"access": "private", "amenity": "loading_dock", "entrance": "service"}}, {"type": "node", "id": 5317724481, "lat": 61.2093003, "lon": -149.7359467, "tags": {"addr:street": "Debarr Road", "amenity": "fast_food", "brand": "Krispy Kreme", "brand:wikidata": "Q1192805", "cuisine": "donut", "name": "Krispy Kreme", "takeaway": "yes"}}, {"type": "node", "id": 5352169119, "lat": 61.2100624, "lon": -149.734541}, {"type": "node", "id": 5352169120, "lat": 61.2099139, "lon": -149.73454}, {"type": "node", "id": 5352169121, "lat": 61.2099142, "lon": -149.734189}, {"type": "node", "id": 5352169122, "lat": 61.2100627, "lon": -149.73419}, {"type": "node", "id": 5356230680, "lat": 61.211825, "lon": -149.7329769}, {"type": "node", "id": 5356230681, "lat": 61.211742, "lon": -149.7329744}, {"type": "node", "id": 5356230682, "lat": 61.2117432, "lon": -149.7328018}, {"type": "node", "id": 5356230683, "lat": 61.2117233, "lon": -149.7328013}, {"type": "node", "id": 5356230684, "lat": 61.2117246, "lon": -149.7326074}, {"type": "node", "id": 5356230685, "lat": 61.2117383, "lon": -149.7326078}, {"type": "node", "id": 5356230686, "lat": 61.2117392, "lon": -149.7324677}, {"type": "node", "id": 5356230687, "lat": 61.2118271, "lon": -149.7324703}, {"type": "node", "id": 5356230688, "lat": 61.2118261, "lon": -149.7326106}, {"type": "node", "id": 5356230689, "lat": 61.211843, "lon": -149.7326111}, {"type": "node", "id": 5356230690, "lat": 61.2118416, "lon": -149.7328135}, {"type": "node", "id": 5356230691, "lat": 61.2118261, "lon": -149.732813}, {"type": "node", "id": 5463288484, "lat": 61.2121558, "lon": -149.7345474}, {"type": "node", "id": 5463288485, "lat": 61.2119427, "lon": -149.7345421}, {"type": "node", "id": 5463288486, "lat": 61.2119422, "lon": -149.7346346}, {"type": "node", "id": 5463288487, "lat": 61.211735, "lon": -149.7346294}, {"type": "node", "id": 5463288488, "lat": 61.2117373, "lon": -149.7342267}, {"type": "node", "id": 5463288489, "lat": 61.2117627, "lon": -149.7342273}, {"type": "node", "id": 5463288490, "lat": 61.2117635, "lon": -149.734093}, {"type": "node", "id": 5463288491, "lat": 61.2119023, "lon": -149.7340965}, {"type": "node", "id": 5463288492, "lat": 61.2119014, "lon": -149.7342595}, {"type": "node", "id": 5463288493, "lat": 61.2119362, "lon": -149.7342604}, {"type": "node", "id": 5463288494, "lat": 61.2119359, "lon": -149.7343266}, {"type": "node", "id": 5463288495, "lat": 61.2121571, "lon": -149.7343321}, {"type": "node", "id": 5463288529, "lat": 61.2123837, "lon": -149.7448049}, {"type": "node", "id": 5463288530, "lat": 61.2114918, "lon": -149.7447997}, {"type": "node", "id": 5463288531, "lat": 61.2114922, "lon": -149.7444793}, {"type": "node", "id": 5463288532, "lat": 61.2114448, "lon": -149.744479}, {"type": "node", "id": 5463288533, "lat": 61.2114452, "lon": -149.7442202}, {"type": "node", "id": 5463288534, "lat": 61.2113885, "lon": -149.7442199}, {"type": "node", "id": 5463288535, "lat": 61.211389, "lon": -149.7438546}, {"type": "node", "id": 5463288536, "lat": 61.2114124, "lon": -149.7438097}, {"type": "node", "id": 5463288537, "lat": 61.2114653, "lon": -149.7438099}, {"type": "node", "id": 5463288538, "lat": 61.2114658, "lon": -149.7432302}, {"type": "node", "id": 5463288539, "lat": 61.2114176, "lon": -149.74323}, {"type": "node", "id": 5463288540, "lat": 61.2114177, "lon": -149.7430564}, {"type": "node", "id": 5463288541, "lat": 61.2114066, "lon": -149.7430564}, {"type": "node", "id": 5463288542, "lat": 61.2114068, "lon": -149.7428179}, {"type": "node", "id": 5463288543, "lat": 61.2114206, "lon": -149.7428179}, {"type": "node", "id": 5463288544, "lat": 61.2114207, "lon": -149.7427058}, {"type": "node", "id": 5463288545, "lat": 61.2115608, "lon": -149.7427066}, {"type": "node", "id": 5463288546, "lat": 61.211561, "lon": -149.7425084}, {"type": "node", "id": 5463288547, "lat": 61.2114187, "lon": -149.7425076}, {"type": "node", "id": 5463288548, "lat": 61.2114198, "lon": -149.741636}, {"type": "node", "id": 5463288549, "lat": 61.2119465, "lon": -149.741639}, {"type": "node", "id": 5463288550, "lat": 61.2119461, "lon": -149.7419387}, {"type": "node", "id": 5463288551, "lat": 61.212386, "lon": -149.7419412}, {"type": "node", "id": 5463288552, "lat": 61.2123843, "lon": -149.7432252}, {"type": "node", "id": 5463288553, "lat": 61.2125366, "lon": -149.743226}, {"type": "node", "id": 5463288554, "lat": 61.2125355, "lon": -149.7440443}, {"type": "node", "id": 5463288555, "lat": 61.2123847, "lon": -149.7440434}, {"type": "node", "id": 5974598442, "lat": 61.2124663, "lon": -149.7440439, "tags": {"access": "private", "amenity": "loading_dock", "entrance": "service"}}, {"type": "node", "id": 6388135618, "lat": 61.2101828, "lon": -149.7398361}, {"type": "node", "id": 6388135619, "lat": 61.2099359, "lon": -149.7398341}, {"type": "node", "id": 6388135620, "lat": 61.2098943, "lon": -149.7397561}, {"type": "node", "id": 6388135621, "lat": 61.2098915, "lon": -149.7394437}, {"type": "node", "id": 6388135622, "lat": 61.2099746, "lon": -149.7394436}, {"type": "node", "id": 6388135623, "lat": 61.2099726, "lon": -149.7393619}, {"type": "node", "id": 6388135624, "lat": 61.2100819, "lon": -149.7393618}, {"type": "node", "id": 6388135625, "lat": 61.2100817, "lon": -149.7394222}, {"type": "node", "id": 6388135626, "lat": 61.2101042, "lon": -149.7394222}, {"type": "node", "id": 6388135627, "lat": 61.2101023, "lon": -149.7396811}, {"type": "node", "id": 6388135628, "lat": 61.210184, "lon": -149.7396811}, {"type": "node", "id": 6970530931, "lat": 61.2157298, "lon": -149.7341967, "tags": {"addr:city": "Anchorage", "addr:housenumber": "718", "addr:postcode": "99504", "addr:state": "AK", "addr:street": "Muldoon Road", "amenity": "restaurant", "cuisine": "burger", "name": "Hamburger Haven", "phone": "+1-907-337-6141"}}, {"type": "node", "id": 7323323315, "lat": 61.211282, "lon": -149.732716}, {"type": "node", "id": 7323323316, "lat": 61.211195, "lon": -149.732716}, {"type": "node", "id": 7323323317, "lat": 61.211195, "lon": -149.732236}, {"type": "node", "id": 7323323318, "lat": 61.211281, "lon": -149.732236}, {"type": "node", "id": 8539415433, "lat": 61.2094424, "lon": -149.73961}, {"type": "node", "id": 10668992746, "lat": 61.2154455, "lon": -149.734314, "tags": {"addr:city": "Anchorage", "addr:housenumber": "720", "addr:postcode": "99504", "addr:state": "AK", "addr:street": "Muldoon Road", "amenity": "restaurant", "name": "Oriental Garden", "operator": "Susan Cho", "phone": "907-338-2272", "website": "https://orientalgardenanchorage.com"}}, {"type": "node", "id": 10757755340, "lat": 61.2089599, "lon": -149.7313413, "tags": {"artwork_type": "installation", "description": "Chanshtnu, where the creek comes down from the mountains", "image": "https://i.imgur.com/3EEFYj1.jpeg", "name": "Indigenous Placename Marker, Chanshtnu", "tourism": "artwork"}}, {"type": "node", "id": 10790645577, "lat": 61.2110027, "lon": -149.7308833, "tags": {"amenity": "library", "name": "APL Muldoon"}}, {"type": "node", "id": 10790645579, "lat": 61.2117499, "lon": -149.7358546, "tags": {"amenity": "pharmacy", "brand": "Fred Meyer", "brand:wikidata": "Q5495932", "healthcare": "pharmacy", "name": "Fred Meyer Pharmacy"}}, {"type": "node", "id": 10790645580, "lat": 61.2114509, "lon": -149.7359225, "tags": {"amenity": "cafe", "brand": "Starbucks", "brand:wikidata": "Q37158", "contact:website": "https://www.starbucks.com/store-locator/store/1007480/fred-meyer-muldoon-18-7701-debarr-road-anchorage-ak-99504-us", "cuisine": "coffee_shop", "name": "Starbucks", "official_name": "Starbucks Coffee", "takeaway": "yes"}}, {"type": "node", "id": 10797723295, "lat": 61.2139285, "lon": -149.7341392, "tags": {"amenity": "restaurant", "cuisine": "sushi", "name": "Ronnie 2 Sushi"}}, {"type": "node", "id": 10797723300, "lat": 61.213512, "lon": -149.7341499, "tags": {"amenity": "restaurant", "cuisine": "thai", "name": "Thai Village"}}, {"type": "node", "id": 10939892422, "lat": 61.2120347, "lon": -149.7345442}, {"type": "node", "id": 10939892423, "lat": 61.2120338, "lon": -149.7343287}, {"type": "node", "id": 10964799247, "lat": 61.211133, "lon": -149.73086, "tags": {"amenity": "community_centre", "name": "Northeast Community Center", "operator": "Boys and Girls Clubs of Alaska", "operator:type": "private_non_profit"}}, {"type": "node", "id": 10964799256, "lat": 61.2094299, "lon": -149.7328697, "tags": {"amenity": "cafe", "cuisine": "coffee_shop", "drive_through": "yes"}}, {"type": "node", "id": 11030339044, "lat": 61.2101329, "lon": -149.7396811}, {"type": "node", "id": 11030339046, "lat": 61.2101334, "lon": -149.7398357}, {"type": "way", "id": 182967300, "nodes": [1933301511, 1933301503, 1933301506, 1933301512, 1933301495, 1933301507, 1933301505, 1933301504, 1933301497, 1933301496, 1933301508, 1933301509, 1933301502, 1726117328, 1933301501, 1933301499, 1933301498, 1933301500, 1933301510, 1933301511], "tags": {"addr:city": "Anchorage", "addr:housenumber": "7701", "addr:postcode": "99504", "addr:state": "AK", "addr:street": "Debarr Road", "branch": "Muldoon", "brand": "Fred Meyer", "brand:wikidata": "Q5495932", "building": "retail", "description": "sells Alaska grown carrots and potatoes (winter), lettuce, cabbage, and Bell's Nursery tomatoes (seasonal)", "name": "Fred Meyer", "opening_hours": "Mo-Su 07:00-22:00", "phone": "+1 907-269-1756", "ref": "7010001810", "shop": "supermarket", "website": "https://www.fredmeyer.com/stores/grocery/ak/anchorage/muldoon/701/00018"}}, {"type": "way", "id": 531324260, "nodes": [5157775962, 5157775963, 5157775964, 5157775965, 8539415433, 5157775962], "tags": {"amenity": "pharmacy", "brand": "Walgreens", "brand:wikidata": "Q1591889", "building": "yes", "healthcare": "pharmacy", "name": "Walgreens"}}, {"type": "way", "id": 554605834, "nodes": [5352169119, 5352169120, 5352169121, 5352169122, 5352169119], "tags": {"addr:city": "Anchorage", "addr:housenumber": "1254", "addr:postcode": "99504", "addr:state": "AK", "addr:street": "Muldoon Road", "amenity": "fast_food", "brand": "Wingstop", "brand:wikidata": "Q8025339", "building": "yes", "cuisine": "wings", "name": "Wingstop", "takeaway": "yes"}}, {"type": "way", "id": 555081515, "nodes": [5356230680, 5356230681, 5356230682, 5356230683, 5356230684, 5356230685, 5356230686, 5356230687, 5356230688, 5356230689, 5356230690, 5356230691, 5356230680], "tags": {"addr:state": "AK", "amenity": "fast_food", "brand": "Arby's", "brand:wikidata": "Q630866", "building": "commercial", "check_date": "2024-06-21", "check_date:opening_hours": "2024-06-08", "cuisine": "sandwich", "name": "Arby's", "opening_hours": "Mo-Su 10:00-23:00", "takeaway": "yes", "website": "https://www.arbys.com/locations/us/ak/anchorage/1135-muldoon-rd/store-1439/"}}, {"type": "way", "id": 567610064, "nodes": [5463288484, 10939892422, 5463288485, 5463288486, 5463288487, 5463288488, 5463288489, 5463288490, 5463288491, 5463288492, 5463288493, 5463288494, 10939892423, 5463288495, 5463288484], "tags": {"amenity": "bank", "brand": "First National Bank", "brand:wikidata": "Q5426765", "building": "yes", "name": "First National Bank"}}, {"type": "way", "id": 567610066, "nodes": [5463288529, 5463288530, 5463288531, 5463288532, 5463288533, 5463288534, 5463288535, 5463288536, 5463288537, 5463288538, 5463288539, 5463288540, 5463288541, 5463288542, 5463288543, 5463288544, 5463288545, 5463288546, 5463288547, 5463288548, 5463288549, 5463288550, 5463288551, 5463288552, 5315598063, 5463288553, 5463288554, 5974598442, 5463288555, 5463288529], "tags": {"addr:city": "Anchorage", "addr:country": "US", "addr:housenumber": "7405", "addr:postcode": "99504", "addr:state": "AK", "addr:street": "Debarr Road", "brand": "Walmart", "brand:wikidata": "Q483551", "building": "retail", "description": "sells Alaska grown potatoes, lettuce, herbs", "name": "Walmart Supercenter", "opening_hours": "Mo-Su 06:00-24:00", "operator": "Walmart", "phone": "+1-907-339-9039", "ref:walmart": "4359", "shop": "supermarket", "website": "https://www.walmart.com/store/4359/anchorage-ak/whats-new"}}, {"type": "way", "id": 682151309, "nodes": [6388135618, 11030339046, 6388135619, 6388135620, 6388135621, 6388135622, 6388135623, 6388135624, 6388135625, 6388135626, 6388135627, 11030339044, 6388135628, 6388135618], "tags": {"addr:city": "Anchorage", "addr:housenumber": "7575", "addr:postcode": "99504", "addr:state": "AK", "addr:street": "Debarr Road", "amenity": "bank", "atm": "yes", "branch": "East DeBarr Branch", "brand": "Global Credit Union", "brand:wikidata": "Q4708627", "building": "yes", "drive_through": "yes", "name": "Global Credit Union", "website": "https://www.globalcu.org/branches/east-debarr/"}}, {"type": "way", "id": 783996612, "nodes": [7323323315, 7323323316, 7323323317, 7323323318, 7323323315], "tags": {"amenity": "fast_food", "brand": "Taco Bell", "brand:wikidata": "Q752941", "building": "yes", "cuisine": "tex-mex", "name": "Taco Bell", "source": "microsoft/BuildingFootprints", "takeaway": "yes", "website": "https://locations.tacobell.com/ak/anchorage/1231-muldoon-road.html"}}]}