{"version": 0.6, "generator": "Overpass API 0.7.62.1 084b4234", "osm3s": {"timestamp_osm_base": "2024-07-25T15:40:47Z", "copyright": "The data included in this document is from www.openstreetmap.org. The data is made available under ODbL."}, "elements": [{"type": "node", "id": 2379343384, "lat": 40.8322906, "lon": -83.9666073}, {"type": "node", "id": 2379343385, "lat": 40.83195, "lon": -83.9665636}, {"type": "node", "id": 2379343391, "lat": 40.8318878, "lon": -83.9665621}, {"type": "node", "id": 2379343399, "lat": 40.8319542, "lon": -83.9662563}, {"type": "node", "id": 2379343404, "lat": 40.8322397, "lon": -83.9666061}, {"type": "node", "id": 2379343406, "lat": 40.8322843, "lon": -83.9662632}, {"type": "node", "id": 2379343407, "lat": 40.8322373, "lon": -83.9667844}, {"type": "node", "id": 2379343409, "lat": 40.8318849, "lon": -83.9667761}, {"type": "node", "id": 2382569734, "lat": 40.8348928, "lon": -83.9679141}, {"type": "node", "id": 2382569735, "lat": 40.8342857, "lon": -83.9679463}, {"type": "node", "id": 2382569738, "lat": 40.8346017, "lon": -83.9675632}, {"type": "node", "id": 2382569739, "lat": 40.8342865, "lon": -83.96789}, {"type": "node", "id": 2382569740, "lat": 40.8345971, "lon": -83.9679008}, {"type": "node", "id": 2382569741, "lat": 40.834892, "lon": -83.9679672}, {"type": "node", "id": 2382569743, "lat": 40.8343112, "lon": -83.9678906}, {"type": "node", "id": 2382569745, "lat": 40.8343158, "lon": -83.9675563}, {"type": "node", "id": 5672169622, "lat": 40.8338559, "lon": -83.9645347, "tags": {"addr:city": "Beaverdam", "addr:housenumber": "427", "addr:postcode": "45808", "addr:state": "OH", "addr:street": "East Main Street", "amenity": "fast_food", "brand": "Subway", "brand:wikidata": "Q244457", "cuisine": "sandwich", "name": "Subway", "opening_hours": "24/7", "phone": "+1 419 643 7233", "ref": "25021", "source": "OSIP 6in", "takeaway": "yes", "website": "https://restaurants.subway.com/united-states/oh/beaverdam/427-e-main-st"}}, {"type": "node", "id": 5672173821, "lat": 40.8338557, "lon": -83.9642718, "tags": {"addr:city": "Beaverdam", "addr:housenumber": "427", "addr:postcode": "45808", "addr:state": "OH", "addr:street": "East Main Street", "amenity": "fast_food", "brand": "McDonald's", "brand:wikidata": "Q38076", "cuisine": "burger", "drive_through": "yes", "internet_access": "wlan", "name": "McDonald's", "opening_hours": "24/7", "phone": "+1 419-643-8500", "source": "OSIP 6in", "takeaway": "yes", "website": "https://www.mcdonalds.com/us/en-us/location/30549.html"}}, {"type": "node", "id": 6720218341, "lat": 40.8336512, "lon": -83.9667201}, {"type": "node", "id": 6720218356, "lat": 40.8334715, "lon": -83.9697097, "tags": {"access": "yes", "entrance": "exit", "source": "OSIP 6in"}}, {"type": "node", "id": 6720218376, "lat": 40.834601, "lon": -83.9676139}, {"type": "node", "id": 6720218382, "lat": 40.8334712, "lon": -83.9697569, "tags": {"access": "delivery", "entrance": "service", "source": "OSIP 6in"}}, {"type": "node", "id": 6720220405, "lat": 40.8339969, "lon": -83.9669722}, {"type": "node", "id": 6720220435, "lat": 40.8345994, "lon": -83.9677354}, {"type": "node", "id": 6720220437, "lat": 40.834598, "lon": -83.9678391}, {"type": "node", "id": 6720220466, "lat": 40.8343135, "lon": -83.967727}, {"type": "node", "id": 6720220469, "lat": 40.834312, "lon": -83.9678361}, {"type": "node", "id": 6720220471, "lat": 40.8334708, "lon": -83.9698249}, {"type": "node", "id": 6720220499, "lat": 40.8333374, "lon": -83.9695879, "tags": {"access": "yes", "entrance": "main", "source": "OSIP 6in"}}, {"type": "node", "id": 6720220519, "lat": 40.8344913, "lon": -83.9679568}, {"type": "node", "id": 6720220530, "lat": 40.8339987, "lon": -83.9667245}, {"type": "node", "id": 6720220561, "lat": 40.8332551, "lon": -83.9697311, "tags": {"access": "yes", "entrance": "exit", "source": "OSIP 6in"}}, {"type": "node", "id": 6720220566, "lat": 40.834315, "lon": -83.9676132}, {"type": "node", "id": 6720220570, "lat": 40.8332562, "lon": -83.9695868}, {"type": "node", "id": 6720220575, "lat": 40.8336494, "lon": -83.9669678}, {"type": "node", "id": 6720220605, "lat": 40.8334723, "lon": -83.9695893}, {"type": "node", "id": 6720220608, "lat": 40.8332544, "lon": -83.9698221}, {"type": "node", "id": 6720242196, "lat": 40.8322215, "lon": -83.9662618}, {"type": "node", "id": 6720242197, "lat": 40.8321912, "lon": -83.9663011, "tags": {"addr:city": "Beaverdam", "addr:housenumber": "420", "addr:postcode": "45808", "addr:state": "OH", "addr:street": "East Main Street", "amenity": "restaurant", "brand": "Denny's", "brand:wikidata": "Q1189695", "cuisine": "american", "name": "Denny's", "opening_hours": "24/7", "phone": "+1 419 643 5462", "takeaway": "yes", "website": "https://locations.dennys.com/OH/BEAVERDAM/248569"}}, {"type": "node", "id": 6720242201, "lat": 40.8323125, "lon": -83.9663705}, {"type": "node", "id": 6720242209, "lat": 40.8323114, "lon": -83.966452}, {"type": "node", "id": 6720242214, "lat": 40.8321571, "lon": -83.966261}, {"type": "node", "id": 6720242219, "lat": 40.8322954, "lon": -83.9663348}, {"type": "node", "id": 6720242231, "lat": 40.8322221, "lon": -83.9662152}, {"type": "node", "id": 6720242233, "lat": 40.8321578, "lon": -83.9662137}, {"type": "node", "id": 6720242247, "lat": 40.8322927, "lon": -83.9664516}, {"type": "node", "id": 6720242250, "lat": 40.832295, "lon": -83.9663701}, {"type": "node", "id": 6720301494, "lat": 40.8322833, "lon": -83.9663345}, {"type": "node", "id": 6721828266, "lat": 40.8312352, "lon": -83.9754567}, {"type": "node", "id": 6721828268, "lat": 40.8307626, "lon": -83.9748375}, {"type": "node", "id": 6721828269, "lat": 40.8309, "lon": -83.9749818}, {"type": "node", "id": 6721828281, "lat": 40.8307212, "lon": -83.9754959}, {"type": "node", "id": 6721864387, "lat": 40.8333076, "lon": -83.9744097}, {"type": "node", "id": 6721864391, "lat": 40.8330625, "lon": -83.9750925}, {"type": "node", "id": 6721864395, "lat": 40.8324964, "lon": -83.9741584}, {"type": "node", "id": 6721864406, "lat": 40.8309382, "lon": -83.9754478}, {"type": "node", "id": 6721864407, "lat": 40.8333045, "lon": -83.9745939}, {"type": "node", "id": 6721864418, "lat": 40.8306749, "lon": -83.9749819}, {"type": "node", "id": 6721864419, "lat": 40.8312393, "lon": -83.9752105}, {"type": "node", "id": 6721864423, "lat": 40.8307602, "lon": -83.9749844}, {"type": "node", "id": 6721864426, "lat": 40.8308592, "lon": -83.9749806}, {"type": "node", "id": 6721864436, "lat": 40.8331464, "lon": -83.9750958}, {"type": "node", "id": 6721864448, "lat": 40.8333284, "lon": -83.9747176}, {"type": "node", "id": 6721864454, "lat": 40.8311536, "lon": -83.9754537}, {"type": "node", "id": 6721864457, "lat": 40.8332097, "lon": -83.974744}, {"type": "node", "id": 6721864458, "lat": 40.8330609, "lon": -83.9751626}, {"type": "node", "id": 6721864467, "lat": 40.8308963, "lon": -83.9752004}, {"type": "node", "id": 6721864474, "lat": 40.8306663, "lon": -83.9754943}, {"type": "node", "id": 6721864477, "lat": 40.8332101, "lon": -83.9747212}, {"type": "node", "id": 6721864483, "lat": 40.8331775, "lon": -83.9747203}, {"type": "node", "id": 6721864486, "lat": 40.8308615, "lon": -83.9748404}, {"type": "node", "id": 6721864492, "lat": 40.8324986, "lon": -83.9739791}, {"type": "node", "id": 6721864494, "lat": 40.8332986, "lon": -83.9747466}, {"type": "node", "id": 6721864495, "lat": 40.8333305, "lon": -83.9745947}, {"type": "node", "id": 6721864498, "lat": 40.8331448, "lon": -83.9751659}, {"type": "node", "id": 6721864502, "lat": 40.8309374, "lon": -83.9755019}, {"type": "node", "id": 6721864504, "lat": 40.8331827, "lon": -83.974406}, {"type": "node", "id": 6721864505, "lat": 40.8326134, "lon": -83.9739817}, {"type": "node", "id": 6721864513, "lat": 40.8326126, "lon": -83.9741584}, {"type": "node", "id": 6721864517, "lat": 40.8332991, "lon": -83.9747167}, {"type": "way", "id": 229321017, "nodes": [2379343399, 6720242214, 6720242233, 6720242231, 6720242196, 2379343406, 6720301494, 6720242219, 6720242250, 6720242201, 6720242209, 6720242247, 2379343384, 2379343404, 2379343407, 2379343409, 2379343391, 2379343385, 2379343399], "tags": {"addr:city": "Beaverdam", "addr:housenumber": "420", "addr:postcode": "45808", "addr:state": "OH", "addr:street": "East Main Street", "amenity": "fuel", "brand": "Flying J", "building": "retail", "fax": "+1 419 643 8106", "fuel:diesel": "yes", "name": "Flying J #695", "opening_hours": "24/7", "phone": "+1 419 643 8001", "source": "OSIP 6in", "website": "https://www.pilotflyingj.com/stores/695/"}}, {"type": "way", "id": 229693659, "nodes": [2382569735, 2382569739, 2382569743, 6720220469, 6720220466, 6720220566, 2382569745, 2382569738, 6720218376, 6720220435, 6720220437, 2382569740, 2382569734, 2382569741, 6720220519, 2382569735], "tags": {"addr:city": "Beaverdam", "addr:housenumber": "413", "addr:postcode": "45808", "addr:state": "OH", "addr:street": "East Main Street", "amenity": "car_wash", "building": "retail", "name": "Blue Beacon Truck Wash", "opening_hours": "24/7", "phone": "+1 419 643 8146", "source": "OSIP 6in", "website": "https://bluebeacon.com/locations/listing/beaverdam-oh"}}, {"type": "way", "id": 714968112, "nodes": [6720220405, 6720220575, 6720218341, 6720220530, 6720220405], "tags": {"addr:city": "Beaverdam", "addr:housenumber": "417", "addr:postcode": "45808", "addr:state": "OH", "addr:street": "East Main Street", "brand": "Dollar General", "brand:wikidata": "Q145168", "brand:wikipedia": "en:Dollar General", "building": "retail", "name": "Dollar General", "opening_hours": "08:00-22:00", "phone": "+1 567 749 0082", "ref": "#14807", "shop": "variety_store", "website": "https://www.dollargeneral.com/store-directory/oh/beaverdam/14807"}}, {"type": "way", "id": 714968146, "nodes": [6720220471, 6720220608, 6720220561, 6720220570, 6720220499, 6720220605, 6720218356, 6720218382, 6720220471], "tags": {"addr:city": "Beaverdam", "addr:housenumber": "317", "addr:postcode": "45808", "addr:state": "OH", "addr:street": "East Main Street", "amenity": "restaurant", "building": "retail", "cuisine": "pizza;burger;sandwich;american;wings", "name": "Thirsty's Food & Spirits", "opening_hours": "Su-Th 16:00-22:00; Fr 16:00-24:00; Sa 11:00-24:00", "phone": "+1 419 643 8250", "website": "https://thirstys-food-spirits.business.site/"}}, {"type": "way", "id": 715176476, "nodes": [6721828266, 6721864419, 6721864467, 6721828269, 6721864426, 6721864486, 6721828268, 6721864423, 6721864418, 6721864474, 6721828281, 6721864502, 6721864406, 6721864454, 6721828266], "tags": {"abandoned:shop": "antiques", "addr:city": "Beaverdam", "addr:housenumber": "300", "addr:postcode": "45808", "addr:state": "OH", "addr:street": "South West Street", "building": "retail", "old_name": "Ole School Antiquers", "source": "OSIP 6in"}}, {"type": "way", "id": 715176477, "nodes": [6721864513, 6721864505, 6721864492, 6721864395, 6721864513], "tags": {"addr:city": "Beaverdam", "addr:housenumber": "101", "addr:postcode": "45808", "addr:state": "OH", "addr:street": "South Mill Street", "building": "retail", "name": "Habegger's Garage", "opening_hours": "Mo-Fr 08:00-17:00", "payment:american_express": "yes", "payment:discover_card": "yes", "payment:mastercard": "yes", "payment:visa": "yes", "phone": "+1 419 643 2735", "service": "repair;tyres;towing", "shop": "car_repair", "source": "OSIP 6in", "website": "https://habeggers-garage.business.site/"}}, {"type": "way", "id": 715176485, "nodes": [6721864494, 6721864517, 6721864448, 6721864495, 6721864407, 6721864387, 6721864504, 6721864483, 6721864477, 6721864457, 6721864494], "tags": {"addr:city": "Beaverdam", "addr:housenumber": "104", "addr:postcode": "45808", "addr:state": "OH", "addr:street": "West Main Street", "atm": "yes", "building": "retail", "name": "Mid-Town market", "opening_hours": "Mo-Th 07:00-21:00; Fr 07:00-22:00; Sa 09:00-22:00; Su 09:00-21:00", "phone": "+1 419 643 4342", "shop": "convenience", "source": "OSIP 6in", "website": "https://m.facebook.com/midtownmarketbeaverdam/"}}, {"type": "way", "id": 715176498, "nodes": [6721864498, 6721864436, 6721864391, 6721864458, 6721864498], "tags": {"addr:city": "Beaverdam", "addr:housenumber": "110", "addr:postcode": "45808", "addr:state": "OH", "addr:street": "West Main Street", "building": "retail", "name": "Janey's Golden Shears", "phone": "+1 419 371 6336", "shop": "hairdresser", "website": "https://m.facebook.com/pages/Janeys-Golden-Shears/134968839887117"}}]}