{"version": 0.6, "generator": "Overpass API 0.7.62.1 084b4234", "osm3s": {"timestamp_osm_base": "2024-07-25T18:24:15Z", "copyright": "The data included in this document is from www.openstreetmap.org. The data is made available under ODbL."}, "elements": [{"type": "node", "id": 356825930, "lat": 29.6238294, "lon": -95.6004169, "tags": {"addr:city": "Sugar Land", "addr:housenumber": "13750", "addr:postcode": "77478", "addr:state": "TX", "addr:street": "Southwest Freeway", "amenity": "restaurant", "cuisine": "tex-mex", "denomination": "baptist", "ele": "26", "gnis:feature_id": "2018852", "name": "Pappasito's Cantina"}}, {"type": "node", "id": 4265057550, "lat": 29.6227782, "lon": -95.5984241, "tags": {"addr:city": "Sugar Land", "addr:housenumber": "13703", "addr:postcode": "77478", "addr:state": "TX", "addr:street": "Southwest Freeway", "amenity": "restaurant", "cuisine": "mexican", "name": "Berryhill Tacos Sugarland", "opening_hours": "Mo-Su 09:00-02:00", "phone": "+1 281 313-8226", "website": "https://www.berryhillsugarland.com/"}}, {"type": "node", "id": 4515613742, "lat": 29.6199109, "lon": -95.6023089, "tags": {"addr:city": "Sugar Land", "addr:housenumber": "14015", "addr:postcode": "77478", "addr:state": "TX", "addr:street": "Southwest Freeway", "amenity": "bank", "brand": "Chase", "brand:wikidata": "Q524629", "name": "Chase"}}, {"type": "node", "id": 4515613744, "lat": 29.6215104, "lon": -95.5987898, "tags": {"addr:city": "Sugar Land", "addr:housenumber": "13827", "addr:postcode": "77478", "addr:state": "TX", "addr:street": "Southwest Freeway", "amenity": "pharmacy", "brand": "CVS Pharmacy", "brand:website": "https://www.cvs.com/", "brand:wikidata": "Q2078880", "brand:wikipedia": "en:CVS Pharmacy", "healthcare": "pharmacy", "name": "CVS Pharmacy", "short_name": "CVS", "website": "https://www.cvs.com/store-locator/sugar-land-tx-pharmacies/13829-southwest-fwy-sugar-land-tx-77478/storeid=7285"}}, {"type": "node", "id": 4515613745, "lat": 29.6222483, "lon": -95.597821, "tags": {"addr:city": "Sugar Land", "addr:housenumber": "13849", "addr:postcode": "77478", "addr:state": "TX", "addr:street": "Southwest Freeway", "amenity": "restaurant", "name": "Mai Colachi BBQ & Grill"}}, {"type": "node", "id": 4515613747, "lat": 29.621697, "lon": -95.6000397, "tags": {"addr:city": "Sugar Land", "addr:housenumber": "13875", "addr:postcode": "77478", "addr:state": "TX", "addr:street": "Southwest Freeway", "amenity": "fast_food", "brand": "Subway", "brand:wikidata": "Q244457", "cuisine": "sandwich", "name": "Subway", "opening_hours": "08:00-21:00", "phone": "+1 281-265-8176", "takeaway": "yes", "website": "https://restaurants.subway.com/united-states/tx/sugar-land/13875-sw-freeway"}}, {"type": "node", "id": 6856545159, "lat": 29.6206277, "lon": -95.5992528}, {"type": "node", "id": 6856545160, "lat": 29.6207943, "lon": -95.5994279}, {"type": "node", "id": 6856545161, "lat": 29.6211096, "lon": -95.5989991}, {"type": "node", "id": 6856545162, "lat": 29.6212582, "lon": -95.5991522}, {"type": "node", "id": 6856545163, "lat": 29.6208039, "lon": -95.5997409}, {"type": "node", "id": 6856545164, "lat": 29.6204923, "lon": -95.5994183}, {"type": "node", "id": 6856545165, "lat": 29.6209861, "lon": -95.598875}, {"type": "node", "id": 6856545166, "lat": 29.6211054, "lon": -95.5987212}, {"type": "node", "id": 6856545167, "lat": 29.621378, "lon": -95.5989991}, {"type": "node", "id": 6856545168, "lat": 29.6210412, "lon": -95.5986558}, {"type": "node", "id": 6856545169, "lat": 29.6211443, "lon": -95.5985276}, {"type": "node", "id": 6856545170, "lat": 29.6211923, "lon": -95.5985827}, {"type": "node", "id": 6856545171, "lat": 29.6214909, "lon": -95.5988727}, {"type": "node", "id": 6856545172, "lat": 29.6213837, "lon": -95.5990054}, {"type": "node", "id": 6856545173, "lat": 29.6211491, "lon": -95.598533}, {"type": "node", "id": 6856545174, "lat": 29.6213755, "lon": -95.598232}, {"type": "node", "id": 6856545175, "lat": 29.6214202, "lon": -95.5982765}, {"type": "node", "id": 6856545176, "lat": 29.6214795, "lon": -95.5981935}, {"type": "node", "id": 6856545177, "lat": 29.6217812, "lon": -95.598494}, {"type": "node", "id": 6856545178, "lat": 29.6215629, "lon": -95.5980857}, {"type": "node", "id": 6856545179, "lat": 29.6216445, "lon": -95.5981697}, {"type": "node", "id": 6856545180, "lat": 29.6217434, "lon": -95.5980432}, {"type": "node", "id": 6856545181, "lat": 29.6219556, "lon": -95.5982577}, {"type": "node", "id": 6856545182, "lat": 29.6218051, "lon": -95.5981051}, {"type": "node", "id": 6856545183, "lat": 29.6220125, "lon": -95.5978359}, {"type": "node", "id": 6856545184, "lat": 29.6218509, "lon": -95.5976659}, {"type": "node", "id": 6856570485, "lat": 29.6219798, "lon": -95.5974938}, {"type": "node", "id": 6856570486, "lat": 29.6222961, "lon": -95.5978141}, {"type": "way", "id": 732244452, "nodes": [6856545159, 6856545160, 6856545161, 6856545162, 6856545163, 6856545164, 6856545159], "tags": {"building": "retail"}}, {"type": "way", "id": 732244453, "nodes": [6856545161, 6856545165, 6856545166, 6856545167, 6856545162, 6856545161], "tags": {"building": "retail"}}, {"type": "way", "id": 732244454, "nodes": [6856545166, 6856545168, 6856545169, 6856545173, 6856545170, 6856545171, 6856545172, 6856545167, 6856545166], "tags": {"building": "retail"}}, {"type": "way", "id": 732244455, "nodes": [6856545173, 6856545174, 6856545175, 6856545176, 6856545177, 6856545171, 6856545173], "tags": {"building": "retail"}}, {"type": "way", "id": 732244456, "nodes": [6856545176, 6856545178, 6856545179, 6856545180, 6856545182, 6856545181, 6856545177, 6856545176], "tags": {"building": "retail"}}, {"type": "way", "id": 732244457, "nodes": [6856545182, 6856545183, 6856545184, 6856570485, 6856570486, 6856545181, 6856545182], "tags": {"building": "retail"}}]}