{"version": 0.6, "generator": "Overpass API 0.7.62.1 084b4234", "osm3s": {"timestamp_osm_base": "2024-07-25T18:16:10Z", "copyright": "The data included in this document is from www.openstreetmap.org. The data is made available under ODbL."}, "elements": [{"type": "node", "id": 367816218, "lat": 45.0275942, "lon": -84.6776863, "tags": {"addr:state": "MI", "ele": "411", "gnis:county_name": "Otsego", "gnis:feature_id": "2492512", "name": "Otsego County Historical Society Museum", "source": "USGS Geonames", "tourism": "museum", "website": "https://www.otsegohistory.com/"}}, {"type": "node", "id": 1783214067, "lat": 45.0272434, "lon": -84.6847659}, {"type": "node", "id": 3498367835, "lat": 45.0229438, "lon": -84.6910817}, {"type": "node", "id": 3498367836, "lat": 45.0229438, "lon": -84.6908188}, {"type": "node", "id": 3498367837, "lat": 45.0231106, "lon": -84.6908188}, {"type": "node", "id": 3498367838, "lat": 45.0231105, "lon": -84.6904891}, {"type": "node", "id": 3498367839, "lat": 45.02308, "lon": -84.6904891}, {"type": "node", "id": 3498367840, "lat": 45.0230794, "lon": -84.6897179}, {"type": "node", "id": 3498367841, "lat": 45.0231248, "lon": -84.6897178}, {"type": "node", "id": 3498367842, "lat": 45.0231247, "lon": -84.6895638}, {"type": "node", "id": 3498367843, "lat": 45.0230866, "lon": -84.6895639}, {"type": "node", "id": 3498367844, "lat": 45.0230864, "lon": -84.6894394}, {"type": "node", "id": 3498367845, "lat": 45.0229544, "lon": -84.6894397}, {"type": "node", "id": 3498367846, "lat": 45.0228825, "lon": -84.6889983}, {"type": "node", "id": 3498367847, "lat": 45.0229537, "lon": -84.6889981}, {"type": "node", "id": 3498367848, "lat": 45.0227008, "lon": -84.6889892}, {"type": "node", "id": 3498367849, "lat": 45.0227004, "lon": -84.6886896}, {"type": "node", "id": 3498367850, "lat": 45.0228821, "lon": -84.6886891}, {"type": "node", "id": 3498367851, "lat": 45.0222665, "lon": -84.688989}, {"type": "node", "id": 3498367852, "lat": 45.0223005, "lon": -84.6889889}, {"type": "node", "id": 3498367853, "lat": 45.0223001, "lon": -84.6886154}, {"type": "node", "id": 3498367854, "lat": 45.0224548, "lon": -84.6886151}, {"type": "node", "id": 3498367855, "lat": 45.0224553, "lon": -84.6889898}, {"type": "node", "id": 3498367856, "lat": 45.0222666, "lon": -84.6891164}, {"type": "node", "id": 3498367857, "lat": 45.0220333, "lon": -84.6891165}, {"type": "node", "id": 3498367858, "lat": 45.0220335, "lon": -84.6910819}, {"type": "node", "id": 4049362139, "lat": 45.0280083, "lon": -84.6831491}, {"type": "node", "id": 4049362143, "lat": 45.0280079, "lon": -84.6830094}, {"type": "node", "id": 4049362151, "lat": 45.0276387, "lon": -84.6830113}, {"type": "node", "id": 4049362156, "lat": 45.0279725, "lon": -84.6832108}, {"type": "node", "id": 4049362159, "lat": 45.0279723, "lon": -84.6831493}, {"type": "node", "id": 5243275900, "lat": 45.0253698, "lon": -84.6898573}, {"type": "node", "id": 5243275901, "lat": 45.0251675, "lon": -84.690034}, {"type": "node", "id": 5243275902, "lat": 45.025066, "lon": -84.6898014}, {"type": "node", "id": 5243275903, "lat": 45.0252683, "lon": -84.6896247}, {"type": "node", "id": 7141670850, "lat": 45.0276392, "lon": -84.6832125}, {"type": "node", "id": 7841668899, "lat": 45.0233184, "lon": -84.6782674}, {"type": "node", "id": 7841668900, "lat": 45.0235802, "lon": -84.678275}, {"type": "node", "id": 7841668901, "lat": 45.0235835, "lon": -84.6780471}, {"type": "node", "id": 7841668902, "lat": 45.0233217, "lon": -84.6780395}, {"type": "node", "id": 7841669139, "lat": 45.0280238, "lon": -84.6846425}, {"type": "node", "id": 7841669140, "lat": 45.0280218, "lon": -84.6843494}, {"type": "node", "id": 7841669141, "lat": 45.0277323, "lon": -84.6843535}, {"type": "node", "id": 7841669143, "lat": 45.0277344, "lon": -84.6846465}, {"type": "node", "id": 7841669145, "lat": 45.0279033, "lon": -84.6856959, "tags": {"addr:city": "Gaylord", "addr:housenumber": "832", "addr:postcode": "49735", "addr:state": "MI", "addr:street": "West Main Street", "amenity": "fast_food", "branch": "Gaylord", "brand": "Qdoba", "brand:wikidata": "Q1363885", "cuisine": "mexican", "name": "Qdoba", "official_name": "Qdoba Mexican Grill", "opening_hours": "10:30-21:30", "phone": "+1 989-448-2330", "takeaway": "yes", "website": "https://locations.qdoba.com/us/mi/gaylord/832-w-main-st.html"}}, {"type": "node", "id": 7841669159, "lat": 45.0270887, "lon": -84.6858042}, {"type": "node", "id": 7841669160, "lat": 45.0270902, "lon": -84.685524}, {"type": "node", "id": 7841669161, "lat": 45.026969, "lon": -84.6855228}, {"type": "node", "id": 7841669162, "lat": 45.0269676, "lon": -84.6858029}, {"type": "node", "id": 7841669164, "lat": 45.0279002, "lon": -84.6858673, "tags": {"addr:city": "Gaylord", "addr:housenumber": "832", "addr:postcode": "49735-1902", "addr:state": "MI", "addr:street": "West Main", "amenity": "fast_food", "brand": "Burger King", "brand:wikidata": "Q177054", "cuisine": "burger", "delivery": "yes", "drive_through": "yes", "internet_access": "wlan", "name": "Burger King", "opening_hours": "Mo 06:00-20:00; Tu 06:00-19:00; We 10:30-20:00; Th-Su 06:00-20:00", "phone": "+1 989-732-2660", "ref": "1614", "takeaway": "yes", "website": "https://www.bk.com/store-locator/store/restaurant_839"}}, {"type": "node", "id": 7841669165, "lat": 45.0278272, "lon": -84.6864957, "tags": {"amenity": "restaurant", "brand": "Jet's Pizza", "brand:wikidata": "Q16997713", "cuisine": "pizza", "name": "Jet's Pizza"}}, {"type": "node", "id": 7841669166, "lat": 45.0278586, "lon": -84.6835336}, {"type": "node", "id": 7841669167, "lat": 45.027861, "lon": -84.6838648}, {"type": "node", "id": 7841669168, "lat": 45.0280004, "lon": -84.6838628}, {"type": "node", "id": 7841669169, "lat": 45.0279979, "lon": -84.6835315}, {"type": "node", "id": 7841669178, "lat": 45.0277245, "lon": -84.6818147}, {"type": "node", "id": 7841669179, "lat": 45.0277225, "lon": -84.6820927}, {"type": "node", "id": 7841669180, "lat": 45.0278821, "lon": -84.6820949}, {"type": "node", "id": 7841669181, "lat": 45.027884, "lon": -84.6818169}, {"type": "node", "id": 7928895353, "lat": 45.0272431, "lon": -84.6846421}, {"type": "node", "id": 7928895354, "lat": 45.0270221, "lon": -84.6846433}, {"type": "node", "id": 7928895355, "lat": 45.0270225, "lon": -84.6847672}, {"type": "node", "id": 11151391378, "lat": 45.025866, "lon": -84.6837886, "tags": {"addr:city": "Gaylord", "addr:housenumber": "829", "addr:postcode": "49735-1998", "addr:state": "MI", "addr:street": "West Main Street", "alt_name": "Dairy Queen", "amenity": "fast_food", "brand": "DQ Grill & Chill", "brand:wikidata": "Q1141226", "cuisine": "ice_cream;burger", "name": "DQ Grill & Chill", "phone": "+1 989-731-3298", "takeaway": "yes", "website": "https://www.dairyqueen.com/locations/mi/gaylord/829-w-main-st/12867"}}, {"type": "node", "id": 11151391379, "lat": 45.0258698, "lon": -84.6839308, "tags": {"addr:city": "Gaylord", "addr:housenumber": "829", "addr:postcode": "49735", "addr:state": "MI", "addr:street": "West Main Street", "amenity": "cafe", "branch": "Family Fare Gaylord 1510", "brand": "Starbucks", "brand:wikidata": "Q37158", "cuisine": "coffee_shop", "name": "Starbucks", "official_name": "Starbucks Coffee", "phone": "+1 989-731-3222", "ref": "10848", "takeaway": "yes", "website": "https://www.starbucks.com/store-locator/store/10848/family-fare-gaylord-1510-829-w-main-st-gaylord-mi-497351998-us"}}, {"type": "node", "id": 11151391403, "lat": 45.0271747, "lon": -84.6815403}, {"type": "node", "id": 11151391404, "lat": 45.027054, "lon": -84.6815424}, {"type": "node", "id": 11151489005, "lat": 45.027054, "lon": -84.6815606}, {"type": "node", "id": 11151489006, "lat": 45.0269219, "lon": -84.6815627}, {"type": "node", "id": 11151489007, "lat": 45.0269204, "lon": -84.6813818}, {"type": "node", "id": 11151489008, "lat": 45.027054, "lon": -84.6813777}, {"type": "node", "id": 11151489009, "lat": 45.027054, "lon": -84.681394}, {"type": "node", "id": 11151489010, "lat": 45.0271762, "lon": -84.6813919}, {"type": "node", "id": 11153184006, "lat": 45.0271899, "lon": -84.6808802}, {"type": "node", "id": 11153184007, "lat": 45.0267671, "lon": -84.6808855}, {"type": "node", "id": 11153184008, "lat": 45.0267709, "lon": -84.6804966}, {"type": "node", "id": 11153184009, "lat": 45.0269188, "lon": -84.6804993}, {"type": "node", "id": 11153184010, "lat": 45.0269188, "lon": -84.6803303}, {"type": "node", "id": 11153184011, "lat": 45.0270212, "lon": -84.6803383}, {"type": "node", "id": 11153184012, "lat": 45.027023, "lon": -84.6804966}, {"type": "node", "id": 11153184013, "lat": 45.0271899, "lon": -84.6804912}, {"type": "node", "id": 11160720072, "lat": 45.0278129, "lon": -84.6801714}, {"type": "node", "id": 11160720073, "lat": 45.0275721, "lon": -84.6801741}, {"type": "node", "id": 11160720074, "lat": 45.0275683, "lon": -84.6803109}, {"type": "node", "id": 11160720075, "lat": 45.0276442, "lon": -84.6803109}, {"type": "node", "id": 11160720076, "lat": 45.0276442, "lon": -84.6803323}, {"type": "node", "id": 11160720077, "lat": 45.0277105, "lon": -84.6803323}, {"type": "node", "id": 11160720078, "lat": 45.0277105, "lon": -84.6803055}, {"type": "node", "id": 11160720079, "lat": 45.0278167, "lon": -84.6803082}, {"type": "node", "id": 11160720084, "lat": 45.0275937, "lon": -84.677862, "tags": {"amenity": "restaurant", "cuisine": "german", "name": "Mary's Stein Haus"}}, {"type": "node", "id": 11160720085, "lat": 45.0275937, "lon": -84.6777737, "tags": {"amenity": "restaurant", "name": "Abi's Bistro"}}, {"type": "way", "id": 342878209, "nodes": [3498367835, 3498367836, 3498367837, 3498367838, 3498367839, 3498367840, 3498367841, 3498367842, 3498367843, 3498367844, 3498367845, 3498367847, 3498367846, 3498367850, 3498367849, 3498367848, 3498367855, 3498367854, 3498367853, 3498367852, 3498367851, 3498367856, 3498367857, 3498367858, 3498367835], "tags": {"addr:city": "Gaylord", "addr:country": "US", "addr:housenumber": "950", "addr:postcode": "49735", "addr:state": "MI", "addr:street": "Edelweiss Parkway", "brand": "Walmart", "brand:wikidata": "Q483551", "building": "retail", "name": "Walmart Supercenter", "opening_hours": "24/7", "operator": "Walmart", "phone": "+1 989-732-8090", "ref": "1542", "ref:walmart": "1542", "shop": "supermarket", "website": "https://www.walmart.com/store/1542/gaylord-mi/whats-new"}}, {"type": "way", "id": 402541697, "nodes": [7141670850, 4049362156, 4049362159, 4049362139, 4049362143, 4049362151, 7141670850], "tags": {"amenity": "fast_food", "brand": "McDonald's", "brand:wikidata": "Q38076", "building": "yes", "cuisine": "burger", "name": "McDonald's", "takeaway": "yes", "website": "https://www.mcdonalds.com/us/en-us/location/mi/gaylord/716-w-main-st/1611.html"}}, {"type": "way", "id": 542317535, "nodes": [5243275900, 5243275901, 5243275902, 5243275903, 5243275900], "tags": {"amenity": "restaurant", "brand": "Bob Evans", "brand:wikidata": "Q4932386", "building": "commercial", "cuisine": "american", "name": "Bob Evans"}}, {"type": "way", "id": 840364453, "nodes": [7841668902, 7841668901, 7841668900, 7841668899, 7841668902], "tags": {"building": "retail"}}, {"type": "way", "id": 840364478, "nodes": [7841669143, 7841669141, 7841669140, 7841669139, 7841669143], "tags": {"brand": "Advance Auto Parts", "brand:wikidata": "Q4686051", "building": "retail", "name": "Advance Auto Parts", "shop": "car_parts", "website": "https://stores.advanceautoparts.com/mi/gaylord/111-n-ohio-ave"}}, {"type": "way", "id": 840364482, "nodes": [7841669162, 7841669161, 7841669160, 7841669159, 7841669162], "tags": {"building": "retail"}}, {"type": "way", "id": 840364483, "nodes": [7841669166, 7841669169, 7841669168, 7841669167, 7841669166], "tags": {"addr:city": "Gaylord", "addr:housenumber": "730", "addr:postcode": "49735", "addr:state": "MI", "addr:street": "West Main Street", "brand": "Speedway", "brand:wikidata": "Q7575683", "building": "retail", "name": "Speedway", "ref": "8760", "shop": "convenience", "website": "https://www.speedway.com/locations/MI/Gaylord/730-West-Main-Street"}}, {"type": "way", "id": 840364485, "nodes": [7841669178, 7841669181, 7841669180, 7841669179, 7841669178], "tags": {"addr:city": "Gaylord", "addr:housenumber": "620", "addr:postcode": "49735", "addr:state": "MI", "addr:street": "West Main Street", "brand": "Holiday", "brand:wikidata": "Q5880490", "building": "retail", "name": "Holiday", "ref": "175", "shop": "convenience"}}, {"type": "way", "id": 849866773, "nodes": [1783214067, 7928895353, 7928895354, 7928895355, 1783214067], "tags": {"addr:city": "Gaylord", "addr:housenumber": "811", "addr:postcode": "49735", "addr:state": "MI", "addr:street": "West Main Street", "amenity": "fast_food", "brand": "Wendy's", "brand:wikidata": "Q550258", "building": "commercial", "cuisine": "burger", "drive_through": "yes", "name": "Wendy's", "opening_hours": "09:00-22:00", "opening_hours:drive_through": "Mo-Su 06:30-00:00", "phone": "+1 989-732-7359", "takeaway": "yes", "website": "https://locations.wendys.com/united-states/mi/gaylord/811-main-st"}}, {"type": "way", "id": 1202926961, "nodes": [11151391403, 11151391404, 11151489005, 11151489006, 11151489007, 11151489008, 11151489009, 11151489010, 11151391403], "tags": {"addr:city": "Gaylord", "addr:housenumber": "609", "addr:postcode": "49735", "addr:state": "MI", "addr:street": "West Main Street", "amenity": "fast_food", "brand": "Arby's", "brand:wikidata": "Q630866", "building": "yes", "check_date": "2024-06-21", "cuisine": "sandwich", "name": "Arby's", "opening_hours": "10:00-22:00", "phone": "+1 989-732-7247", "takeaway": "yes", "website": "https://www.arbys.com/locations/us/mi/gaylord/609-w-main-st/store-1185/"}}, {"type": "way", "id": 1203119013, "nodes": [11153184006, 11153184007, 11153184008, 11153184009, 11153184010, 11153184011, 11153184012, 11153184013, 11153184006], "tags": {"amenity": "bank", "building": "yes", "name": "Horizon Bank"}}, {"type": "way", "id": 1204158187, "nodes": [11160720072, 11160720073, 11160720074, 11160720075, 11160720076, 11160720077, 11160720078, 11160720079, 11160720072], "tags": {"addr:city": "Gaylord", "addr:housenumber": "508", "addr:postcode": "49735", "addr:state": "MI", "addr:street": "West Main", "alt_name": "Kentucky Fried Chicken", "amenity": "fast_food", "brand": "KFC", "brand:wikidata": "Q524757", "building": "yes", "cuisine": "chicken", "name": "KFC", "takeaway": "yes", "website": "https://locations.kfc.com/mi/gaylord/508-w-main"}}]}