{"version": 0.6, "generator": "Overpass API 0.7.62.1 084b4234", "osm3s": {"timestamp_osm_base": "2024-07-23T20:54:45Z", "copyright": "The data included in this document is from www.openstreetmap.org. The data is made available under ODbL."}, "elements": [{"type": "node", "id": 3517347125, "lat": 33.9242936, "lon": -98.5134205}, {"type": "node", "id": 3517347126, "lat": 33.9242088, "lon": -98.5133824}, {"type": "node", "id": 3517347127, "lat": 33.9240661, "lon": -98.5134634}, {"type": "node", "id": 3517347128, "lat": 33.9239083, "lon": -98.5133899}, {"type": "node", "id": 3517347129, "lat": 33.9239436, "lon": -98.5132799}, {"type": "node", "id": 3517347130, "lat": 33.9240448, "lon": -98.513327}, {"type": "node", "id": 3517347131, "lat": 33.9240628, "lon": -98.5132974}, {"type": "node", "id": 3517347132, "lat": 33.9241744, "lon": -98.5132519}, {"type": "node", "id": 3517347133, "lat": 33.9243249, "lon": -98.5133195}, {"type": "node", "id": 7005489938, "lat": 33.9321137, "lon": -98.517695}, {"type": "node", "id": 7005489939, "lat": 33.9320195, "lon": -98.5176069}, {"type": "node", "id": 7005489940, "lat": 33.9320062, "lon": -98.5176275}, {"type": "node", "id": 7005489941, "lat": 33.9319247, "lon": -98.5175513}, {"type": "node", "id": 7005489942, "lat": 33.9320359, "lon": -98.5173788}, {"type": "node", "id": 7005489943, "lat": 33.9319923, "lon": -98.5173381}, {"type": "node", "id": 7005489944, "lat": 33.9320798, "lon": -98.5172023}, {"type": "node", "id": 7005489945, "lat": 33.9321199, "lon": -98.5172397}, {"type": "node", "id": 7005489946, "lat": 33.9321939, "lon": -98.5171247}, {"type": "node", "id": 7005489947, "lat": 33.9322313, "lon": -98.5171597}, {"type": "node", "id": 7005489948, "lat": 33.9322491, "lon": -98.517132}, {"type": "node", "id": 7005489949, "lat": 33.9322922, "lon": -98.5171722}, {"type": "node", "id": 7005489950, "lat": 33.9322809, "lon": -98.5171896}, {"type": "node", "id": 7005489951, "lat": 33.9323428, "lon": -98.5172475}, {"type": "node", "id": 7005489952, "lat": 33.9321892, "lon": -98.517486}, {"type": "node", "id": 7005489953, "lat": 33.9322261, "lon": -98.5175205}, {"type": "node", "id": 7886646529, "lat": 33.9280191, "lon": -98.5084468}, {"type": "node", "id": 7886646530, "lat": 33.9278726, "lon": -98.5084068}, {"type": "node", "id": 7886646531, "lat": 33.9279034, "lon": -98.5082584}, {"type": "node", "id": 7886646532, "lat": 33.9280491, "lon": -98.5083023}, {"type": "node", "id": 7886674026, "lat": 33.9270445, "lon": -98.5086642}, {"type": "node", "id": 7886674027, "lat": 33.9268568, "lon": -98.5086177}, {"type": "node", "id": 7886674028, "lat": 33.9268711, "lon": -98.5085336}, {"type": "node", "id": 7886674029, "lat": 33.9269698, "lon": -98.508558}, {"type": "node", "id": 7886674030, "lat": 33.9269753, "lon": -98.508526}, {"type": "node", "id": 7886674031, "lat": 33.9270643, "lon": -98.5085481}, {"type": "node", "id": 8395016245, "lat": 33.927687, "lon": -98.509643}, {"type": "node", "id": 8395016246, "lat": 33.927517, "lon": -98.509306}, {"type": "node", "id": 8395016247, "lat": 33.927598, "lon": -98.509247}, {"type": "node", "id": 8395016248, "lat": 33.927582, "lon": -98.509214}, {"type": "node", "id": 8395016249, "lat": 33.92764, "lon": -98.509171}, {"type": "node", "id": 8395016250, "lat": 33.927666, "lon": -98.509221}, {"type": "node", "id": 8395016251, "lat": 33.927712, "lon": -98.509187}, {"type": "node", "id": 8395016252, "lat": 33.927866, "lon": -98.509492}, {"type": "node", "id": 8395016253, "lat": 33.92784, "lon": -98.509511}, {"type": "node", "id": 8395016254, "lat": 33.927905, "lon": -98.509641}, {"type": "node", "id": 8395016255, "lat": 33.927802, "lon": -98.509716}, {"type": "node", "id": 8395016256, "lat": 33.92785, "lon": -98.50981}, {"type": "node", "id": 8395016257, "lat": 33.927722, "lon": -98.509904}, {"type": "node", "id": 8395016258, "lat": 33.927651, "lon": -98.509764}, {"type": "node", "id": 8395016259, "lat": 33.927678, "lon": -98.509745}, {"type": "node", "id": 8395016260, "lat": 33.927643, "lon": -98.509675}, {"type": "node", "id": 8395016269, "lat": 33.927894, "lon": -98.507481}, {"type": "node", "id": 8395016270, "lat": 33.927763, "lon": -98.50748}, {"type": "node", "id": 8395016271, "lat": 33.927764, "lon": -98.507177}, {"type": "node", "id": 8395016272, "lat": 33.928016, "lon": -98.507178}, {"type": "node", "id": 8395016273, "lat": 33.928016, "lon": -98.507245}, {"type": "node", "id": 8395016274, "lat": 33.927937, "lon": -98.507245}, {"type": "node", "id": 8395016275, "lat": 33.927937, "lon": -98.507316}, {"type": "node", "id": 8395016276, "lat": 33.927895, "lon": -98.507316}, {"type": "node", "id": 9913446748, "lat": 33.9268737, "lon": -98.509083}, {"type": "node", "id": 9913446749, "lat": 33.9267142, "lon": -98.5090826}, {"type": "node", "id": 9913446750, "lat": 33.9267145, "lon": -98.5089408}, {"type": "node", "id": 9913446751, "lat": 33.9268739, "lon": -98.5089412}, {"type": "node", "id": 9913446752, "lat": 33.9267052, "lon": -98.5090831}, {"type": "node", "id": 9913446753, "lat": 33.9265464, "lon": -98.5090827}, {"type": "node", "id": 9913446754, "lat": 33.9265467, "lon": -98.5089418}, {"type": "node", "id": 9913446755, "lat": 33.9267054, "lon": -98.5089422}, {"type": "node", "id": 10574732014, "lat": 33.927737, "lon": -98.5127915}, {"type": "node", "id": 10574732015, "lat": 33.927548, "lon": -98.5127938}, {"type": "node", "id": 10574732016, "lat": 33.9275449, "lon": -98.5124261}, {"type": "node", "id": 10574732017, "lat": 33.9277339, "lon": -98.5124238}, {"type": "way", "id": 345037636, "nodes": [3517347125, 3517347126, 3517347127, 3517347128, 3517347129, 3517347130, 3517347131, 3517347132, 3517347133, 3517347125], "tags": {"addr:city": "Wichita Falls", "addr:housenumber": "900", "addr:postcode": "76306", "addr:state": "TX", "addr:street": "Central Freeway", "building": "public", "information": "office", "name": "Texas Travel Information Center at Wichita Falls", "operator": "Texas Department of Transportation", "operator:wikidata": "Q568743", "toilets": "yes", "tourism": "information"}}, {"type": "way", "id": 749116875, "nodes": [7005489938, 7005489939, 7005489940, 7005489941, 7005489942, 7005489943, 7005489944, 7005489945, 7005489946, 7005489947, 7005489948, 7005489949, 7005489950, 7005489951, 7005489952, 7005489953, 7005489938], "tags": {"addr:city": "Wichita Falls", "addr:housenumber": "1024", "addr:postcode": "76306", "addr:state": "TX", "addr:street": "Central Freeway", "amenity": "restaurant", "building": "yes", "cuisine": "chinese", "name": "China Star"}}, {"type": "way", "id": 845325996, "nodes": [7886646529, 7886646530, 7886646531, 7886646532, 7886646529], "tags": {"addr:city": "Wichita Falls", "addr:housenumber": "1103", "addr:postcode": "76306", "addr:state": "TX", "addr:street": "Sheppard Access Road", "amenity": "bar", "building": "yes", "name": "La Herradura Bar"}}, {"type": "way", "id": 845326013, "nodes": [7886674026, 7886674027, 7886674028, 7886674029, 7886674030, 7886674031, 7886674026], "tags": {"addr:city": "Wichita Falls", "addr:housenumber": "1409", "addr:postcode": "76306", "addr:state": "TX", "addr:street": "Old Iowa Park Road", "amenity": "bar", "building": "yes", "name": "Corner Post"}}, {"type": "way", "id": 903920231, "nodes": [8395016245, 8395016246, 8395016247, 8395016248, 8395016249, 8395016250, 8395016251, 8395016252, 8395016253, 8395016254, 8395016255, 8395016256, 8395016257, 8395016258, 8395016259, 8395016260, 8395016245], "tags": {"addr:city": "Wichita Falls", "addr:housenumber": "1100", "addr:postcode": "76306", "addr:state": "TX", "addr:street": "Sheppard Access Road", "amenity": "restaurant", "building": "yes", "cuisine": "american", "name": "Pioneer No. 3", "source": "microsoft/BuildingFootprints"}}, {"type": "way", "id": 903920234, "nodes": [8395016269, 8395016270, 8395016271, 8395016272, 8395016273, 8395016274, 8395016275, 8395016276, 8395016269], "tags": {"addr:city": "Wichita Falls", "addr:housenumber": "1324", "addr:postcode": "76306", "addr:state": "TX", "addr:street": "North Scott Avenue", "amenity": "bar", "building": "yes", "name": "O'Briens", "source": "microsoft/BuildingFootprints"}}, {"type": "way", "id": 1081634066, "nodes": [9913446748, 9913446749, 9913446750, 9913446751, 9913446748], "tags": {"amenity": "bar", "building": "yes"}}, {"type": "way", "id": 1081634067, "nodes": [9913446752, 9913446753, 9913446754, 9913446755, 9913446752], "tags": {"addr:city": "Wichita Falls", "addr:housenumber": "1415", "addr:postcode": "76306", "addr:state": "TX", "addr:street": "Old Iowa Park Road", "addr:unit": "B", "amenity": "bar", "building": "yes", "name": "Water Hole"}}, {"type": "way", "id": 1134281198, "nodes": [10574732014, 10574732015, 10574732016, 10574732017, 10574732014], "tags": {"addr:city": "Wichita Falls", "addr:housenumber": "1526", "addr:postcode": "76306", "addr:state": "TX", "addr:street": "Old Iowa Park Road", "brand": "QuikTrip", "brand:wikidata": "Q7271953", "building": "retail", "building:levels": "1", "name": "QuikTrip", "shop": "convenience", "short_name": "QT"}}]}