{"version": 0.6, "generator": "Overpass API 0.7.62.1 084b4234", "osm3s": {"timestamp_osm_base": "2024-07-25T19:04:04Z", "copyright": "The data included in this document is from www.openstreetmap.org. The data is made available under ODbL."}, "elements": [{"type": "node", "id": 9630173789, "lat": 40.798721, "lon": -81.4033409}, {"type": "node", "id": 9630173790, "lat": 40.7988332, "lon": -81.4033626}, {"type": "node", "id": 9630173791, "lat": 40.7988706, "lon": -81.4030268}, {"type": "node", "id": 9630173792, "lat": 40.7987583, "lon": -81.403005}, {"type": "node", "id": 9632432974, "lat": 40.7951157, "lon": -81.4040953, "tags": {"amenity": "community_centre", "name": "Aultman Prime Time Program"}}, {"type": "node", "id": 9632432983, "lat": 40.7967246, "lon": -81.4037378, "tags": {"amenity": "atm", "brand": "Huntington Bank", "brand:wikidata": "Q798819", "name": "Huntington Bank", "operator": "Huntington Bank", "operator:wikidata": "Q798819", "operator:wikipedia": "en:Huntington Bancshares"}}, {"type": "node", "id": 9632523074, "lat": 40.7992748, "lon": -81.3997134}, {"type": "node", "id": 9632523075, "lat": 40.7991001, "lon": -81.3997233}, {"type": "node", "id": 9632523076, "lat": 40.7990967, "lon": -81.3996194}, {"type": "node", "id": 9632523077, "lat": 40.7992715, "lon": -81.3996095}, {"type": "node", "id": 9632523086, "lat": 40.7991795, "lon": -81.3991617, "tags": {"addr:city": "Canton", "addr:housenumber": "2238", "addr:postcode": "44708", "addr:state": "OH", "addr:street": "Tuscarawas Street West", "amenity": "fast_food", "branch": "Canton Tuscarawas St", "brand": "Wingstop", "brand:wikidata": "Q8025339", "cuisine": "wings", "name": "Wingstop", "phone": "+1 330-587-9464", "takeaway": "yes"}}, {"type": "node", "id": 9632523088, "lat": 40.7991734, "lon": -81.3988952, "tags": {"amenity": "bar", "name": "That Christmas Bar"}}, {"type": "node", "id": 9633439647, "lat": 40.7989802, "lon": -81.3985815, "tags": {"amenity": "atm"}}, {"type": "node", "id": 9633455815, "lat": 40.7984907, "lon": -81.3937385}, {"type": "node", "id": 9633455816, "lat": 40.7983818, "lon": -81.3937446}, {"type": "node", "id": 9633544217, "lat": 40.7983757, "lon": -81.3935184}, {"type": "node", "id": 9633544218, "lat": 40.7984756, "lon": -81.3935137}, {"type": "node", "id": 9633544219, "lat": 40.7984847, "lon": -81.3935231}, {"type": "node", "id": 9633544220, "lat": 40.7984092, "lon": -81.3937548}, {"type": "node", "id": 9633544221, "lat": 40.7984642, "lon": -81.3937522}, {"type": "node", "id": 9633544222, "lat": 40.7984639, "lon": -81.3937398}, {"type": "node", "id": 9633544223, "lat": 40.7984088, "lon": -81.3937433}, {"type": "node", "id": 9633544259, "lat": 40.7995707, "lon": -81.3935638}, {"type": "node", "id": 9633544260, "lat": 40.7996635, "lon": -81.3934773}, {"type": "node", "id": 9633544261, "lat": 40.799655, "lon": -81.3934614}, {"type": "node", "id": 9633544262, "lat": 40.7996645, "lon": -81.3934526}, {"type": "node", "id": 9633544263, "lat": 40.7995117, "lon": -81.3931364}, {"type": "node", "id": 9633544264, "lat": 40.7993986, "lon": -81.3932418}, {"type": "node", "id": 9633544265, "lat": 40.7996217, "lon": -81.3933423}, {"type": "node", "id": 9633544266, "lat": 40.7996109, "lon": -81.3933524}, {"type": "node", "id": 9633544274, "lat": 40.7999496, "lon": -81.3941656}, {"type": "node", "id": 9633544275, "lat": 40.8001175, "lon": -81.3941544}, {"type": "node", "id": 9633544276, "lat": 40.8001167, "lon": -81.3941332}, {"type": "node", "id": 9633544277, "lat": 40.8001845, "lon": -81.3941288}, {"type": "node", "id": 9633544278, "lat": 40.8001809, "lon": -81.3940343}, {"type": "node", "id": 9633544279, "lat": 40.8000378, "lon": -81.3940438}, {"type": "node", "id": 9633544280, "lat": 40.8000381, "lon": -81.3940518}, {"type": "node", "id": 9633544281, "lat": 40.7999455, "lon": -81.394058}, {"type": "node", "id": 9633839524, "lat": 40.8000945, "lon": -81.3981489, "tags": {"amenity": "restaurant", "name": "Taqueria Chapin Taco Truck"}}, {"type": "node", "id": 9633839530, "lat": 40.7997339, "lon": -81.3998253}, {"type": "node", "id": 9633839531, "lat": 40.7999578, "lon": -81.3998119}, {"type": "node", "id": 9633839532, "lat": 40.7999535, "lon": -81.3996844}, {"type": "node", "id": 9633839533, "lat": 40.7997296, "lon": -81.3996977}, {"type": "node", "id": 9633839540, "lat": 40.7997095, "lon": -81.4004547, "tags": {"amenity": "bar", "name": "Harmon's Pub"}}, {"type": "node", "id": 9633839543, "lat": 40.7997757, "lon": -81.4001041, "tags": {"amenity": "restaurant", "cuisine": "chinese", "name": "Loong Fung"}}, {"type": "node", "id": 9633839555, "lat": 40.7996394, "lon": -81.4012668, "tags": {"amenity": "restaurant", "cuisine": "pizza", "name": "Hungry Howie's Pizza"}}, {"type": "node", "id": 9634619277, "lat": 40.7987396, "lon": -81.4031795}, {"type": "node", "id": 9634619278, "lat": 40.7987304, "lon": -81.4032487}, {"type": "node", "id": 9634619279, "lat": 40.798719, "lon": -81.4032075}, {"type": "node", "id": 9634619280, "lat": 40.7987199, "lon": -81.4032316}, {"type": "node", "id": 9634619281, "lat": 40.7987264, "lon": -81.4031893}, {"type": "node", "id": 9634619282, "lat": 40.7987322, "lon": -81.4031837}, {"type": "node", "id": 9634619283, "lat": 40.7987214, "lon": -81.4031974}, {"type": "node", "id": 9634619284, "lat": 40.798718, "lon": -81.4032194}, {"type": "node", "id": 9634619285, "lat": 40.7987248, "lon": -81.4032412}, {"type": "node", "id": 9634619286, "lat": 40.7988439, "lon": -81.4032665}, {"type": "node", "id": 9634619287, "lat": 40.7988509, "lon": -81.4032023}, {"type": "node", "id": 9634619288, "lat": 40.7988629, "lon": -81.4032384}, {"type": "node", "id": 9634619289, "lat": 40.7988559, "lon": -81.4032575}, {"type": "node", "id": 9634619290, "lat": 40.7988614, "lon": -81.4032172}, {"type": "node", "id": 9634619291, "lat": 40.7988572, "lon": -81.4032081}, {"type": "node", "id": 9634619292, "lat": 40.7988502, "lon": -81.4032636}, {"type": "node", "id": 9634619293, "lat": 40.7988607, "lon": -81.403249}, {"type": "node", "id": 9634619294, "lat": 40.798863, "lon": -81.4032281}, {"type": "way", "id": 1047278430, "nodes": [9630173789, 9630173790, 9634619286, 9634619292, 9634619289, 9634619293, 9634619288, 9634619294, 9634619290, 9634619291, 9634619287, 9630173791, 9630173792, 9634619277, 9634619282, 9634619281, 9634619283, 9634619279, 9634619284, 9634619280, 9634619285, 9634619278, 9630173789], "tags": {"amenity": "pharmacy", "building": "yes", "dispensing": "yes", "healthcare": "pharmacy", "name": "Medicine Center Pharmacy"}}, {"type": "way", "id": 1047543623, "nodes": [9632523074, 9632523075, 9632523076, 9632523077, 9632523074], "tags": {"addr:city": "Canton", "addr:housenumber": "2304", "addr:postcode": "44708", "addr:state": "OH", "addr:street": "Tuscarawas Street West", "amenity": "fast_food", "brand": "Taco Bell", "brand:wikidata": "Q752941", "building": "yes", "cuisine": "tex-mex", "indoor_seating": "yes", "name": "Taco Bell", "opening_hours": "Mo-Su 07:00-20:00", "outdoor_seating": "yes", "phone": "+1 330-617-5650", "takeaway": "yes", "website": "https://locations.tacobell.com/oh/canton/2304-tuscarawas-street-west.html"}}, {"type": "way", "id": 1047645532, "nodes": [9633455815, 9633544222, 9633544221, 9633544220, 9633544223, 9633455816, 9633544217, 9633544218, 9633544219, 9633455815], "tags": {"addr:city": "Canton", "addr:housenumber": "164", "addr:postcode": "44706", "addr:state": "OH", "addr:street": "Dueber Avenue Southwest", "amenity": "fast_food", "brand": "Subway", "brand:wikidata": "Q244457", "building": "yes", "cuisine": "sandwich", "name": "Subway", "opening_hours": "Mo-Fr 07:00-21:00; Sa-Su 09:00-21:00", "phone": "+1 330-456-6313", "takeaway": "yes", "website": "https://restaurants.subway.com/united-states/oh/canton/164-dueber-ave-sw"}}, {"type": "way", "id": 1047645538, "nodes": [9633544259, 9633544260, 9633544261, 9633544262, 9633544266, 9633544265, 9633544263, 9633544264, 9633544259], "tags": {"addr:city": "Canton", "addr:housenumber": "112", "addr:postcode": "44704-1110", "addr:state": "OH", "addr:street": "Dueber Street", "amenity": "fast_food", "brand": "McDonald's", "brand:wikidata": "Q38076", "building": "yes", "cuisine": "burger", "drive_through": "yes", "internet_access": "wlan", "name": "McDonald's", "opening_hours": "06:00-22:00", "phone": "+1 330-452-6936", "takeaway": "yes", "website": "https://www.mcdonalds.com/us/en-us/location/1161.html"}}, {"type": "way", "id": 1047645540, "nodes": [9633544274, 9633544275, 9633544276, 9633544277, 9633544278, 9633544279, 9633544280, 9633544281, 9633544274], "tags": {"amenity": "restaurant", "building": "yes", "name": "Lindsey's"}}, {"type": "way", "id": 1047671451, "nodes": [9633839530, 9633839531, 9633839532, 9633839533, 9633839530], "tags": {"addr:city": "Canton", "addr:housenumber": "2303", "addr:postcode": "44708", "addr:state": "OH", "addr:street": "West Tusc", "alt_name": "Kentucky Fried Chicken", "amenity": "fast_food", "brand": "KFC", "brand:wikidata": "Q524757", "building": "yes", "cuisine": "chicken", "name": "KFC", "takeaway": "yes", "website": "https://locations.kfc.com/oh/canton/2303-west-tusc"}}]}