{"version": 0.6, "generator": "Overpass API 0.7.62.1 084b4234", "osm3s": {"timestamp_osm_base": "2024-07-23T20:10:45Z", "copyright": "The data included in this document is from www.openstreetmap.org. The data is made available under ODbL."}, "elements": [{"type": "node", "id": 834865035, "lat": 39.9995819, "lon": -78.2402053}, {"type": "node", "id": 834865045, "lat": 40.0000807, "lon": -78.2392305}, {"type": "node", "id": 1643178898, "lat": 39.9998497, "lon": -78.2401575}, {"type": "node", "id": 1643178901, "lat": 39.9996334, "lon": -78.2400416}, {"type": "node", "id": 1643178907, "lat": 39.9997982, "lon": -78.2403212}, {"type": "node", "id": 1657589557, "lat": 39.9989303, "lon": -78.2372167}, {"type": "node", "id": 1657589559, "lat": 39.9988872, "lon": -78.2370671}, {"type": "node", "id": 1657589560, "lat": 39.9991413, "lon": -78.2371131}, {"type": "node", "id": 1657589561, "lat": 39.9990108, "lon": -78.2369829}, {"type": "node", "id": 1657589563, "lat": 39.9990922, "lon": -78.2369429}, {"type": "node", "id": 1657589574, "lat": 39.9989521, "lon": -78.2370117}, {"type": "node", "id": 1657590375, "lat": 39.9989581, "lon": -78.2370323}, {"type": "node", "id": 1657607117, "lat": 39.9997687, "lon": -78.2358822}, {"type": "node", "id": 1657607119, "lat": 39.999946, "lon": -78.2358864}, {"type": "node", "id": 1657607132, "lat": 39.999948, "lon": -78.2357444}, {"type": "node", "id": 1657607134, "lat": 39.9997707, "lon": -78.2357402}, {"type": "node", "id": 1657623356, "lat": 39.998712, "lon": -78.2399624}, {"type": "node", "id": 1657623360, "lat": 39.9986599, "lon": -78.2398287}, {"type": "node", "id": 1657623364, "lat": 39.9984858, "lon": -78.2401127}, {"type": "node", "id": 1657623368, "lat": 39.998612, "lon": -78.2398606}, {"type": "node", "id": 1657623370, "lat": 39.9984319, "lon": -78.2399746}, {"type": "node", "id": 1657623372, "lat": 39.9985307, "lon": -78.2398469}, {"type": "node", "id": 1657623374, "lat": 39.9985499, "lon": -78.2398962}, {"type": "node", "id": 1657632661, "lat": 40.0009277, "lon": -78.2381994}, {"type": "node", "id": 1657632666, "lat": 40.0009938, "lon": -78.2378377}, {"type": "node", "id": 1657632670, "lat": 40.0008729, "lon": -78.2381652}, {"type": "node", "id": 1657632674, "lat": 40.0009274, "lon": -78.2381645}, {"type": "node", "id": 1657632679, "lat": 40.000994, "lon": -78.2378726}, {"type": "node", "id": 1657632686, "lat": 40.0010869, "lon": -78.2381975}, {"type": "node", "id": 1657632691, "lat": 40.0011488, "lon": -78.2381567}, {"type": "node", "id": 1657632698, "lat": 40.0009165, "lon": -78.2378735}, {"type": "node", "id": 1657632723, "lat": 40.0008712, "lon": -78.2379369}, {"type": "node", "id": 1657632726, "lat": 40.0011465, "lon": -78.2378359}, {"type": "node", "id": 1657633644, "lat": 40.0010866, "lon": -78.2381575}, {"type": "node", "id": 1659167677, "lat": 40.0002285, "lon": -78.2392423}, {"type": "node", "id": 1659167679, "lat": 39.9999829, "lon": -78.2394112}, {"type": "node", "id": 1659167681, "lat": 40.0002227, "lon": -78.2392651}, {"type": "node", "id": 1659167683, "lat": 40.0001364, "lon": -78.2395332}, {"type": "node", "id": 1659167686, "lat": 40.0000104, "lon": -78.2393019}, {"type": "node", "id": 1659167689, "lat": 40.0000086, "lon": -78.2391997}, {"type": "node", "id": 1659167693, "lat": 40.0002906, "lon": -78.2392941}, {"type": "node", "id": 1659167695, "lat": 40.0000923, "lon": -78.2391841}, {"type": "node", "id": 1659167697, "lat": 39.9999856, "lon": -78.2392913}, {"type": "node", "id": 1659167705, "lat": 40.0001491, "lon": -78.2394823}, {"type": "node", "id": 1659167706, "lat": 40.0002214, "lon": -78.2395696}, {"type": "node", "id": 1668760384, "lat": 39.9989712, "lon": -78.2372918}, {"type": "node", "id": 1668760387, "lat": 39.9990761, "lon": -78.2373755}, {"type": "node", "id": 1668760390, "lat": 39.9990802, "lon": -78.2374341}, {"type": "node", "id": 1668760393, "lat": 39.9990758, "lon": -78.2372912}, {"type": "node", "id": 1668760396, "lat": 39.999101, "lon": -78.237434}, {"type": "node", "id": 1668760399, "lat": 39.9991008, "lon": -78.2373754}, {"type": "node", "id": 1668760401, "lat": 39.9990808, "lon": -78.2375872}, {"type": "node", "id": 1668760403, "lat": 39.9989723, "lon": -78.2375878}, {"type": "node", "id": 1668987415, "lat": 39.9991108, "lon": -78.2350332}, {"type": "node", "id": 6498967257, "lat": 40.0002317, "lon": -78.2342557, "tags": {"amenity": "fast_food", "name": "Papi's Pizza"}}, {"type": "node", "id": 6498967261, "lat": 40.0002726, "lon": -78.234063, "tags": {"addr:city": "Breezewood", "addr:housenumber": "16563", "addr:postcode": "15533", "addr:state": "PA", "addr:street": "Lincoln Highway", "amenity": "fast_food", "brand": "Arby's", "brand:wikidata": "Q630866", "check_date": "2024-06-21", "cuisine": "sandwich", "name": "Arby's", "opening_hours": "10:00-22:00", "phone": "+1 814-735-7247", "takeaway": "yes", "website": "https://www.arbys.com/locations/us/pa/breezewood/16563-lincoln-highway/store-8671/"}}, {"type": "node", "id": 6504988064, "lat": 40.0002707, "lon": -78.2338914, "tags": {"addr:city": "Breezewood", "addr:housenumber": "16563", "addr:postcode": "15533", "addr:state": "PA", "addr:street": "Lincoln Highway", "amenity": "ice_cream", "brand": "Baskin-Robbins", "brand:wikidata": "Q584601", "cuisine": "ice_cream", "name": "Baskin-Robbins", "opening_hours": "Mo-Fr 05:00-20:00; Sa 05:00-18:00; Su 05:00-20:00", "phone": "+1 814-735-2011", "website": "https://locations.baskinrobbins.com/pa/breezewood/16563-lincoln-highway-357533-br"}}, {"type": "node", "id": 6504990387, "lat": 40.000371, "lon": -78.2338707, "tags": {"addr:city": "Breezewood", "addr:housenumber": "16563", "addr:postcode": "15533", "addr:state": "PA", "addr:street": "Lincoln Highway", "alt_name": "Dunkin' Donuts", "amenity": "fast_food", "brand": "Dunkin'", "brand:wikidata": "Q847743", "cuisine": "donut;coffee_shop", "drive_through": "no", "name": "Dunkin'", "opening_hours": "Mo-Fr 05:00-20:00; Sa 05:00-18:00; Su 05:00-20:00", "phone": "+1 814-735-2011", "ref": "357533", "takeaway": "yes", "website": "https://locations.dunkindonuts.com/en/pa/breezewood/16563-lincoln-highway/357533"}}, {"type": "node", "id": 6504992820, "lat": 40.0004026, "lon": -78.2342328, "tags": {"amenity": "fast_food", "name": "Gateway Homestyle Express"}}, {"type": "node", "id": 6874548872, "lat": 39.9990997, "lon": -78.2351538}, {"type": "node", "id": 6874548873, "lat": 39.9987099, "lon": -78.2350928}, {"type": "node", "id": 6874548874, "lat": 39.9987363, "lon": -78.2348048}, {"type": "node", "id": 6874548875, "lat": 39.9988194, "lon": -78.2348178}, {"type": "node", "id": 6874548876, "lat": 39.9988084, "lon": -78.2349375}, {"type": "node", "id": 6874548877, "lat": 39.9988584, "lon": -78.2349453}, {"type": "node", "id": 6874548878, "lat": 39.998854, "lon": -78.234993}, {"type": "node", "id": 6874561288, "lat": 39.9987048, "lon": -78.2355854, "tags": {"addr:city": "Breezewood", "addr:housenumber": "16520", "addr:postcode": "15533", "addr:state": "PA", "addr:street": "Lincoln Highway", "alt_name": "Dunkin' Donuts", "amenity": "fast_food", "brand": "Dunkin'", "brand:wikidata": "Q847743", "cuisine": "donut;coffee_shop", "drive_through": "yes", "name": "Dunkin'", "opening_hours": "Mo-Th 06:00-20:00; Fr 08:00-21:00; Sa 06:00-20:00; Su 08:00-21:00", "phone": "+1 814-735-7272", "ref": "348758", "takeaway": "yes", "website": "https://locations.dunkindonuts.com/en/pa/breezewood/16520-lincoln-hwy/348758"}}, {"type": "node", "id": 9083317502, "lat": 39.9985963, "lon": -78.2398203}, {"type": "node", "id": 9083317503, "lat": 39.9985749, "lon": -78.2398345}, {"type": "node", "id": 9083317504, "lat": 39.9985635, "lon": -78.2398053}, {"type": "node", "id": 9083317505, "lat": 39.998534, "lon": -78.2398249}, {"type": "node", "id": 9083317506, "lat": 39.9985401, "lon": -78.2398406}, {"type": "node", "id": 9872936076, "lat": 39.9972885, "lon": -78.2375391}, {"type": "node", "id": 9872936077, "lat": 39.9970038, "lon": -78.238005}, {"type": "node", "id": 9872936078, "lat": 39.9967751, "lon": -78.2377672}, {"type": "node", "id": 9872936079, "lat": 39.99684, "lon": -78.2376611}, {"type": "node", "id": 9872936080, "lat": 39.9968645, "lon": -78.2376868}, {"type": "node", "id": 9872936081, "lat": 39.9970844, "lon": -78.2373268}, {"type": "node", "id": 9872936082, "lat": 39.9972443, "lon": -78.2376113}, {"type": "node", "id": 9872936085, "lat": 39.9972027, "lon": -78.2376795}, {"type": "node", "id": 9872936086, "lat": 39.9972746, "lon": -78.2375246}, {"type": "node", "id": 9872936089, "lat": 39.9972133, "lon": -78.237461}, {"type": "node", "id": 9873006429, "lat": 40.0000125, "lon": -78.2378284, "tags": {"amenity": "restaurant", "cuisine": "chicken", "name": "Champs Chicken"}}, {"type": "way", "id": 151505186, "nodes": [1643178901, 834865035, 1643178907, 1643178898, 1643178901], "tags": {"abandoned": "yes", "amenity": "fast_food", "brand": "Hardee's", "brand:wikidata": "Q1585088", "cuisine": "burger", "demolished:building": "retail", "fixme:atp": "no ATP match, check if still exists", "name": "Hardee's", "note": "Burned down in 2022", "takeaway": "yes"}}, {"type": "way", "id": 153002356, "nodes": [1657589560, 1657589557, 1657589559, 1657590375, 1657589574, 1657589561, 1657589563, 1657589560], "tags": {"addr:city": "Breezewood", "addr:housenumber": "16476", "addr:postcode": "15533", "addr:state": "PA", "addr:street": "Lincoln Highway", "amenity": "restaurant", "brand": "Pizza Hut", "brand:wikidata": "Q191615", "building": "yes", "cuisine": "pizza", "name": "Pizza Hut", "operator": "Yum! Brands", "phone": "+1 814-735-4091", "website": "https://locations.pizzahut.com/pa/breezewood/16476-lincoln-hwy"}}, {"type": "way", "id": 153005958, "nodes": [1657607119, 1657607117, 1657607134, 1657607132, 1657607119], "tags": {"amenity": "fast_food", "brand": "Taco Bell", "brand:wikidata": "Q752941", "building": "retail", "cuisine": "tex-mex", "name": "Taco Bell", "operator": "Yum! Brands", "takeaway": "yes"}}, {"type": "way", "id": 153007094, "nodes": [1657623356, 1657623364, 1657623370, 1657623374, 1657623372, 9083317506, 9083317505, 9083317504, 9083317503, 9083317502, 1657623368, 1657623360, 1657623356], "tags": {"amenity": "fast_food", "brand": "McDonald's", "brand:wikidata": "Q38076", "building": "yes", "cuisine": "burger", "drive_through": "yes", "name": "McDonald's", "takeaway": "yes", "website": "https://www.mcdonalds.com/us/en-us/location/pa/breezewood/123-s-breezewood-rd/3911.html"}}, {"type": "way", "id": 153009766, "nodes": [1657632691, 1657633644, 1657632686, 1657632661, 1657632674, 1657632670, 1657632723, 1657632698, 1657632679, 1657632666, 1657632726, 1657632691], "tags": {"addr:housenumber": "153", "addr:postcode": "15533", "addr:street": "Breezewood Road", "amenity": "restaurant", "brand": "Bob Evans", "brand:wikidata": "Q4932386", "building": "commercial", "cuisine": "american", "name": "Bob Evans", "opening_hours": "07:00-21:00", "phone": "+1-814-735-4020", "ref": "248", "toilets": "yes", "toilets:access": "customers"}}, {"type": "way", "id": 153205057, "nodes": [1659167705, 1659167679, 1659167686, 1659167697, 1659167689, 834865045, 1659167695, 1659167677, 1659167681, 1659167693, 1659167706, 1659167683, 1659167705], "tags": {"brand": "Sheetz", "brand:wikidata": "Q7492551", "building": "retail", "name": "Sheetz", "phone": "+1 814 735 2100", "shop": "convenience"}}, {"type": "way", "id": 154330574, "nodes": [1668760393, 1668760384, 1668760403, 1668760401, 1668760390, 1668760396, 1668760399, 1668760387, 1668760393], "tags": {"addr:city": "Breezewood", "addr:housenumber": "16268", "addr:postcode": "15533", "addr:state": "PA", "addr:street": "Lincoln Highway", "amenity": "cafe", "branch": "Breezewood", "brand": "Starbucks", "brand:wikidata": "Q37158", "building": "retail", "cuisine": "coffee_shop", "name": "Starbucks", "official_name": "Starbucks Coffee", "phone": "+1 814-735-2554", "ref": "15763", "takeaway": "yes", "website": "https://www.starbucks.com/store-locator/store/15763/breezewood-16268-lincoln-highway-breezewood-pa-15533-us"}}, {"type": "way", "id": 734028931, "nodes": [1668987415, 6874548872, 6874548873, 6874548874, 6874548875, 6874548876, 6874548877, 6874548878, 1668987415], "tags": {"addr:housenumber": "16528", "building": "yes", "name": "Crawford's Museum & Gift Shop", "shop": "gift", "tourism": "museum"}}, {"type": "way", "id": 1076663112, "nodes": [9872936076, 9872936082, 9872936085, 9872936077, 9872936078, 9872936079, 9872936080, 9872936081, 9872936089, 9872936086, 9872936076], "tags": {"amenity": "restaurant", "brand": "Perkins", "brand:wikidata": "Q7169056", "building": "yes", "cuisine": "american", "disused:amenity": "restaurant", "disused:cuisine": "american", "name": "Perkins", "official_name": "Perkins Restaurant and Bakery"}}]}