{"version": 0.6, "generator": "Overpass API 0.7.62.1 084b4234", "osm3s": {"timestamp_osm_base": "2024-07-10T16:39:30Z", "copyright": "The data included in this document is from www.openstreetmap.org. The data is made available under ODbL."}, "elements": [{"type": "node", "id": 358957497, "lat": 38.8970029, "lon": -77.0061481, "tags": {"artwork_type": "statue", "ele": "16", "gnis:county_id": "001", "gnis:created": "05/01/1991", "gnis:feature_id": "529899", "gnis:state_id": "11", "material": "stone", "name": "Ceres Statue", "tourism": "artwork"}}, {"type": "node", "id": 358958369, "lat": 38.8981674, "lon": -77.0096984, "tags": {"artwork_type": "statue", "ele": "10", "gnis:county_id": "001", "gnis:created": "05/01/1991", "gnis:feature_id": "530652", "gnis:state_id": "11", "name": "Minute Man Statue", "tourism": "artwork"}}, {"type": "node", "id": 358958388, "lat": 38.8938902, "lon": -77.0113158, "tags": {"artist_name": "Edmond Amateis", "artwork_type": "sculpture", "ele": "8", "gnis:county_id": "001", "gnis:created": "05/01/1991", "gnis:feature_id": "530662", "gnis:state_id": "11", "name": "Acacia Griffins", "tourism": "artwork", "wikidata": "Q4670831", "wikipedia": "en:Acacia Griffins"}}, {"type": "node", "id": 358958443, "lat": 38.8969863, "lon": -77.006075, "tags": {"artwork_type": "statue", "ele": "16", "gnis:county_id": "001", "gnis:created": "05/01/1991", "gnis:feature_id": "530693", "gnis:state_id": "11", "material": "stone", "name": "Archimedes Statue", "tourism": "artwork"}}, {"type": "node", "id": 358958445, "lat": 38.8971151, "lon": -77.0066493, "tags": {"artwork_type": "statue", "ele": "16", "gnis:county_id": "001", "gnis:created": "05/01/1991", "gnis:feature_id": "530694", "gnis:state_id": "11", "material": "stone", "name": "Prometheus Statue", "tourism": "artwork"}}, {"type": "node", "id": 358958447, "lat": 38.8970987, "lon": -77.0065744, "tags": {"artwork_type": "statue", "ele": "16", "gnis:county_id": "001", "gnis:created": "05/01/1991", "gnis:feature_id": "530695", "gnis:state_id": "11", "material": "stone", "name": "Thales Statue", "tourism": "artwork"}}, {"type": "node", "id": 358958453, "lat": 38.8970661, "lon": -77.0064321, "tags": {"artwork_type": "statue", "ele": "16", "gnis:county_id": "001", "gnis:created": "05/01/1991", "gnis:feature_id": "530697", "gnis:state_id": "11", "material": "stone", "name": "Themis Statue", "tourism": "artwork"}}, {"type": "node", "id": 358958456, "lat": 38.8970354, "lon": -77.0062894, "tags": {"artwork_type": "statue", "ele": "16", "gnis:county_id": "001", "gnis:created": "05/01/1991", "gnis:feature_id": "530698", "gnis:state_id": "11", "material": "stone", "name": "Apollo Statue", "tourism": "artwork"}}, {"type": "node", "id": 358960345, "lat": 38.897334, "lon": -77.0066427, "tags": {"artwork_type": "statue", "ele": "16", "gnis:county_id": "001", "gnis:created": "09/25/2003", "gnis:feature_id": "1999064", "gnis:state_id": "11", "level": "0", "name": "Centurion Statue", "tourism": "artwork"}}, {"type": "node", "id": 367144248, "lat": 38.8979418, "lon": -77.0093938, "tags": {"addr:state": "DC", "ele": "11", "gnis:county_name": "District of Columbia", "gnis:feature_id": "529224", "gnis:import_uuid": "57871b70-0100-4405-bb30-88b2e001a944", "museum": "military", "name": "National Guard Memorial Museum", "opening_hours": "Mo-Fr 09:00-16:00; PH off", "tourism": "museum", "website": "https://www.ngef.org/national-guard-memorial-museum/", "wikidata": "Q15261124", "wikipedia": "en:National Guard Memorial Museum"}}, {"type": "node", "id": 367144568, "lat": 38.8986861, "lon": -77.007375}, {"type": "node", "id": 581179489, "lat": 38.9003545, "lon": -77.0095586, "tags": {"addr:city": "Washington", "addr:housenumber": "800", "addr:postcode": "20002", "addr:state": "DC", "addr:street": "North Capitol Street Northwest", "amenity": "fast_food", "brand": "Subway", "brand:wikidata": "Q244457", "cuisine": "sandwich", "name": "Subway", "opening_hours": "Mo-Fr 07:00-20:00; Sa 09:00-16:00; Su 11:00-16:00", "phone": "+1 202-289-2203", "takeaway": "yes", "website": "https://restaurants.subway.com/united-states/dc/washington/800-n-capitol-st-nw"}}, {"type": "node", "id": 694939052, "lat": 38.8972142, "lon": -77.0022853}, {"type": "node", "id": 694939325, "lat": 38.8971422, "lon": -77.0023718}, {"type": "node", "id": 694939333, "lat": 38.8971146, "lon": -77.0033602}, {"type": "node", "id": 694939335, "lat": 38.8971084, "lon": -77.0032329}, {"type": "node", "id": 694939624, "lat": 38.897214, "lon": -77.0022208}, {"type": "node", "id": 694940064, "lat": 38.8971419, "lon": -77.0033812}, {"type": "node", "id": 694940748, "lat": 38.8971687, "lon": -77.0033442}, {"type": "node", "id": 694941030, "lat": 38.8971545, "lon": -77.0033599}, {"type": "node", "id": 694941231, "lat": 38.8972023, "lon": -77.0023055}, {"type": "node", "id": 694941695, "lat": 38.8971422, "lon": -77.0023684}, {"type": "node", "id": 694942205, "lat": 38.8971919, "lon": -77.003319}, {"type": "node", "id": 694942430, "lat": 38.8970501, "lon": -77.0032372}, {"type": "node", "id": 694942690, "lat": 38.8971857, "lon": -77.0032433}, {"type": "node", "id": 694943031, "lat": 38.8972004, "lon": -77.0032322}, {"type": "node", "id": 694943142, "lat": 38.897049, "lon": -77.0033633}, {"type": "node", "id": 694943262, "lat": 38.8971001, "lon": -77.0033796}, {"type": "node", "id": 694943395, "lat": 38.8971418, "lon": -77.0023055}, {"type": "node", "id": 694943515, "lat": 38.8972011, "lon": -77.0021914}, {"type": "node", "id": 694943755, "lat": 38.8972026, "lon": -77.0023715}, {"type": "node", "id": 694943765, "lat": 38.897129, "lon": -77.00336}, {"type": "node", "id": 694943767, "lat": 38.897158, "lon": -77.0032329}, {"type": "node", "id": 694944047, "lat": 38.8972023, "lon": -77.0022853}, {"type": "node", "id": 694944280, "lat": 38.8970577, "lon": -77.0032329}, {"type": "node", "id": 694944295, "lat": 38.8971565, "lon": -77.0033613}, {"type": "node", "id": 694944537, "lat": 38.8972142, "lon": -77.0022821}, {"type": "node", "id": 694945667, "lat": 38.89719, "lon": -77.0033457}, {"type": "node", "id": 694945895, "lat": 38.8971849, "lon": -77.0033188}, {"type": "node", "id": 694946561, "lat": 38.8972009, "lon": -77.0032413}, {"type": "node", "id": 694946844, "lat": 38.8970577, "lon": -77.0032317}, {"type": "node", "id": 694946910, "lat": 38.8972011, "lon": -77.0022111}, {"type": "node", "id": 694947130, "lat": 38.8972012, "lon": -77.0022209}, {"type": "node", "id": 694947180, "lat": 38.8970879, "lon": -77.0033609}, {"type": "node", "id": 694947557, "lat": 38.8971412, "lon": -77.0021918}, {"type": "node", "id": 737405000, "lat": 38.9022273, "lon": -77.0078247, "tags": {"addr:housenumber": "15", "addr:street": "K Street Northeast", "amenity": "bar", "check_date": "2023-10-28", "dataset": "ABRA locations", "name": "Club Elevate", "source": "dcgis"}}, {"type": "node", "id": 737405220, "lat": 38.8975216, "lon": -77.0057287, "tags": {"addr:housenumber": "50", "addr:street": "Massachusetts Avenue Northeast", "amenity": "cafe", "dataset": "ABRA locations", "indoor_seating": "yes", "level": "0", "name": "East St Cafe", "outdoor_seating": "no", "source": "dcgis"}}, {"type": "node", "id": 737405231, "lat": 38.8976332, "lon": -77.006669, "tags": {"addr:city": "Washington", "addr:housenumber": "50", "addr:postcode": "20002", "addr:state": "DC", "addr:street": "Massachusetts Avenue Northeast", "amenity": "fast_food", "brand": "Wendy's", "brand:wikidata": "Q550258", "check_date": "2023-12-29", "cuisine": "burger", "dataset": "ABRA locations", "diet:halal": "no", "level": "-1", "name": "Wendy's", "opening_hours": "Mo-Fr 07:00-10:00; Sa-Su 09:00-19:00", "phone": "+1 202-838-0978", "source": "dcgis", "takeaway": "yes", "website": "https://locations.wendys.com/united-states/dc/washington/50-massachusetts-avenue-ne"}}, {"type": "node", "id": 739150368, "lat": 38.8953677, "lon": -77.0117034, "tags": {"addr:housenumber": "400", "addr:street": "New Jersey Avenue Northwest", "amenity": "restaurant", "dataset": "ABRA locations", "name": "Monumental Affairs", "source": "dcgis"}}, {"type": "node", "id": 739150378, "lat": 38.8952727, "lon": -77.0106516, "tags": {"addr:housenumber": "415", "addr:street": "New Jersey Avenue Northwest", "amenity": "pub", "dataset": "ABRA locations", "name": "Art & Soul", "source": "dcgis", "wheelchair": "yes"}}, {"type": "node", "id": 751881297, "lat": 38.8958867, "lon": -77.0094363, "tags": {"addr:city": "Washington", "addr:housenumber": "444", "addr:postcode": "20001", "addr:state": "DC", "addr:street": "North Capitol Street Northwest", "amenity": "bank", "brand": "Wells Fargo", "brand:wikidata": "Q744149", "dataset": "Banks", "name": "Wells Fargo", "opening_hours": "Mo-Fr 09:00-17:00"}}, {"type": "node", "id": 751881457, "lat": 38.8975344, "lon": -77.0098736, "tags": {"addr:city": "Washington", "addr:housenumber": "2", "addr:postcode": "20001", "addr:state": "DC", "addr:street": "Massachusetts Avenue Northwest", "amenity": "bank", "brand": "Truist", "brand:wikidata": "Q795486", "dataset": "Banks", "name": "Truist", "source": "dcgis"}}, {"type": "node", "id": 804638065, "lat": 38.894701, "lon": -77.005243}, {"type": "node", "id": 804638967, "lat": 38.8944706, "lon": -77.0052246}, {"type": "node", "id": 804639053, "lat": 38.8944701, "lon": -77.0052438}, {"type": "node", "id": 804639117, "lat": 38.8944134, "lon": -77.0050891}, {"type": "node", "id": 804639192, "lat": 38.8944135, "lon": -77.0051356}, {"type": "node", "id": 804639212, "lat": 38.8944607, "lon": -77.0051686}, {"type": "node", "id": 804639435, "lat": 38.8946998, "lon": -77.0050887}, {"type": "node", "id": 804640475, "lat": 38.8944269, "lon": -77.0052235}, {"type": "node", "id": 804640625, "lat": 38.8944277, "lon": -77.0051683}, {"type": "node", "id": 806920053, "lat": 38.8944314, "lon": -77.0022045}, {"type": "node", "id": 806922440, "lat": 38.8944151, "lon": -77.0021943}, {"type": "node", "id": 806924439, "lat": 38.8943299, "lon": -77.002285}, {"type": "node", "id": 806930867, "lat": 38.8943376, "lon": -77.0023035}, {"type": "node", "id": 806936265, "lat": 38.8943267, "lon": -77.0021947}, {"type": "node", "id": 806937750, "lat": 38.8944425, "lon": -77.0022332}, {"type": "node", "id": 810579485, "lat": 38.8971224, "lon": -77.0066706}, {"type": "node", "id": 810579514, "lat": 38.8973378, "lon": -77.007984}, {"type": "node", "id": 810579585, "lat": 38.8970541, "lon": -77.0064556}, {"type": "node", "id": 810579674, "lat": 38.8969104, "lon": -77.0055082}, {"type": "node", "id": 810579704, "lat": 38.8973436, "lon": -77.0079756}, {"type": "node", "id": 810579778, "lat": 38.8968333, "lon": -77.0053254}, {"type": "node", "id": 810579838, "lat": 38.8982508, "lon": -77.007164}, {"type": "node", "id": 810579927, "lat": 38.8968829, "lon": -77.0054798}, {"type": "node", "id": 810579960, "lat": 38.8982881, "lon": -77.0071398}, {"type": "node", "id": 810579964, "lat": 38.8970195, "lon": -77.0060013}, {"type": "node", "id": 810580032, "lat": 38.897008, "lon": -77.0060218}, {"type": "node", "id": 810580060, "lat": 38.8987879, "lon": -77.0074746}, {"type": "node", "id": 810580125, "lat": 38.8970794, "lon": -77.0065611}, {"type": "node", "id": 810580193, "lat": 38.8970198, "lon": -77.0061616}, {"type": "node", "id": 810580223, "lat": 38.8971611, "lon": -77.0066671}, {"type": "node", "id": 810580259, "lat": 38.8979028, "lon": -77.0049345}, {"type": "node", "id": 810580292, "lat": 38.898685, "lon": -77.0073754}, {"type": "node", "id": 810580306, "lat": 38.8972779, "lon": -77.007168}, {"type": "node", "id": 810580368, "lat": 38.8973943, "lon": -77.0050844}, {"type": "node", "id": 810580468, "lat": 38.8970952, "lon": -77.0066347}, {"type": "node", "id": 810580480, "lat": 38.8972845, "lon": -77.007333}, {"type": "node", "id": 810580482, "lat": 38.8987867, "lon": -77.0087893}, {"type": "node", "id": 810580516, "lat": 38.8983283, "lon": -77.0070907}, {"type": "node", "id": 810580526, "lat": 38.8983451, "lon": -77.0070303}, {"type": "node", "id": 810580546, "lat": 38.8971046, "lon": -77.0066769}, {"type": "node", "id": 810580551, "lat": 38.898755, "lon": -77.0073506}, {"type": "node", "id": 810580560, "lat": 38.8973899, "lon": -77.0050645}, {"type": "node", "id": 810580567, "lat": 38.8968635, "lon": -77.0054739}, {"type": "node", "id": 810580632, "lat": 38.897882, "lon": -77.0072016}, {"type": "node", "id": 810580682, "lat": 38.8971134, "lon": -77.0066282}, {"type": "node", "id": 810580705, "lat": 38.8968552, "lon": -77.0054347}, {"type": "node", "id": 810580817, "lat": 38.8970825, "lon": -77.0064443}, {"type": "node", "id": 810580855, "lat": 38.8972741, "lon": -77.0072198}, {"type": "node", "id": 810580898, "lat": 38.8968417, "lon": -77.0053648}, {"type": "node", "id": 810580911, "lat": 38.8972637, "lon": -77.0071729}, {"type": "node", "id": 810580921, "lat": 38.8987845, "lon": -77.0074746}, {"type": "node", "id": 810580925, "lat": 38.8968448, "lon": -77.0053214}, {"type": "node", "id": 810580928, "lat": 38.8968349, "lon": -77.0052747}, {"type": "node", "id": 810580938, "lat": 38.897901, "lon": -77.0072871}, {"type": "node", "id": 810580993, "lat": 38.8971064, "lon": -77.0065967}, {"type": "node", "id": 810581041, "lat": 38.8978795, "lon": -77.0049061}, {"type": "node", "id": 810581083, "lat": 38.8973671, "lon": -77.0050714}, {"type": "node", "id": 810581086, "lat": 38.8974257, "lon": -77.0073785}, {"type": "node", "id": 810581095, "lat": 38.8983537, "lon": -77.0069947}, {"type": "node", "id": 810581110, "lat": 38.8973062, "lon": -77.007365}, {"type": "node", "id": 810581218, "lat": 38.8987577, "lon": -77.0088262}, {"type": "node", "id": 810581220, "lat": 38.8973958, "lon": -77.008127}, {"type": "node", "id": 810581243, "lat": 38.8969592, "lon": -77.0052176}, {"type": "node", "id": 810581316, "lat": 38.8978871, "lon": -77.0049401}, {"type": "node", "id": 810581320, "lat": 38.8969932, "lon": -77.0060936}, {"type": "node", "id": 810581385, "lat": 38.8972816, "lon": -77.0072535}, {"type": "node", "id": 810581397, "lat": 38.8969839, "lon": -77.0060546}, {"type": "node", "id": 810581412, "lat": 38.897345, "lon": -77.0079792}, {"type": "node", "id": 810581503, "lat": 38.8972621, "lon": -77.007224}, {"type": "node", "id": 810581511, "lat": 38.8974062, "lon": -77.00812}, {"type": "node", "id": 810581539, "lat": 38.8970159, "lon": -77.0062802}, {"type": "node", "id": 810581581, "lat": 38.8969792, "lon": -77.0060326}, {"type": "node", "id": 810581610, "lat": 38.8969916, "lon": -77.0061728}, {"type": "node", "id": 810581628, "lat": 38.8971623, "lon": -77.0066717}, {"type": "node", "id": 810581692, "lat": 38.8971705, "lon": -77.0066687}, {"type": "node", "id": 810581750, "lat": 38.8972696, "lon": -77.0072578}, {"type": "node", "id": 810581776, "lat": 38.89786, "lon": -77.0072095}, {"type": "node", "id": 810581788, "lat": 38.8972981, "lon": -77.0073282}, {"type": "node", "id": 810581798, "lat": 38.8976344, "lon": -77.0086822}, {"type": "node", "id": 810581875, "lat": 38.8978629, "lon": -77.0072199}, {"type": "node", "id": 810581881, "lat": 38.8983535, "lon": -77.0070273}, {"type": "node", "id": 810581882, "lat": 38.8974341, "lon": -77.0078239}, {"type": "node", "id": 810581896, "lat": 38.8974244, "lon": -77.0073742}, {"type": "node", "id": 810581939, "lat": 38.8976804, "lon": -77.0088282}, {"type": "node", "id": 810581968, "lat": 38.897451, "lon": -77.0079041}, {"type": "node", "id": 810581973, "lat": 38.8969608, "lon": -77.0052285}, {"type": "node", "id": 810581998, "lat": 38.8971064, "lon": -77.0065516}, {"type": "node", "id": 810582052, "lat": 38.897046, "lon": -77.0064215}, {"type": "node", "id": 810582062, "lat": 38.8969832, "lon": -77.0061369}, {"type": "node", "id": 810582116, "lat": 38.8970888, "lon": -77.0066029}, {"type": "node", "id": 810582121, "lat": 38.8983515, "lon": -77.0069848}, {"type": "node", "id": 810582169, "lat": 38.8983384, "lon": -77.0070002}, {"type": "node", "id": 810582218, "lat": 38.8971244, "lon": -77.00668}, {"type": "node", "id": 810582227, "lat": 38.8968528, "lon": -77.0053607}, {"type": "node", "id": 810582233, "lat": 38.8970237, "lon": -77.0063138}, {"type": "node", "id": 810582294, "lat": 38.8974267, "lon": -77.0078443}, {"type": "node", "id": 810582337, "lat": 38.8969683, "lon": -77.0060599}, {"type": "node", "id": 810582363, "lat": 38.8987889, "lon": -77.0073802}, {"type": "node", "id": 810582422, "lat": 38.8970438, "lon": -77.0062696}, {"type": "node", "id": 810582435, "lat": 38.8973166, "lon": -77.0074118}, {"type": "node", "id": 810582620, "lat": 38.8972928, "lon": -77.0073697}, {"type": "node", "id": 810582685, "lat": 38.8970751, "lon": -77.0064109}, {"type": "node", "id": 810582858, "lat": 38.8968904, "lon": -77.0055152}, {"type": "node", "id": 810582893, "lat": 38.8970511, "lon": -77.006303}, {"type": "node", "id": 810582896, "lat": 38.8968682, "lon": -77.0054298}, {"type": "node", "id": 810582899, "lat": 38.8970016, "lon": -77.0061305}, {"type": "node", "id": 810583010, "lat": 38.897005, "lon": -77.0060063}, {"type": "node", "id": 810583019, "lat": 38.8969768, "lon": -77.0060994}, {"type": "node", "id": 810583023, "lat": 38.8968788, "lon": -77.0054812}, {"type": "node", "id": 810583085, "lat": 38.8983098, "lon": -77.0071174}, {"type": "node", "id": 810583126, "lat": 38.898343, "lon": -77.0070604}, {"type": "node", "id": 810583148, "lat": 38.8976253, "lon": -77.0086882}, {"type": "node", "id": 810583162, "lat": 38.8968763, "lon": -77.0054694}, {"type": "node", "id": 875991981, "lat": 38.8971839, "lon": -77.0095184, "tags": {"addr:housenumber": "4", "addr:postcode": "20001", "addr:street": "F Street Northwest", "air_conditioning": "yes", "amenity": "pub", "capacity": "224", "dataset": "ABRA locations", "dcgis:lot": "0174", "dcgis:square": "0628", "indoor_seating": "yes", "name": "The Dubliner", "opening_hours": "Mo-Th 07:00-01:30; Fr 07:00-02:30; Sa 08:00-02:30; Su 08:00-01:30", "outdoor_seating": "yes", "payment:credit_cards": "yes", "payment:debit_cards": "yes", "phone": "+1-202-737-3773", "source": "dcgis", "website": "https://www.dublinerdc.com/"}}, {"type": "node", "id": 2361767731, "lat": 38.8946397, "lon": -77.0028364, "tags": {"addr:housenumber": "201", "addr:street": "Massachusetts Avenue Northeast", "amenity": "pub", "check_date": "2024-02-18", "name": "Union Pub", "opening_hours": "Mo-Fr 11:00-24:30; Sa-Su 10:00-24:30", "phone": "+1 202-546-7200", "website": "https://www.unionpubdc.com/"}}, {"type": "node", "id": 2387758798, "lat": 38.8963164, "lon": -77.0093591, "tags": {"addr:city": "Washington", "addr:housenumber": "500", "addr:postcode": "20001", "addr:state": "DC", "addr:street": "North Capitol Street Northwest", "addr:unit": "110", "amenity": "cafe", "brand": "Corner Bakery", "brand:wikidata": "Q5171598", "cuisine": "coffee_shop", "indoor_seating": "yes", "name": "Corner Bakery", "opening_hours": "Mo-Fr 06:30-18:00; Sa,Su 07:00-16:00", "outdoor_seating": "no", "phone": "+1 202-627-3139", "takeaway": "yes"}}, {"type": "node", "id": 2456893811, "lat": 38.8959544, "lon": -77.0108582, "tags": {"amenity": "cafe", "cost:coffee": "$1.39", "cuisine": "sandwich", "name": "Kogod's New York Deli", "opening_hours": "Mo-Sa 08:00-21:00"}}, {"type": "node", "id": 3197373642, "lat": 38.9022844, "lon": -77.0022229, "tags": {"addr:city": "Washington", "addr:housenumber": "243", "addr:postcode": "20002", "addr:state": "DC", "addr:street": "K Street Northeast", "amenity": "restaurant", "contact:instagram": "indigonoma", "contact:twitter": "indigowdc", "cuisine": "indian", "name": "Indigo", "note": "Menu posted daily to Twitter", "opening_hours": "Mo-Fr 11:00-21:00; Sa 16:00-22:00", "outdoor_seating": "yes", "phone": "+1 202-544-4777", "smoking": "no", "website": "https://www.indigowdc.com/"}}, {"type": "node", "id": 4644771515, "lat": 38.89717, "lon": -77.0097882, "tags": {"addr:housenumber": "14", "addr:postcode": "20001", "addr:street": "F Street Northwest", "amenity": "pub", "capacity": "200", "cuisine": "american;irish", "name": "Kelly's Irish Times", "opening_hours": "Mo-Th 11:00-01:30; Fr-Sa 11:00-02:30; Su 11:00-01:30", "outdoor_seating": "yes", "phone": "+1-202-347-4292", "website": "https://www.kellysirishtimesdc.com/", "website:menu": "https://www.kellysirishtimesdc.com/menus.html"}}, {"type": "node", "id": 4719111524, "lat": 38.8968848, "lon": -77.0052564}, {"type": "node", "id": 4719111525, "lat": 38.8969211, "lon": -77.0052431}, {"type": "node", "id": 4719111526, "lat": 38.8972864, "lon": -77.0072778}, {"type": "node", "id": 4719111530, "lat": 38.8969032, "lon": -77.0052496}, {"type": "node", "id": 4719426654, "lat": 38.8983418, "lon": -77.0069429}, {"type": "node", "id": 4719426656, "lat": 38.8982996, "lon": -77.0067494}, {"type": "node", "id": 4719426657, "lat": 38.8983243, "lon": -77.0068625}, {"type": "node", "id": 4719426850, "lat": 38.8982014, "lon": -77.0069068}, {"type": "node", "id": 4719426852, "lat": 38.8982737, "lon": -77.0067588}, {"type": "node", "id": 4719426853, "lat": 38.8982692, "lon": -77.0067604}, {"type": "node", "id": 4719426868, "lat": 38.8981767, "lon": -77.0067937}, {"type": "node", "id": 4719426869, "lat": 38.8981807, "lon": -77.0067923}, {"type": "node", "id": 4719427257, "lat": 38.8980534, "lon": -77.0056219}, {"type": "node", "id": 4719427273, "lat": 38.8979863, "lon": -77.0053159}, {"type": "node", "id": 4719427277, "lat": 38.8979438, "lon": -77.0055939, "tags": {"amenity": "atm", "brand": "Bank of America", "brand:wikidata": "Q487907", "level": "0", "operator": "Bank of America", "operator:wikidata": "Q487907"}}, {"type": "node", "id": 4719464292, "lat": 38.8979809, "lon": -77.0052916}, {"type": "node", "id": 4719464293, "lat": 38.8979654, "lon": -77.0052203}, {"type": "node", "id": 4719464294, "lat": 38.8979777, "lon": -77.005277}, {"type": "node", "id": 4719464295, "lat": 38.8979687, "lon": -77.0052349}, {"type": "node", "id": 4719464296, "lat": 38.8980114, "lon": -77.0054295}, {"type": "node", "id": 4719464297, "lat": 38.8979979, "lon": -77.0053687}, {"type": "node", "id": 4719464298, "lat": 38.8980076, "lon": -77.0054126}, {"type": "node", "id": 4719464299, "lat": 38.8980017, "lon": -77.0053854}, {"type": "node", "id": 4849916356, "lat": 38.9003992, "lon": -77.0117999, "tags": {"addr:city": "Washington", "addr:housenumber": "91", "addr:postcode": "20001", "addr:state": "DC", "addr:street": "H Street Northwest", "amenity": "restaurant", "cuisine": "chicken;peruvian", "name": "District Rico", "opening_hours": "Mo-Sa 10:30-21:00, Su 11:00-20:00", "outdoor_seating": "no", "takeaway": "yes"}}, {"type": "node", "id": 4849919628, "lat": 38.9003939, "lon": -77.0115465, "tags": {"addr:city": "Washington", "addr:housenumber": "81", "addr:postcode": "20001", "addr:state": "DC", "addr:street": "H Street Northwest", "amenity": "restaurant", "cuisine": "japanese;hibachi", "indoor_seating": "yes", "name": "Quickway", "opening_hours": "Mo-Su 11:00-21:30", "outdoor_seating": "no"}}, {"type": "node", "id": 4886241622, "lat": 38.8977337, "lon": -77.005003, "tags": {"addr:city": "Washington", "addr:housenumber": "50", "addr:postcode": "20002", "addr:state": "DC", "addr:street": "Massachusetts Avenue Northeast", "amenity": "fast_food", "brand": "McDonald's", "brand:wikidata": "Q38076", "cuisine": "burger", "indoor_seating": "yes", "internet_access": "wlan", "name": "McDonald's", "opening_hours": "07:00-19:00", "outdoor_seating": "no", "phone": "+1 202-408-5014", "takeaway": "yes", "website": "https://www.mcdonalds.com/us/en-us/location/11491.html"}}, {"type": "node", "id": 5070573822, "lat": 38.9018898, "lon": -77.0126457, "tags": {"addr:city": "Washington", "addr:housenumber": "1439", "addr:postcode": "20001", "addr:state": "DC", "addr:street": "11th St Northwest", "amenity": "cafe", "cuisine": "chinese", "name": "Magic Gourd Restaurant - Chinese", "name:en": "Magic Gourd Restaurant - Chinese", "phone": "+1 202-836-8266", "website": "http://Asianamerican2.com"}}, {"type": "node", "id": 5124717021, "lat": 38.8975784, "lon": -77.0069558, "tags": {"addr:city": "Washington", "addr:housenumber": "50", "addr:postcode": "20002", "addr:state": "DC", "addr:street": "Massachusetts Avenue Northeast", "amenity": "fast_food", "brand": "Chipotle", "brand:wikidata": "Q465751", "cuisine": "mexican", "diet:halal": "no", "name": "Chipotle", "official_name": "Chipotle Mexican Grill", "opening_hours": "Mo-Su 10:45-22:00", "phone": "+1 202-682-1861", "takeaway": "yes", "website": "https://locations.chipotle.com/dc/washington/50-massachusetts-ave-ne"}}, {"type": "node", "id": 5124717022, "lat": 38.8982224, "lon": -77.0067278, "tags": {"amenity": "fast_food", "brand": "Sbarro", "brand:wikidata": "Q2589409", "check_date": "2023-12-29", "cuisine": "pizza", "indoor_seating": "yes", "level": "0", "name": "Sbarro", "outdoor_seating": "no", "takeaway": "yes"}}, {"type": "node", "id": 5124717023, "lat": 38.8975471, "lon": -77.0068082, "tags": {"amenity": "fast_food", "brand": "Potbelly", "brand:wikidata": "Q7234777", "cuisine": "sandwich", "diet:halal": "no", "name": "Potbelly", "official_name": "Potbelly Sandwich Works", "opening_hours": "Mo-Fr 07:00-21:00; Sa 09:00-21:00; Su 09:00-20:00", "takeaway": "yes"}}, {"type": "node", "id": 5124717025, "lat": 38.8974218, "lon": -77.0068378, "tags": {"amenity": "fast_food", "name": "Roti"}}, {"type": "node", "id": 5126915140, "lat": 38.8978539, "lon": -77.0069799, "tags": {"amenity": "cafe", "brand": "Le Pain Quotidien", "brand:wikidata": "Q2046903", "cuisine": "coffee_shop", "diet:halal": "no", "indoor_seating": "yes", "level": "0", "name": "Le Pain Quotidien", "outdoor_seating": "no", "takeaway": "yes"}}, {"type": "node", "id": 5187395621, "lat": 38.9022344, "lon": -77.0062012, "tags": {"addr:housenumber": "77", "addr:street": "K Street Northeast", "amenity": "fast_food", "name": "Sandwiches by Phillip", "opening_hours": "Mo-Fr 07:00-16:00", "website": "http://www.sandwichesbyphillip.com"}}, {"type": "node", "id": 5241981902, "lat": 38.8974553, "lon": -77.0069852, "tags": {"addr:city": "Washington", "addr:housenumber": "50", "addr:postcode": "20002", "addr:state": "DC", "addr:street": "Massachusetts Avenue Northeast", "amenity": "restaurant", "brand": "CAVA", "brand:wikidata": "Q85751038", "cuisine": "mediterranean", "name": "CAVA", "opening_hours": "Mo-Su 10:45-21:00", "website": "https://cava.com/"}}, {"type": "node", "id": 5790965454, "lat": 38.8975962, "lon": -77.0063495, "tags": {"amenity": "cafe", "brand": "Blue Bottle Coffee", "brand:en": "Blue Bottle Coffee", "brand:ja": "\u30d6\u30eb\u30fc\u30dc\u30c8\u30eb\u30b3\u30fc\u30d2\u30fc", "brand:wikidata": "Q4928917", "cuisine": "coffee_shop", "diet:halal": "no", "name": "Blue Bottle Coffee", "name:en": "Blue Bottle Coffee", "name:ja": "\u30d6\u30eb\u30fc\u30dc\u30c8\u30eb\u30b3\u30fc\u30d2\u30fc", "opening_hours": "Mo-Su 07:00-17:00", "takeaway": "yes", "website": "https://bluebottlecoffee.com"}}, {"type": "node", "id": 5939762550, "lat": 38.8979291, "lon": -77.0069209, "tags": {"amenity": "restaurant", "brand": "Legal Sea Foods", "brand:wikidata": "Q6517417", "cuisine": "seafood", "name": "Legal Sea Foods", "website": "https://www.legalseafoods.com"}}, {"type": "node", "id": 6172035482, "lat": 38.8968617, "lon": -77.0054008}, {"type": "node", "id": 6268993011, "lat": 38.8999696, "lon": -77.0070241, "tags": {"amenity": "fast_food", "check_date": "2023-11-04", "name": "Caseys Coffee", "opening_hours": "Mo-Fr 07:00-15:00"}}, {"type": "node", "id": 6432368407, "lat": 38.8962758, "lon": -77.009805, "tags": {"amenity": "restaurant", "cuisine": "belgian", "name": "Bistro bis"}}, {"type": "node", "id": 6446015828, "lat": 38.8977864, "lon": -77.0061537, "tags": {"addr:housenumber": "50", "addr:street": "Massachusetts Avenue Northeast", "amenity": "fast_food", "brand": "&pizza", "brand:wikidata": "Q21189222", "cuisine": "pizza", "name": "&pizza", "takeaway": "yes"}}, {"type": "node", "id": 6696088992, "lat": 38.9003954, "lon": -77.0116805, "tags": {"amenity": "fast_food", "brand": "Smoothie King", "brand:wikidata": "Q5491421", "cuisine": "juice", "name": "Smoothie King", "takeaway": "yes"}}, {"type": "node", "id": 6796475430, "lat": 38.9007236, "lon": -77.0074196, "tags": {"artwork_type": "sculpture", "name": "Trigadilly", "tourism": "artwork", "wikidata": "Q7841665"}}, {"type": "node", "id": 6804372712, "lat": 38.8978477, "lon": -77.0056951, "tags": {"addr:city": "Washington", "addr:housenumber": "50", "addr:postcode": "20002", "addr:state": "DC", "addr:street": "Massachusetts Avenue Northeast", "addr:unit": "M133", "alt_name": "Jamba Juice", "amenity": "fast_food", "branch": "Union Station", "brand": "Jamba", "brand:wikidata": "Q3088784", "check_date": "2024-05-10", "cuisine": "juice", "name": "Jamba", "opening_hours": "Mo-Fr 06:30-20:00; Sa-Su 08:30-18:00", "phone": "+1 571-424-5096", "takeaway": "yes", "website": "https://locations.jamba.com/dc/washington/50-massachusetts-ave-ne"}}, {"type": "node", "id": 7911583491, "lat": 38.8944609, "lon": -77.005136}, {"type": "node", "id": 8153393017, "lat": 38.8975779, "lon": -77.0115048, "tags": {"amenity": "cafe", "name": "The Ministry"}}, {"type": "node", "id": 8435439051, "lat": 38.8985269, "lon": -77.0120858, "tags": {"artwork_type": "statue", "material": "metal", "name": "Goddess of Democracy replica", "tourism": "artwork"}}, {"type": "node", "id": 8464826438, "lat": 38.8967259, "lon": -77.0055084, "tags": {"artwork_type": "sculpture", "tourism": "artwork"}}, {"type": "node", "id": 8464826439, "lat": 38.8967023, "lon": -77.0054013, "tags": {"artwork_type": "sculpture", "tourism": "artwork"}}, {"type": "node", "id": 8464826538, "lat": 38.8970317, "lon": -77.0062149}, {"type": "node", "id": 8464826544, "lat": 38.897148, "lon": -77.0074124, "tags": {"artwork_type": "sculpture", "tourism": "artwork"}}, {"type": "node", "id": 8464826545, "lat": 38.8971233, "lon": -77.0073021, "tags": {"artwork_type": "sculpture", "tourism": "artwork"}}, {"type": "node", "id": 8465344968, "lat": 38.8945221, "lon": -77.0104933, "tags": {"artist_name": "Nina Akamu", "artwork_type": "sculpture", "material": "bronze", "name": "Golden Cranes", "tourism": "artwork"}}, {"type": "node", "id": 9206605734, "lat": 38.8976582, "lon": -77.0087719, "tags": {"entrance": "yes"}}, {"type": "node", "id": 9206605738, "lat": 38.8973704, "lon": -77.0080643, "tags": {"entrance": "yes"}}, {"type": "node", "id": 9206605750, "lat": 38.8978194, "lon": -77.0088279, "tags": {"entrance": "yes"}}, {"type": "node", "id": 9795954899, "lat": 38.8985137, "lon": -77.0088266, "tags": {"access": "private", "amenity": "parking_entrance"}}, {"type": "node", "id": 10088216664, "lat": 38.8972984, "lon": -77.005096, "tags": {"entrance": "yes"}}, {"type": "node", "id": 10212243860, "lat": 38.8972669, "lon": -77.0072457}, {"type": "node", "id": 10224486868, "lat": 38.8974971, "lon": -77.003323, "tags": {"addr:city": "Washington", "addr:housenumber": "601", "addr:postcode": "20002", "addr:street": "2nd Street Northeast", "amenity": "restaurant", "cuisine": "indian", "indoor_seating": "yes", "name": "Butter Chicken Company 3", "opening_hours": "Su-Sa 12:00-15:00,17:00-22:00", "outdoor_seating": "yes", "phone": "+1-202-849-8988", "takeaway": "yes", "website": "https://www.usabutterchicken.com/capitol-hill/"}}, {"type": "node", "id": 10233018517, "lat": 38.89461, "lon": -77.0033208, "tags": {"amenity": "cafe", "check_date": "2024-02-18", "contact:instagram": "https://www.instagram.com/sweetlemon.cafe/", "delivery": "yes", "name": "Sweet Lemon Cafe", "opening_hours": "Mo-Fr 07:00-15:00; Sa 08:30-15:00; Su off", "outdoor_seating": "yes", "payment:american_express": "yes", "payment:cash": "yes", "payment:discover_card": "yes", "payment:jcb": "yes", "payment:mastercard": "yes", "payment:unionpay": "yes", "payment:visa": "yes", "phone": "+1 202-937-7394", "takeaway": "yes"}}, {"type": "node", "id": 10543436587, "lat": 38.8980033, "lon": -77.0062476, "tags": {"amenity": "atm", "brand": "Bank of America", "brand:wikidata": "Q487907", "covered": "yes", "indoor": "yes", "name": "Bank of America", "operator": "Bank of America", "operator:wikidata": "Q487907"}}, {"type": "node", "id": 10964022048, "lat": 38.8978618, "lon": -77.0070303, "tags": {"addr:city": "Washington", "addr:housenumber": "50", "addr:postcode": "20002", "addr:state": "DC", "addr:street": "Massachusetts Avenue", "alt_name": "Dunkin' Donuts", "amenity": "fast_food", "brand": "Dunkin'", "brand:wikidata": "Q847743", "check_date": "2023-12-29", "cuisine": "donut;coffee_shop", "drive_through": "no", "indoor_seating": "yes", "level": "-1", "name": "Dunkin'", "opening_hours": "Mo-Fr 07:00-16:00; Sa-Su 08:00-14:00", "outdoor_seating": "no", "phone": "+1 202-838-0604", "ref": "352154", "takeaway": "yes", "website": "https://locations.dunkindonuts.com/en/dc/washington/50-massachusetts-ave/352154"}}, {"type": "node", "id": 11262744658, "lat": 38.8979217, "lon": -77.0050209}, {"type": "node", "id": 11290297119, "lat": 38.8969479, "lon": -77.0052333}, {"type": "node", "id": 11371429218, "lat": 38.8973038, "lon": -77.0050941}, {"type": "node", "id": 11371429219, "lat": 38.8969598, "lon": -77.0052215}, {"type": "node", "id": 11373384231, "lat": 38.8978801, "lon": -77.007664}, {"type": "node", "id": 11373384232, "lat": 38.8979199, "lon": -77.0076497}, {"type": "node", "id": 11373384241, "lat": 38.8982292, "lon": -77.0075388}, {"type": "node", "id": 11373384250, "lat": 38.8984291, "lon": -77.0074672}, {"type": "node", "id": 11379855584, "lat": 38.8970844, "lon": -77.0065593}, {"type": "node", "id": 11466122570, "lat": 38.8981276, "lon": -77.0068221, "tags": {"amenity": "fast_food", "brand": "Auntie Anne's", "brand:wikidata": "Q4822010", "check_date": "2023-12-29", "cuisine": "pretzel", "name": "Auntie Anne's", "takeaway": "yes"}}, {"type": "node", "id": 11466137823, "lat": 38.8981408, "lon": -77.0070226, "tags": {"amenity": "atm", "brand": "Bank of America", "brand:wikidata": "Q487907", "check_date": "2023-12-29", "drive_through": "no", "indoor": "yes", "lit": "yes", "operator": "Bank of America", "operator:wikidata": "Q487907"}}, {"type": "node", "id": 11466157830, "lat": 38.8978644, "lon": -77.0065001, "tags": {"amenity": "fast_food", "brand": "Jersey Mike's Subs", "brand:wikidata": "Q6184897", "check_date": "2023-12-29", "cuisine": "sandwich", "level": "-1", "name": "Jersey Mike's Subs", "short_name": "Jersey Mike's", "takeaway": "yes", "website": "https://www.jerseymikes.com/36003/washington-dc"}}, {"type": "node", "id": 11466157831, "lat": 38.8977261, "lon": -77.0060267, "tags": {"addr:city": "Washington", "addr:housenumber": "40", "addr:postcode": "20002", "addr:state": "DC", "addr:street": "Massachusetts Avenue Northeast", "amenity": "fast_food", "brand": "Chipotle", "brand:wikidata": "Q465751", "check_date": "2023-12-29", "cuisine": "mexican", "level": "-1", "name": "Chipotle", "official_name": "Chipotle Mexican Grill", "phone": "+1 202-706-5935", "takeaway": "yes", "website": "https://locations.chipotle.com/dc/washington/40-massachusetts-ave-ne"}}, {"type": "node", "id": 11466157832, "lat": 38.8976156, "lon": -77.0058456, "tags": {"addr:city": "Washington", "addr:housenumber": "50", "addr:postcode": "20002", "addr:state": "DC", "addr:street": "Massachusetts Avenue Northeast", "amenity": "fast_food", "branch": "Union Station", "brand": "Chick-fil-A", "brand:wikidata": "Q491516", "check_date": "2023-12-29", "cuisine": "chicken", "delivery": "no", "drive_through": "no", "indoor_seating": "no", "level": "-1", "name": "Chick-fil-A", "opening_hours": "Mo-Sa 07:00-21:00; Su off", "phone": "+1 202-838-0205", "ref": "80677", "takeaway": "yes", "website": "https://www.chick-fil-a.com/locations/dc/union-station"}}, {"type": "node", "id": 11466206148, "lat": 38.8975706, "lon": -77.0065491, "tags": {"amenity": "fast_food", "brand": "The Halal Guys", "brand:wikidata": "Q10846129", "check_date": "2023-12-29", "cuisine": "chicken;falafel;gyros", "diet:halal": "yes", "level": "-1", "name": "The Halal Guys", "takeaway": "yes"}}, {"type": "node", "id": 11466206149, "lat": 38.8975316, "lon": -77.0064487, "tags": {"amenity": "atm", "brand": "Bank of America", "brand:wikidata": "Q487907", "check_date": "2023-12-29", "level": "-1", "operator": "Bank of America", "operator:wikidata": "Q487907", "website": "https://locators.bankofamerica.com/dc/washington/atm-washington-110057.html"}}, {"type": "node", "id": 11466218596, "lat": 38.8978878, "lon": -77.0067274, "tags": {"addr:city": "Washington", "addr:housenumber": "50", "addr:postcode": "20002", "addr:state": "DC", "addr:street": "Massachusetts Avenue Northeast", "amenity": "fast_food", "brand": "Taco Bell", "brand:wikidata": "Q752941", "check_date": "2023-12-29", "cuisine": "tex-mex", "level": "-1", "name": "Taco Bell", "phone": "+1 202-289-7002", "takeaway": "yes", "website": "https://locations.tacobell.com/dc/washington/50-massachusetts-ave-ne.html"}}, {"type": "node", "id": 11466218597, "lat": 38.8978695, "lon": -77.0066232, "tags": {"amenity": "fast_food", "brand": "Charleys Philly Steaks", "brand:wikidata": "Q1066777", "check_date": "2023-12-29", "cuisine": "sandwich", "level": "-1", "name": "Charleys Philly Steaks", "takeaway": "yes"}}, {"type": "node", "id": 11489684712, "lat": 38.8966668, "lon": -77.011968, "tags": {"addr:housenumber": "500", "addr:street": "New Jersey Avenue Northwest", "amenity": "fast_food", "check_date": "2024-01-27", "contact:facebook": "https://www.facebook.com/zburgerdc", "contact:instagram": "https://www.instagram.com/zburgerdc", "contact:twitter": "https://twitter.com/zburger", "cuisine": "burger", "diet:kosher": "yes", "diet:vegetarian": "yes", "email": "peter@zburger.com", "name": "Z-Burger", "opening_hours": "10:00-22:00", "phone": "+1 202-333-4122", "website": "https://www.zburger.com/", "website:menu": "https://www.zburger.com/menu"}}, {"type": "node", "id": 11639104051, "lat": 38.8946493, "lon": -77.0030253, "tags": {"addr:housenumber": "201", "addr:street": "Massachusetts Avenue Northeast", "amenity": "restaurant", "check_date": "2024-07-04", "contact:facebook": "https://www.facebook.com/Pho79dc/", "contact:instagram": "https://www.instagram.com/pho79.dc", "cuisine": "vietnamese", "email": "ttjjj2013@gmail.com", "name": "Pho79", "opening_hours": "Mo-Sa 10:00-20:30; Su off", "payment:american_express": "yes", "payment:cash": "yes", "payment:discover_card": "yes", "payment:mastercard": "yes", "payment:visa": "yes", "phone": "+1 202-544-3401", "start_date": "2007", "website": "https://www.pho79dc.com/"}}, {"type": "node", "id": 11639134940, "lat": 38.8950754, "lon": -77.0022125, "tags": {"addr:housenumber": "240", "addr:street": "Massachusetts Avenue Northeast", "amenity": "fast_food", "check_date": "2024-02-18", "cuisine": "bagel", "name": "Buffalo & Bergen", "phone": "+1 202-525-3350", "website": "https://www.buffalobergendc.com/"}}, {"type": "node", "id": 11639170017, "lat": 38.8990725, "lon": -77.00332, "tags": {"amenity": "cafe", "check_date": "2024-02-18", "name": "Caf\u00e9 Fili", "opening_hours": "Mo-Th,Su 11:00-21:00; Fr-Sa 11:00-22:00", "outdoor_seating": "yes", "website": "https://cafefili.com"}}, {"type": "node", "id": 11784671821, "lat": 38.8979382, "lon": -77.0110087, "tags": {"addr:housenumber": "20", "addr:street": "Massachusetts Avenue Northwest", "amenity": "restaurant", "check_date": "2024-04-03", "cuisine": "french", "name": "Bistro du Jour", "website": "https://www.bistro-dujour.com/"}}, {"type": "node", "id": 11898499178, "lat": 38.8977392, "lon": -77.0052092, "tags": {"amenity": "fast_food", "brand": "Raising Cane's", "brand:wikidata": "Q7285144", "check_date": "2024-05-10", "cuisine": "chicken", "name": "Raising Cane's", "official_name": "Raising Cane's Chicken Fingers", "takeaway": "yes"}}, {"type": "node", "id": 11901865685, "lat": 38.8955126, "lon": -77.012421, "tags": {"amenity": "fast_food", "cuisine": "sandwich", "name": "Caf\u00e9 Alice", "opening_hours": "Mo-Th 06:45-15:00", "outdoor_seating": "yes", "takeaway": "yes"}}, {"type": "node", "id": 11975746228, "lat": 38.8981366, "lon": -77.0116135, "tags": {"addr:city": "Washington", "addr:housenumber": "601", "addr:postcode": "20001", "addr:state": "DC", "addr:street": "New Jersey Avenue Northwest", "amenity": "restaurant", "name": "SUNdeVICH", "opening_hours": "Mo-Sa 11:00-16:00; Su off", "opening_hours:kitchen": "Mo-Sa 11:00-15:00; Su off", "phone": "+12027508128", "website": "http://www.sundevich.com/"}}, {"type": "way", "id": 55323271, "nodes": [694946844, 694944280, 694939335, 694943767, 694943031, 694946561, 694942690, 694945895, 694942205, 694945667, 694940748, 694941030, 694944295, 694940064, 694943765, 694939333, 694943262, 694947180, 694943142, 694942430, 694946844], "tags": {"addr:city": "Washington", "addr:housenumber": "201", "addr:postcode": "20002", "addr:state": "DC", "addr:street": "F Street Northeast", "amenity": "cafe", "building": "yes", "dcgis:captureyear": "20080530", "dcgis:dataset": "buildings", "dcgis:featurecode": "2000", "indoor_seating": "yes", "mappingdc:gid": "95519", "name": "Ebenezer's Coffee House", "opening_hours": "Mo-Fr 07:00-19:00; Sa,Su 08:00-19:00", "outdoor_seating": "yes", "source": "dcgis"}}, {"type": "way", "id": 55323656, "nodes": [694941695, 694943395, 694947557, 694943515, 694946910, 694947130, 694939624, 694944537, 694939052, 694944047, 694941231, 694943755, 694939325, 694941695], "tags": {"building": "retail", "building:levels": "3", "dcgis:captureyear": "19990331", "dcgis:dataset": "buildings", "dcgis:featurecode": "2000", "source": "dcgis"}}, {"type": "way", "id": 66418893, "nodes": [804639117, 804639192, 7911583491, 804639212, 804640625, 804640475, 804638967, 804639053, 804638065, 804639435, 804639117], "tags": {"addr:city": "Washington", "addr:housenumber": "107", "addr:postcode": "20002", "addr:state": "DC", "addr:street": "D Street Northeast", "amenity": "restaurant", "building": "retail", "dataset": "buildings", "dcgis:captureyear": "19990331", "dcgis:lot": "0094", "dcgis:square": "0724", "name": "The Monocle", "phone": "+1 202-546-4488", "source": "dcgis", "website": "https://themonocle.com/", "wikidata": "Q85807932"}}, {"type": "way", "id": 66732379, "nodes": [806936265, 806924439, 806930867, 806937750, 806920053, 806922440, 806936265], "tags": {"building": "retail", "dataset": "buildings", "dcgis:captureyear": "19990331", "source": "dcgis"}}, {"type": "way", "id": 67100178, "nodes": [810582121, 4719426654, 4719427257, 4719464296, 4719464298, 4719464299, 4719464297, 4719427273, 4719464292, 4719464294, 4719464295, 4719464293, 11262744658, 810580259, 810581316, 810581041, 810580368, 810580560, 810581083, 11371429218, 10088216664, 810581243, 11371429219, 810581973, 11290297119, 4719111525, 4719111530, 4719111524, 810580928, 810580925, 810579778, 810580898, 810582227, 6172035482, 810582896, 810580705, 810580567, 810583162, 810583023, 810579927, 810582858, 810579674, 810579964, 810583010, 810580032, 810581581, 810581397, 810582337, 810583019, 810581320, 810582899, 810582062, 810581610, 810580193, 8464826538, 810582422, 810581539, 810582233, 810582893, 810582685, 810582052, 810579585, 810580817, 810581998, 11379855584, 810580125, 810582116, 810580993, 810580682, 810580468, 810580546, 810579485, 810582218, 810580223, 810581628, 810581692, 810580306, 810580911, 810580855, 810581503, 10212243860, 810581750, 810581385, 4719111526, 810581788, 810580480, 810582620, 810581110, 810582435, 810581896, 810581086, 810581875, 810581776, 810580632, 810580938, 810579838, 810579960, 810583085, 810580516, 810583126, 810581881, 810580526, 810582169, 810581095, 810582121], "tags": {"addr:city": "Washington", "addr:state": "DC", "building": "train_station", "dataset": "buildings", "dcgis:captureyear": "19990331", "height": "7.25", "layer": "1", "name": "Washington Union Station", "name:de": "Washington DC Hauptbahnhof", "name:en": "Washington Union Station", "official_name": "Washington, DC Union Station", "source": "dcgis", "tourism": "attraction", "wheelchair": "yes", "wikidata": "Q3570", "wikipedia": "en:Union Station (Washington, D.C.)"}}, {"type": "way", "id": 67100670, "nodes": [367144568, 810580292, 11373384250, 11373384241, 11373384232, 11373384231, 810581882, 810582294, 810581968, 810579704, 810581412, 810579514, 9206605738, 810581220, 810581511, 810581798, 810583148, 9206605734, 810581939, 9206605750, 9795954899, 810581218, 810580482, 810580921, 810580060, 810582363, 810580551, 367144568], "tags": {"addr:housenumber": "2", "addr:postcode": "20002", "addr:state": "DC", "addr:street": "Massachusetts Avenue Northeast", "building": "yes", "building:levels": "6", "check_date": "2023-12-29", "dataset": "buildings", "dcgis:captureyear": "19990331", "dcgis:lot": "0014", "dcgis:square": "0678", "fee": "no", "gnis:feature_id": "1984547", "height": "21.76", "museum": "history", "name": "National Postal Museum", "opening_hours": "10:00-17:30; Dec 25 off", "operator": "Smithsonian Institute", "operator:type": "government", "phone": "+1 202-633-5555", "source": "dcgis;USGS Geonames", "tourism": "museum", "website": "https://www.postalmuseum.si.edu/", "wikidata": "Q144900"}}, {"type": "way", "id": 478727308, "nodes": [4719426656, 4719426657, 4719426850, 4719426868, 4719426869, 4719426853, 4719426852, 4719426656], "tags": {"amenity": "fast_food", "brand": "Pret A Manger", "brand:wikidata": "Q2109109", "check_date": "2023-12-29", "cuisine": "sandwich", "indoor": "room", "indoor_seating": "yes", "level": "0", "name": "Pret A Manger", "outdoor_seating": "no", "room": "restaurant", "short_name": "Pret", "takeaway": "yes"}}]}