{"version": 0.6, "generator": "Overpass API 0.7.62.1 084b4234", "osm3s": {"timestamp_osm_base": "2024-07-25T19:01:00Z", "copyright": "The data included in this document is from www.openstreetmap.org. The data is made available under ODbL."}, "elements": [{"type": "node", "id": 10902675615, "lat": 41.0282058, "lon": -80.6313685, "tags": {"bench": "no", "bin": "no", "bus": "yes", "highway": "bus_stop", "name": "Doral Drive at Boardman Walmart", "network": "WRTA", "network:wikidata": "Q7988244", "network:wikipedia": "en:Western Reserve Transit Authority", "operator": "Western Reserve Transit Authority", "passenger_information_display": "no", "public_transport": "platform", "ref": "259", "shelter": "no"}}, {"type": "node", "id": 10902675618, "lat": 41.0280935, "lon": -80.6316876, "tags": {"bench": "no", "bin": "no", "bus": "yes", "highway": "bus_stop", "name": "Doral Drive at Boardman Walmart", "network": "WRTA", "network:wikidata": "Q7988244", "network:wikipedia": "en:Western Reserve Transit Authority", "operator": "Western Reserve Transit Authority", "passenger_information_display": "no", "public_transport": "platform", "ref": "260", "shelter": "no"}}, {"type": "node", "id": 11802864396, "lat": 41.0232526, "lon": -80.6301225, "tags": {"bus": "yes", "highway": "bus_stop", "name": "Tiffany & Urgent Care", "network": "WRTA", "network:wikidata": "Q7988244", "operator": "Western Reserve Transit Authority", "public_transport": "platform", "ref": "3259"}}, {"type": "node", "id": 11802864397, "lat": 41.0232477, "lon": -80.6345495, "tags": {"bus": "yes", "highway": "bus_stop", "name": "South & McKay", "network": "WRTA", "network:wikidata": "Q7988244", "operator": "Western Reserve Transit Authority", "public_transport": "platform", "ref": "276"}}, {"type": "node", "id": 11802864399, "lat": 41.0259874, "lon": -80.6299331, "tags": {"bus": "yes", "highway": "bus_stop", "name": "Marc's", "network": "WRTA", "network:wikidata": "Q7988244", "operator": "Western Reserve Transit Authority", "public_transport": "platform", "ref": "1141"}}, {"type": "node", "id": 11802864401, "lat": 41.0241284, "lon": -80.6348028, "tags": {"bus": "yes", "highway": "bus_stop", "name": "Boardman-Poland & South", "network": "WRTA", "network:wikidata": "Q7988244", "operator": "Western Reserve Transit Authority", "public_transport": "platform", "ref": "282"}}, {"type": "node", "id": 11802864402, "lat": 41.0258524, "lon": -80.6301771, "tags": {"bus": "yes", "highway": "bus_stop", "name": "Marc's", "network": "WRTA", "network:wikidata": "Q7988244", "operator": "Western Reserve Transit Authority", "public_transport": "platform", "ref": "4062"}}, {"type": "node", "id": 11802864403, "lat": 41.0299648, "lon": -80.6344193, "tags": {"bus": "yes", "highway": "bus_stop", "name": "South & Cedar", "network": "WRTA", "network:wikidata": "Q7988244", "operator": "Western Reserve Transit Authority", "public_transport": "platform", "ref": "4070"}}, {"type": "node", "id": 11802864404, "lat": 41.0303763, "lon": -80.6347138, "tags": {"bus": "yes", "highway": "bus_stop", "name": "South & Cedar", "network": "WRTA", "network:wikidata": "Q7988244", "operator": "Western Reserve Transit Authority", "public_transport": "platform", "ref": "3021"}}]}