{"version": 0.6, "generator": "Overpass API 0.7.62.1 084b4234", "osm3s": {"timestamp_osm_base": "2024-07-25T18:42:45Z", "copyright": "The data included in this document is from www.openstreetmap.org. The data is made available under ODbL."}, "elements": [{"type": "node", "id": 2356039217, "lat": 37.6675338, "lon": -106.6440642}, {"type": "node", "id": 2356039218, "lat": 37.6674599, "lon": -106.6438194}, {"type": "node", "id": 2356039219, "lat": 37.667618, "lon": -106.6437432}, {"type": "node", "id": 2356039220, "lat": 37.6676747, "lon": -106.6439308}, {"type": "node", "id": 2356039221, "lat": 37.6676516, "lon": -106.6439419}, {"type": "node", "id": 2356039222, "lat": 37.6676688, "lon": -106.6439991}, {"type": "node", "id": 2356055454, "lat": 37.6684764, "lon": -106.6432869}, {"type": "node", "id": 2356055457, "lat": 37.6683494, "lon": -106.642946}, {"type": "node", "id": 2356055462, "lat": 37.6681074, "lon": -106.6430537}, {"type": "node", "id": 2356055465, "lat": 37.6682454, "lon": -106.6434243}, {"type": "node", "id": 2356055780, "lat": 37.6694622, "lon": -106.641681}, {"type": "node", "id": 2356055782, "lat": 37.6693859, "lon": -106.6414854}, {"type": "node", "id": 2356055784, "lat": 37.669304, "lon": -106.6415364}, {"type": "node", "id": 2356055786, "lat": 37.6693407, "lon": -106.6416305}, {"type": "node", "id": 2356055788, "lat": 37.6692933, "lon": -106.6416599}, {"type": "node", "id": 2356055791, "lat": 37.6693329, "lon": -106.6417614}, {"type": "node", "id": 2356282416, "lat": 37.6712994, "lon": -106.6439908}, {"type": "node", "id": 2356282417, "lat": 37.6711744, "lon": -106.6440762}, {"type": "node", "id": 2356282418, "lat": 37.6710445, "lon": -106.6437726}, {"type": "node", "id": 2356282419, "lat": 37.6711979, "lon": -106.6436678}, {"type": "node", "id": 2356282420, "lat": 37.6712458, "lon": -106.64378}, {"type": "node", "id": 2356282421, "lat": 37.6712175, "lon": -106.6437994}, {"type": "node", "id": 7773099408, "lat": 37.6702582, "lon": -106.6374735, "tags": {"amenity": "fast_food", "brand": "Blimpie", "brand:wikidata": "Q4926479", "cuisine": "sandwich", "name": "Blimpie", "takeaway": "yes"}}, {"type": "node", "id": 8781039239, "lat": 37.6682019, "lon": -106.6434318}, {"type": "node", "id": 8781039240, "lat": 37.6681579, "lon": -106.6433137}, {"type": "node", "id": 8781039241, "lat": 37.6681958, "lon": -106.6432912}, {"type": "node", "id": 8781039242, "lat": 37.6682398, "lon": -106.6434093}, {"type": "node", "id": 8781039243, "lat": 37.6682549, "lon": -106.6430022}, {"type": "node", "id": 8781039244, "lat": 37.6682438, "lon": -106.6429725}, {"type": "node", "id": 9391156646, "lat": 37.6691618, "lon": -106.6413804, "tags": {"board_type": "welcome_sign", "information": "board", "tourism": "information"}}, {"type": "way", "id": 226869676, "nodes": [2356039217, 2356039218, 2356039219, 2356039220, 2356039221, 2356039222, 2356039217], "tags": {"amenity": "restaurant", "building": "yes", "cuisine": "pizza", "name": "Mountain Pizza & Taproom"}}, {"type": "way", "id": 226871527, "nodes": [2356055454, 2356055457, 8781039243, 8781039244, 2356055462, 8781039241, 8781039240, 8781039239, 8781039242, 2356055465, 2356055454], "tags": {"amenity": "restaurant", "building": "yes"}}, {"type": "way", "id": 226871565, "nodes": [2356055780, 2356055782, 2356055784, 2356055786, 2356055788, 2356055791, 2356055780], "tags": {"addr:city": "South Fork", "addr:housenumber": "28", "addr:postcode": "81154", "addr:state": "CO", "addr:street": "South Fork Visitor Center", "building": "yes", "building:levels": "1", "information": "office", "name": "South Fork Vistor Center", "tourism": "information"}}, {"type": "way", "id": 226897808, "nodes": [2356282416, 2356282417, 2356282418, 2356282419, 2356282420, 2356282421, 2356282416], "tags": {"addr:city": "South Fork", "addr:housenumber": "254", "addr:postcode": "81154", "addr:state": "CO", "addr:street": "Silver Thread Scenic Byway", "amenity": "community_centre", "building": "yes", "name": "Town of South Fork Community Building"}}]}