{"version": 0.6, "generator": "Overpass API 0.7.62.1 084b4234", "osm3s": {"timestamp_osm_base": "2024-07-23T20:07:44Z", "copyright": "The data included in this document is from www.openstreetmap.org. The data is made available under ODbL."}, "elements": [{"type": "node", "id": 1652415858, "lat": 39.9845046, "lon": -76.7275883}, {"type": "node", "id": 4191804644, "lat": 39.9810556, "lon": -76.7318679, "tags": {"addr:city": "York", "addr:housenumber": "1327", "addr:postcode": "17404", "addr:state": "PA", "addr:street": "North Duke Street", "amenity": "bar", "description": "Welcome to ORD! We celebrate York County history and our families! We promote local farmers and the fruits of their labor! To all the things we hold dear....to ORD! Cheers!!", "name": "Old Republic Distillery", "opening_hours": "We-Sa 11:00-20:00", "operator": "Bill Mathias", "smoking": "outside", "website": "http://www.DrinkORD.com/"}}, {"type": "node", "id": 5893634811, "lat": 39.98449, "lon": -76.7272909}, {"type": "node", "id": 5893634812, "lat": 39.9845084, "lon": -76.7272897}, {"type": "node", "id": 5893634813, "lat": 39.9845004, "lon": -76.7271638}, {"type": "node", "id": 5893634814, "lat": 39.984438, "lon": -76.7271706}, {"type": "node", "id": 5893634815, "lat": 39.984437, "lon": -76.7271626}, {"type": "node", "id": 5893634816, "lat": 39.9842867, "lon": -76.7271737}, {"type": "node", "id": 5893634817, "lat": 39.9842872, "lon": -76.727202}, {"type": "node", "id": 5893634818, "lat": 39.9842701, "lon": -76.727202}, {"type": "node", "id": 5893634819, "lat": 39.9842753, "lon": -76.7272983}, {"type": "node", "id": 5893634820, "lat": 39.9842895, "lon": -76.7272989}, {"type": "node", "id": 5893634821, "lat": 39.9842924, "lon": -76.7273582}, {"type": "node", "id": 5893634822, "lat": 39.9843184, "lon": -76.7273569}, {"type": "node", "id": 5893634823, "lat": 39.9843292, "lon": -76.7276019}, {"type": "node", "id": 5893634831, "lat": 39.9845356, "lon": -76.7261357, "tags": {"addr:city": "York", "addr:housenumber": "303", "addr:postcode": "17402", "addr:state": "PA", "addr:street": "Arsenal Road", "amenity": "fast_food", "branch": "York", "brand": "Qdoba", "brand:wikidata": "Q1363885", "cuisine": "mexican", "name": "Qdoba", "official_name": "Qdoba Mexican Grill", "opening_hours": "Mo-Sa 10:30-22:00; Su 10:30-21:00", "phone": "+1 717-885-5203", "takeaway": "yes", "website": "https://locations.qdoba.com/us/pa/york/303-arsenal-rd.html"}}, {"type": "node", "id": 9044211897, "lat": 39.9843415, "lon": -76.7272543, "tags": {"amenity": "atm", "cash_in": "yes", "cash_out": "no", "cash_withdrawal": "no", "check_date": "2023-12-31", "currency:BCH": "yes", "currency:USD": "yes", "currency:XBT": "yes", "indoor": "yes", "manufacturer": "Genesis Coin", "name": "American Crypto ATM", "opening_hours": "24/7", "operator": "American Crypto", "payment:cash": "yes", "payment:onchain": "yes", "start_date": "2020-12-15", "url": "https://coinatmradar.com/bitcoin_atm/20252/bitcoin-atm-genesis-coin-york-round-the-clock-diner/", "website": "https://americancrypto.com/atm-locations/pa-york-north-york/"}}, {"type": "node", "id": 11093240866, "lat": 39.9834926, "lon": -76.7285279}, {"type": "node", "id": 11093240867, "lat": 39.9835516, "lon": -76.7281805}, {"type": "node", "id": 11093240868, "lat": 39.9832933, "lon": -76.7281057}, {"type": "node", "id": 11093240869, "lat": 39.9832343, "lon": -76.7284531}, {"type": "way", "id": 624139758, "nodes": [1652415858, 5893634811, 5893634812, 5893634813, 5893634814, 5893634815, 5893634816, 5893634817, 5893634818, 5893634819, 5893634820, 5893634821, 5893634822, 5893634823, 1652415858], "tags": {"addr:city": "York", "addr:housenumber": "222", "addr:postcode": "17402", "addr:state": "PA", "addr:street": "Arsenal Road", "amenity": "restaurant", "building": "yes", "name": "Round the Clock Diner", "opening_hours": "24/7", "phone": "+1 717-848-5344", "website": "https://roundtheclockdiner.com/"}}, {"type": "way", "id": 1195217415, "nodes": [11093240866, 11093240867, 11093240868, 11093240869, 11093240866], "tags": {"addr:city": "York", "addr:housenumber": "1340", "addr:postcode": "17402", "addr:state": "PA", "addr:street": "Toronita Street", "amenity": "restaurant", "brand": "Cheddar's", "brand:wikidata": "Q5089187", "building": "yes", "cuisine": "american", "name": "Cheddar's", "official_name": "Cheddar's Scratch Kitchen", "opening_hours": "Su-Th 11:00-22:00, Fr-Sa 11:00-23:00", "phone": "+1 717-848-1079", "website": "https://www.cheddars.com/locations/pa/york/york/2059?cmpid=br:csk_ag:ie_ch:loc_ca:CSKGMB_sn:gmb_gt:york-pa-2059_pl:locurl_rd:1051"}}]}