{"version": 0.6, "generator": "Overpass API 0.7.62.1 084b4234", "osm3s": {"timestamp_osm_base": "2024-07-25T16:06:41Z", "copyright": "The data included in this document is from www.openstreetmap.org. The data is made available under ODbL."}, "elements": [{"type": "node", "id": 3461691947, "lat": 39.7868278, "lon": -77.7110839}, {"type": "node", "id": 3461691948, "lat": 39.7868652, "lon": -77.7112716}, {"type": "node", "id": 3461691949, "lat": 39.7865396, "lon": -77.7111783}, {"type": "node", "id": 3461691950, "lat": 39.7865651, "lon": -77.7113504}, {"type": "node", "id": 3504181483, "lat": 39.7864943, "lon": -77.7111414}, {"type": "node", "id": 3504181484, "lat": 39.7865252, "lon": -77.7113349}, {"type": "node", "id": 3504181485, "lat": 39.7866158, "lon": -77.7113416}, {"type": "node", "id": 3504181486, "lat": 39.7866187, "lon": -77.7113636}, {"type": "node", "id": 4018839495, "lat": 39.7870111, "lon": -77.7120865}, {"type": "node", "id": 4018839496, "lat": 39.7868718, "lon": -77.7120199}, {"type": "node", "id": 4018839497, "lat": 39.7868198, "lon": -77.7122041}, {"type": "node", "id": 4018839498, "lat": 39.7870214, "lon": -77.7121691}, {"type": "node", "id": 4018839499, "lat": 39.786968, "lon": -77.7122318}, {"type": "node", "id": 4018839500, "lat": 39.7869994, "lon": -77.7122469}, {"type": "node", "id": 4018839501, "lat": 39.7869573, "lon": -77.7122699}, {"type": "node", "id": 4018839502, "lat": 39.7869917, "lon": -77.7121549}, {"type": "node", "id": 4297009198, "lat": 39.7870284, "lon": -77.7160882}, {"type": "node", "id": 4297009199, "lat": 39.7870015, "lon": -77.7159785}, {"type": "node", "id": 4297009200, "lat": 39.7870786, "lon": -77.7159435}, {"type": "node", "id": 4297009201, "lat": 39.7870194, "lon": -77.715738}, {"type": "node", "id": 4297009202, "lat": 39.7868059, "lon": -77.7158337}, {"type": "node", "id": 4297009203, "lat": 39.7868597, "lon": -77.7160392}, {"type": "node", "id": 4297009204, "lat": 39.7869082, "lon": -77.7160252}, {"type": "node", "id": 4297009205, "lat": 39.7869405, "lon": -77.7161373}, {"type": "node", "id": 4297009266, "lat": 39.7856996, "lon": -77.7115041}, {"type": "node", "id": 4297009268, "lat": 39.7853003, "lon": -77.7118587}, {"type": "node", "id": 4297009269, "lat": 39.7852866, "lon": -77.711682}, {"type": "node", "id": 4297009270, "lat": 39.7854182, "lon": -77.711667}, {"type": "node", "id": 4297009271, "lat": 39.78543, "lon": -77.7118416}, {"type": "node", "id": 4297009274, "lat": 39.785292, "lon": -77.7117249}, {"type": "node", "id": 4862269255, "lat": 39.7859139, "lon": -77.7113827}, {"type": "node", "id": 4862269256, "lat": 39.7857371, "lon": -77.7116163}, {"type": "node", "id": 4862269257, "lat": 39.7859514, "lon": -77.7114949}, {"type": "node", "id": 7286737082, "lat": 39.7861937, "lon": -77.7089887}, {"type": "node", "id": 7286737083, "lat": 39.7861566, "lon": -77.7087688}, {"type": "node", "id": 7286737084, "lat": 39.7859504, "lon": -77.7088278}, {"type": "node", "id": 7286844685, "lat": 39.7859875, "lon": -77.7090531}, {"type": "way", "id": 338982729, "nodes": [3461691948, 3461691947, 3461691949, 3504181483, 3504181484, 3461691950, 3504181485, 3504181486, 3461691948], "tags": {"amenity": "fast_food", "brand": "McDonald's", "brand:wikidata": "Q38076", "building": "retail", "cuisine": "burger", "name": "McDonald's", "takeaway": "yes", "website": "https://www.mcdonalds.com/us/en-us/location/pa/greencastle/721-buchanan-trl-e/7939.html"}}, {"type": "way", "id": 399141460, "nodes": [4018839495, 4018839496, 4018839497, 4018839501, 4018839499, 4018839500, 4018839498, 4018839502, 4018839495], "tags": {"building": "retail"}}, {"type": "way", "id": 430419534, "nodes": [4297009198, 4297009199, 4297009200, 4297009201, 4297009202, 4297009203, 4297009204, 4297009205, 4297009198], "tags": {"amenity": "bank", "brand": "M&T Bank", "brand:wikidata": "Q3272257", "building": "yes", "name": "M&T Bank", "website": "https://locations.mtb.com/pa/greencastle/bank-branches-and-atms-greencastle-pa-4317.html"}}, {"type": "way", "id": 430419546, "nodes": [4297009266, 4862269255, 4862269257, 4862269256, 4297009266], "tags": {"addr:city": "Greencastle", "addr:housenumber": "10820", "addr:postcode": "17225", "addr:state": "PA", "addr:street": "John Wayne Drive", "amenity": "fast_food", "brand": "Taco Bell", "brand:wikidata": "Q752941", "building": "yes", "cuisine": "tex-mex", "name": "Taco Bell", "opening_hours": "Mo-Th 09:00-24:00; Fr-Sa 09:00-01:00; Su 09:00-24:00", "phone": "+1 717-593-0529", "takeaway": "yes", "website": "https://locations.tacobell.com/pa/greencastle/10820-john-wayne-dr.html"}}, {"type": "way", "id": 430419547, "nodes": [4297009268, 4297009274, 4297009269, 4297009270, 4297009271, 4297009268], "tags": {"addr:city": "Greencastle", "addr:housenumber": "10830", "addr:postcode": "17225", "addr:state": "PA", "addr:street": "John Wayne Drive", "amenity": "fast_food", "brand": "Subway", "brand:wikidata": "Q244457", "building": "yes", "cuisine": "sandwich", "name": "Subway", "opening_hours": "Mo-Fr 07:00-21:00; Sa 09:00-20:00; Su 10:00-20:00", "phone": "+1 717-593-9955", "takeaway": "yes", "website": "https://restaurants.subway.com/united-states/pa/greencastle/10830-john-wayne-drive"}}, {"type": "way", "id": 780378291, "nodes": [7286737082, 7286737083, 7286737084, 7286844685, 7286737082], "tags": {"addr:city": "Greencastle", "addr:housenumber": "771", "addr:postcode": "17225", "addr:state": "PA", "addr:street": "Buchanan Trail East", "amenity": "fast_food", "brand": "Burger King", "brand:wikidata": "Q177054", "building": "yes", "cuisine": "burger", "delivery": "yes", "drive_through": "yes", "name": "Burger King", "opening_hours": "Mo-Sa 06:00-22:00; Su 07:00-21:00", "operator": "Resturant Brands International Inc.", "phone": "+1 717-971-1261", "ref": "25566", "takeaway": "yes", "website": "https://www.bk.com/store-locator/store/restaurant_81554"}}]}