{"version": 0.6, "generator": "Overpass API 0.7.62.1 084b4234", "osm3s": {"timestamp_osm_base": "2024-07-25T18:45:45Z", "copyright": "The data included in this document is from www.openstreetmap.org. The data is made available under ODbL."}, "elements": [{"type": "node", "id": 175853992, "lat": 39.7388754, "lon": -104.4333304}, {"type": "node", "id": 1022119363, "lat": 39.7406583, "lon": -104.4329697}, {"type": "node", "id": 1022119496, "lat": 39.7411848, "lon": -104.4333289}, {"type": "node", "id": 1022120003, "lat": 39.7412163, "lon": -104.4326105}, {"type": "node", "id": 1022120131, "lat": 39.7406728, "lon": -104.4321727}, {"type": "node", "id": 1022120434, "lat": 39.741183, "lon": -104.4328659}, {"type": "node", "id": 1022120616, "lat": 39.7411834, "lon": -104.4329716}, {"type": "node", "id": 1022121057, "lat": 39.7406648, "lon": -104.432614}, {"type": "node", "id": 1022121283, "lat": 39.7406544, "lon": -104.4333239}, {"type": "node", "id": 1022121518, "lat": 39.7412181, "lon": -104.4327564}, {"type": "node", "id": 1022121654, "lat": 39.741215, "lon": -104.4321728}, {"type": "node", "id": 3323557697, "lat": 39.7409842, "lon": -104.433327}, {"type": "node", "id": 3323557702, "lat": 39.7414606, "lon": -104.4333286}, {"type": "node", "id": 3323557707, "lat": 39.739771, "lon": -104.4333227}, {"type": "node", "id": 6435145873, "lat": 39.7411535, "lon": -104.4326109}, {"type": "node", "id": 6435145876, "lat": 39.7406564, "lon": -104.4331418, "tags": {"direction": "backward", "highway": "stop"}}, {"type": "node", "id": 6435146602, "lat": 39.741184, "lon": -104.4331358, "tags": {"direction": "forward", "highway": "stop"}}, {"type": "node", "id": 6435146603, "lat": 39.7411547, "lon": -104.4327195}, {"type": "node", "id": 6435146605, "lat": 39.7411519, "lon": -104.4321728}, {"type": "way", "id": 87917477, "nodes": [1022121283, 6435145876, 1022119363, 1022121057, 1022120131], "tags": {"highway": "service", "oneway": "no", "service": "driveway", "source": "USGS imagery", "surface": "concrete"}}, {"type": "way", "id": 87917525, "nodes": [1022121057, 6435145873, 1022120003], "tags": {"highway": "service", "oneway": "no", "service": "parking_aisle", "source": "USGS imagery", "surface": "concrete"}}, {"type": "way", "id": 87917682, "nodes": [1022119363, 1022120616], "tags": {"highway": "service", "oneway": "no", "service": "parking_aisle", "source": "USGS imagery", "surface": "concrete"}}, {"type": "way", "id": 325741657, "nodes": [1022121283, 3323557707], "tags": {"CDOT_route": "079A", "alt_name": "State Highway 79", "bicycle": "yes", "foot": "yes", "highway": "primary", "lanes": "3", "lanes:backward": "2", "lanes:forward": "1", "maxspeed": "45 mph", "name": "South 1st Street", "oneway": "no", "ref": "CO 79", "sidewalk": "no", "surface": "asphalt", "turn:lanes:backward": "through|right"}}, {"type": "way", "id": 325741662, "nodes": [3323557697, 1022121283], "tags": {"CDOT_route": "079A", "alt_name": "State Highway 79", "bicycle": "yes", "foot": "yes", "highway": "primary", "lanes": "3", "lanes:backward": "1", "lanes:forward": "2", "maxspeed": "45 mph", "name": "South 1st Street", "oneway": "no", "ref": "CO 79", "sidewalk": "no", "surface": "asphalt", "turn:lanes:forward": "left|through"}}, {"type": "way", "id": 325741667, "nodes": [3323557702, 1022119496, 3323557697], "tags": {"CDOT_route": "079A", "alt_name": "State Highway 79", "bicycle": "yes", "foot": "yes", "highway": "primary", "lanes": "3", "lanes:backward": "1", "lanes:forward": "2", "maxspeed": "45 mph", "name": "South 1st Street", "oneway": "no", "ref": "CO 79", "sidewalk": "no", "surface": "asphalt"}}, {"type": "way", "id": 498962565, "nodes": [3323557707, 175853992], "tags": {"CDOT_route": "079A", "alt_name": "State Highway 79", "bicycle": "yes", "foot": "yes", "highway": "primary", "lanes": "2", "maxspeed": "45 mph", "name": "South 1st Street", "oneway": "no", "ref": "CO 79", "sidewalk": "no", "surface": "asphalt"}}, {"type": "way", "id": 686549950, "nodes": [6435146605, 6435145873, 6435146603, 1022120434], "tags": {"highway": "service", "name": "Colorado First Bank Drive-Thru", "oneway": "yes", "service": "drive-through", "source": "EsriWorldImagery", "surface": "concrete"}}, {"type": "way", "id": 686549953, "nodes": [1022121654, 1022120003, 1022121518, 1022120434, 1022120616, 6435146602, 1022119496], "tags": {"highway": "service", "oneway": "no", "service": "driveway", "source": "USGS imagery", "surface": "concrete"}}, {"type": "way", "id": 686549956, "nodes": [1022120131, 6435146605, 1022121654], "tags": {"highway": "service", "oneway": "no", "service": "parking_aisle", "source": "USGS imagery", "surface": "concrete"}}]}