{"version": 0.6, "generator": "Overpass API 0.7.62.1 084b4234", "osm3s": {"timestamp_osm_base": "2024-07-23T19:56:15Z", "copyright": "The data included in this document is from www.openstreetmap.org. The data is made available under ODbL."}, "elements": [{"type": "node", "id": 1843379501, "lat": 20.8901041, "lon": -156.4686726}, {"type": "node", "id": 1843379563, "lat": 20.8899336, "lon": -156.4691966}, {"type": "node", "id": 1843379569, "lat": 20.8897102, "lon": -156.4691133}, {"type": "node", "id": 1843379586, "lat": 20.8898807, "lon": -156.4685893}, {"type": "node", "id": 2030132378, "lat": 20.8893258, "lon": -156.4740651}, {"type": "node", "id": 2030132379, "lat": 20.8893318, "lon": -156.473908}, {"type": "node", "id": 2030132381, "lat": 20.8894018, "lon": -156.473978}, {"type": "node", "id": 2030132391, "lat": 20.8895121, "lon": -156.4742512}, {"type": "node", "id": 2030132409, "lat": 20.8897168, "lon": -156.4734665}, {"type": "node", "id": 2030132426, "lat": 20.8899731, "lon": -156.4737225}, {"type": "node", "id": 2905669387, "lat": 20.8878902, "lon": -156.4750674, "tags": {"amenity": "cafe", "brand": "Starbucks", "brand:wikidata": "Q37158", "contact:website": "https://www.starbucks.com/store-locator/store/12714/queen-kaahumanu-center-275-west-kaahuman-avenue-1200-f-5-kahului-hi-96732", "cuisine": "coffee_shop", "name": "Starbucks", "official_name": "Starbucks Coffee", "takeaway": "yes"}}, {"type": "node", "id": 2933737033, "lat": 20.8918241, "lon": -156.4683626}, {"type": "node", "id": 2933737035, "lat": 20.8918426, "lon": -156.4683242}, {"type": "node", "id": 2936449725, "lat": 20.8875989, "lon": -156.4703365, "tags": {"addr:state": "HI", "amenity": "library", "ele": "1", "gnis:feature_id": "1919781", "name": "Kahului Public Library", "source": "USGS Geonames", "wikidata": "Q57893831"}}, {"type": "node", "id": 4255593789, "lat": 20.8875344, "lon": -156.4748877, "tags": {"amenity": "atm", "network": "Central Pacific Bank"}}, {"type": "node", "id": 4497822142, "lat": 20.8911659, "lon": -156.4681601}, {"type": "node", "id": 4497822159, "lat": 20.8912481, "lon": -156.4681951}, {"type": "node", "id": 4497822250, "lat": 20.8920856, "lon": -156.4678034}, {"type": "node", "id": 4497822323, "lat": 20.8913902, "lon": -156.4675861}, {"type": "node", "id": 4497822325, "lat": 20.8913958, "lon": -156.4675761}, {"type": "node", "id": 4497822326, "lat": 20.8914025, "lon": -156.4675669}, {"type": "node", "id": 4497822327, "lat": 20.8914102, "lon": -156.4675585}, {"type": "node", "id": 4497822329, "lat": 20.8914188, "lon": -156.4675512}, {"type": "node", "id": 4497822330, "lat": 20.891428, "lon": -156.467545}, {"type": "node", "id": 4497822332, "lat": 20.8914379, "lon": -156.46754}, {"type": "node", "id": 4497822333, "lat": 20.8914483, "lon": -156.4675364}, {"type": "node", "id": 4497822335, "lat": 20.891459, "lon": -156.467534}, {"type": "node", "id": 4497822338, "lat": 20.8914699, "lon": -156.467533}, {"type": "node", "id": 4497822341, "lat": 20.8914809, "lon": -156.4675334}, {"type": "node", "id": 4497822342, "lat": 20.8914917, "lon": -156.4675352}, {"type": "node", "id": 4497822405, "lat": 20.8917911, "lon": -156.4684283}, {"type": "node", "id": 4497822429, "lat": 20.8918655, "lon": -156.467704}, {"type": "node", "id": 5046502241, "lat": 20.8897529, "lon": -156.4695275, "tags": {"amenity": "restaurant", "name": "Bistro Casanova"}}, {"type": "node", "id": 5046502242, "lat": 20.8899784, "lon": -156.4694953, "tags": {"amenity": "bank", "atm": "yes", "name": "Central Pacific Bank"}}, {"type": "node", "id": 5046502244, "lat": 20.8895624, "lon": -156.4711207, "tags": {"amenity": "atm"}}, {"type": "node", "id": 5046502247, "lat": 20.8882969, "lon": -156.4696911, "tags": {"amenity": "restaurant", "name": "Plantation Grindz"}}, {"type": "node", "id": 5326874322, "lat": 20.8874335, "lon": -156.4760666, "tags": {"amenity": "restaurant", "cuisine": "noodle", "name": "Ramen Ya"}}, {"type": "node", "id": 6932978196, "lat": 20.8871047, "lon": -156.4751849, "tags": {"amenity": "cinema", "name": "Kaahumanu Six Plex", "opening_hours:signed": "no", "wikidata": "Q42369508"}}, {"type": "node", "id": 7884847524, "lat": 20.8879305, "lon": -156.4698102}, {"type": "node", "id": 7884847525, "lat": 20.8878362, "lon": -156.4700596}, {"type": "node", "id": 7884847526, "lat": 20.8877522, "lon": -156.4700233}, {"type": "node", "id": 7884847527, "lat": 20.887835, "lon": -156.4698045}, {"type": "node", "id": 7884847528, "lat": 20.8877929, "lon": -156.4697863}, {"type": "node", "id": 7884847529, "lat": 20.8878045, "lon": -156.4697556}, {"type": "node", "id": 8197779117, "lat": 20.8865959, "lon": -156.475243, "tags": {"amenity": "pharmacy", "brand": "CVS Pharmacy", "brand:website": "https://www.cvs.com/", "brand:wikidata": "Q2078880", "brand:wikipedia": "en:CVS Pharmacy", "healthcare": "pharmacy", "name": "CVS Pharmacy", "opening_hours": "Mo-Sa 09:00-18:00; Su 10:00-17:00", "short_name": "CVS", "website": "https://www.cvs.com/store-locator/kahului-hi-pharmacies/275-w-kaahumanu-ave-suite-1c01a-kahului-hi-96732/storeid=10848"}}, {"type": "node", "id": 8197789017, "lat": 20.8878574, "lon": -156.475323, "tags": {"amenity": "fast_food", "brand": "L&L Hawaiian Barbecue", "brand:wikidata": "Q6455441", "cuisine": "hawaiian", "name": "L&L Hawaiian Barbecue", "phone": "+1-808-873-8889", "takeaway": "yes"}}, {"type": "node", "id": 8197791817, "lat": 20.8879076, "lon": -156.4753442, "tags": {"amenity": "restaurant", "name": "Badaus Maui Crepes & Grill"}}, {"type": "node", "id": 8197794917, "lat": 20.8879244, "lon": -156.475084, "tags": {"addr:housenumber": "275", "addr:postcode": "96732", "addr:street": "Kaahumanu Avenue", "amenity": "fast_food", "brand": "Panda Express", "brand:wikidata": "Q1358690", "cuisine": "chinese", "name": "Panda Express", "phone": "+1-808-877-5645", "takeaway": "yes", "website": "https://www.pandaexpress.com/userlocation/268/hi/kahului/275-kaahumanu-ave"}}, {"type": "node", "id": 8197794918, "lat": 20.8878636, "lon": -156.475064, "tags": {"amenity": "restaurant", "name": "Hi Tea", "phone": "+1-808-872-1100"}}, {"type": "node", "id": 8197796417, "lat": 20.8879648, "lon": -156.475095, "tags": {"amenity": "restaurant", "name": "Pearl's Korean BBQ", "opening_hours": "Mo-Su 10:00-19:00", "phone": "+1-808-877-0788", "website": "https://pearlskoreanbbqqkc.com/"}}, {"type": "node", "id": 11031811305, "lat": 20.8907673, "lon": -156.469952, "tags": {"amenity": "restaurant", "cuisine": "filipino", "name": "Tante's"}}, {"type": "node", "id": 11118140454, "lat": 20.8898558, "lon": -156.4686657}, {"type": "node", "id": 11118140455, "lat": 20.8896023, "lon": -156.4684856}, {"type": "node", "id": 11118140456, "lat": 20.8895774, "lon": -156.4685619}, {"type": "node", "id": 11118140457, "lat": 20.8900793, "lon": -156.468749}, {"type": "node", "id": 11160886509, "lat": 20.8876962, "lon": -156.4752568, "tags": {"amenity": "cafe", "animal_shelter:adoption": "cat", "fixme": "please fix exact location \"We are located on the second floor by the elevators, Queen Ka'ahumanu Center. \"", "name": "Cat Caf\u00e9 Maui", "theme": "cat", "website": "https://catcafemaui.com/"}}, {"type": "way", "id": 173543666, "nodes": [11118140454, 1843379569, 1843379563, 11118140457, 1843379501, 1843379586, 11118140455, 11118140456, 11118140454], "tags": {"building": "supermarket"}}, {"type": "way", "id": 192459727, "nodes": [2030132381, 2030132378, 2030132391, 2030132426, 2030132409, 2030132379, 2030132381], "tags": {"building": "retail", "shop": "mall", "source": "Bing"}}, {"type": "way", "id": 452966555, "nodes": [4497822250, 2933737035, 2933737033, 4497822405, 4497822159, 4497822142, 4497822323, 4497822325, 4497822326, 4497822327, 4497822329, 4497822330, 4497822332, 4497822333, 4497822335, 4497822338, 4497822341, 4497822342, 4497822429, 4497822250], "tags": {"amenity": "bank", "landuse": "commercial", "name": "First Hawaiian Bank"}}, {"type": "way", "id": 845153888, "nodes": [7884847529, 7884847528, 7884847527, 7884847526, 7884847525, 7884847524, 7884847529], "tags": {"amenity": "restaurant", "building": "commercial", "name": "Cupie's Drive-In", "safety:mask:covid19": "yes"}}]}