{"version": 0.6, "generator": "Overpass API 0.7.62.1 084b4234", "osm3s": {"timestamp_osm_base": "2024-07-10T17:06:14Z", "copyright": "The data included in this document is from www.openstreetmap.org. The data is made available under ODbL."}, "elements": [{"type": "node", "id": 1844432059, "lat": 38.8885496, "lon": -77.0324505, "tags": {"amenity": "bicycle_rental", "bicycle_rental": "docking_station", "brand": "Capital Bikeshare", "brand:wikidata": "Q1034635", "capacity": "22", "fee": "yes", "name": "Jefferson Dr & 14th St SW", "network": "Capital Bikeshare", "network:wikidata": "Q1034635", "opening_hours": "24/7", "operator": "Lyft", "operator:type": "private", "operator:wikidata": "Q17077936", "website": "https://www.capitalbikeshare.com/"}}, {"type": "node", "id": 2276095566, "lat": 38.8930277, "lon": -77.026013, "tags": {"amenity": "bicycle_rental", "bicycle_rental": "docking_station", "brand": "Capital Bikeshare", "brand:wikidata": "Q1034635", "capacity": "31", "dcgis:dataset": "CapitalBikeSharePt", "dcgis:gis_id": "14751578", "dcgis:pubdate": "2013-03-11", "fee": "yes", "name": "10th St and Constitution Ave NW", "network": "Capital Bikeshare", "network:wikidata": "Q1034635", "opening_hours": "24/7", "operator": "Lyft", "operator:type": "private", "operator:wikidata": "Q17077936", "ref": "31219", "source": "dcgis", "website": "https://www.capitalbikeshare.com/"}}, {"type": "node", "id": 2276095580, "lat": 38.8871972, "lon": -77.0282895, "tags": {"amenity": "bicycle_rental", "bicycle_rental": "docking_station", "brand": "Capital Bikeshare", "brand:wikidata": "Q1034635", "capacity": "39", "dcgis:dataset": "CapitalBikeSharePt", "dcgis:gis_id": "14751573", "dcgis:pubdate": "2013-03-11", "fee": "yes", "name": "USDA / 12th and Independence Ave SW", "network": "Capital Bikeshare", "network:wikidata": "Q1034635", "opening_hours": "24/7", "operator": "Lyft", "operator:type": "private", "operator:wikidata": "Q17077936", "ref": "31217", "source": "dcgis", "website": "https://www.capitalbikeshare.com/"}}, {"type": "node", "id": 2276095832, "lat": 38.8887736, "lon": -77.0285632, "tags": {"amenity": "bicycle_rental", "bicycle_rental": "docking_station", "brand": "Capital Bikeshare", "brand:wikidata": "Q1034635", "capacity": "23", "dcgis:dataset": "CapitalBikeSharePt", "dcgis:gis_id": "14751665", "dcgis:pubdate": "2013-03-11", "fee": "yes", "name": "Smithsonian / Jefferson Dr and 12th St SW", "network": "Capital Bikeshare", "network:wikidata": "Q1034635", "opening_hours": "24/7", "operator": "Lyft", "operator:type": "private", "operator:wikidata": "Q17077936", "ref": "31248", "source": "dcgis", "website": "https://www.capitalbikeshare.com/"}}, {"type": "node", "id": 2276096133, "lat": 38.8862657, "lon": -77.022241, "tags": {"amenity": "bicycle_rental", "bicycle_rental": "docking_station", "brand": "Capital Bikeshare", "brand:wikidata": "Q1034635", "capacity": "15", "dcgis:dataset": "CapitalBikeSharePt", "dcgis:gis_id": "14751577", "dcgis:pubdate": "2013-03-11", "fee": "yes", "name": "L'Enfant Plaza / 7th and C St SW", "network": "Capital Bikeshare", "network:wikidata": "Q1034635", "opening_hours": "24/7", "operator": "Lyft", "operator:type": "private", "operator:wikidata": "Q17077936", "ref": "31218", "source": "dcgis", "website": "https://www.capitalbikeshare.com/"}}, {"type": "node", "id": 6285398243, "lat": 38.8873198, "lon": -77.0257643, "tags": {"amenity": "bicycle_rental", "bicycle_rental": "docking_station", "brand": "Capital Bikeshare", "brand:wikidata": "Q1034635", "capacity": "13", "dcgis:dataset": "CapitalBikeSharePt", "dcgis:gis_id": "243045318", "dcgis:pubdate": "2018-08-20", "fee": "yes", "name": "Independence Ave and L'Enfant Plaza SW/DOE", "network": "Capital Bikeshare", "network:wikidata": "Q1034635", "opening_hours": "24/7", "operator": "Lyft", "operator:type": "private", "operator:wikidata": "Q17077936", "source": "dcgis", "website": "https://www.capitalbikeshare.com/"}}, {"type": "node", "id": 6285398420, "lat": 38.8922518, "lon": -77.0332363, "tags": {"amenity": "bicycle_rental", "bicycle_rental": "docking_station", "brand": "Capital Bikeshare", "brand:wikidata": "Q1034635", "capacity": "18", "dcgis:dataset": "CapitalBikeSharePt", "dcgis:gis_id": "243045630", "dcgis:pubdate": "2018-08-20", "fee": "yes", "name": "15th St and Constitution Ave NW", "network": "Capital Bikeshare", "network:wikidata": "Q1034635", "opening_hours": "24/7", "operator": "Lyft", "operator:type": "private", "operator:wikidata": "Q17077936", "source": "dcgis", "website": "https://www.capitalbikeshare.com/"}}, {"type": "node", "id": 10607117588, "lat": 38.8942097, "lon": -77.0239259, "tags": {"amenity": "bicycle_rental", "bicycle_rental": "docking_station", "brand": "Capital Bikeshare", "brand:wikidata": "Q1034635", "capacity": "27", "fee": "yes", "name": "9th St & Pennsylvania Ave NW", "network": "Capital Bikeshare", "network:wikidata": "Q1034635", "opening_hours": "24/7", "operator": "Lyft", "operator:type": "private", "operator:wikidata": "Q17077936", "website": "https://www.capitalbikeshare.com/"}}, {"type": "node", "id": 10943825372, "lat": 38.8862819, "lon": -77.0282409, "tags": {"amenity": "bicycle_rental", "bicycle_rental": "docking_station", "brand": "Capital Bikeshare", "brand:wikidata": "Q1034635", "capacity": "39", "fee": "yes", "name": "USDA / 12th & C St SW", "network": "Capital Bikeshare", "network:wikidata": "Q1034635", "opening_hours": "24/7", "operator": "Lyft", "operator:type": "private", "operator:wikidata": "Q17077936", "website": "https://www.capitalbikeshare.com/"}}]}