{"version": 0.6, "generator": "Overpass API 0.7.62.1 084b4234", "osm3s": {"timestamp_osm_base": "2024-07-25T19:12:13Z", "copyright": "The data included in this document is from www.openstreetmap.org. The data is made available under ODbL."}, "elements": [{"type": "node", "id": 3647870784, "lat": 46.1630841, "lon": -90.055467}, {"type": "node", "id": 3647870785, "lat": 46.1630043, "lon": -90.0553339}, {"type": "node", "id": 3647870786, "lat": 46.1629472, "lon": -90.0554052}, {"type": "node", "id": 3647870787, "lat": 46.163027, "lon": -90.0555383}, {"type": "node", "id": 3647886756, "lat": 46.1661405, "lon": -90.0652187}, {"type": "node", "id": 3647886757, "lat": 46.1662344, "lon": -90.0651419}, {"type": "node", "id": 3647886758, "lat": 46.1662161, "lon": -90.0650954}, {"type": "node", "id": 3647886759, "lat": 46.1662412, "lon": -90.0650749}, {"type": "node", "id": 3647886760, "lat": 46.1662112, "lon": -90.0649983}, {"type": "node", "id": 3647886761, "lat": 46.1661891, "lon": -90.0650164}, {"type": "node", "id": 3647886762, "lat": 46.1661711, "lon": -90.0649706}, {"type": "node", "id": 3647886763, "lat": 46.1660653, "lon": -90.065057}, {"type": "node", "id": 3647886764, "lat": 46.1661099, "lon": -90.0651706}, {"type": "node", "id": 3647886765, "lat": 46.1661187, "lon": -90.0651633}, {"type": "node", "id": 3647886766, "lat": 46.166068, "lon": -90.0653245}, {"type": "node", "id": 3647886767, "lat": 46.1662753, "lon": -90.0651493}, {"type": "node", "id": 3647886768, "lat": 46.1663508, "lon": -90.0653355}, {"type": "node", "id": 3647886769, "lat": 46.1662761, "lon": -90.0653986}, {"type": "node", "id": 3647886770, "lat": 46.1662486, "lon": -90.0653308}, {"type": "node", "id": 3647886771, "lat": 46.166116, "lon": -90.0654429}, {"type": "node", "id": 3647923997, "lat": 46.165851, "lon": -90.0640564}, {"type": "node", "id": 3647923998, "lat": 46.1657044, "lon": -90.0641656}, {"type": "node", "id": 3647923999, "lat": 46.165669, "lon": -90.0640663}, {"type": "node", "id": 3647924000, "lat": 46.1658155, "lon": -90.0639571}, {"type": "node", "id": 3647937759, "lat": 46.1660067, "lon": -90.0644348}, {"type": "node", "id": 3647937760, "lat": 46.165827, "lon": -90.064578}, {"type": "node", "id": 3647937761, "lat": 46.1657809, "lon": -90.0644575}, {"type": "node", "id": 3647937762, "lat": 46.1659606, "lon": -90.0643142}, {"type": "node", "id": 3647941764, "lat": 46.1659554, "lon": -90.062705}, {"type": "node", "id": 3647941765, "lat": 46.1660202, "lon": -90.0626559}, {"type": "node", "id": 3647941766, "lat": 46.1659321, "lon": -90.0624137}, {"type": "node", "id": 3647941767, "lat": 46.1658673, "lon": -90.0624628}, {"type": "node", "id": 3647980959, "lat": 46.1679491, "lon": -90.0630202}, {"type": "node", "id": 3647980960, "lat": 46.1679856, "lon": -90.0629751}, {"type": "node", "id": 3647980961, "lat": 46.1680045, "lon": -90.0630069}, {"type": "node", "id": 3647980962, "lat": 46.1681143, "lon": -90.0628713}, {"type": "node", "id": 3647980963, "lat": 46.1680981, "lon": -90.0628439}, {"type": "node", "id": 3647980964, "lat": 46.1681681, "lon": -90.0627576}, {"type": "node", "id": 3647980965, "lat": 46.1680712, "lon": -90.0625941}, {"type": "node", "id": 3647980966, "lat": 46.1680287, "lon": -90.0626467}, {"type": "node", "id": 3647980967, "lat": 46.1679251, "lon": -90.0624719}, {"type": "node", "id": 3647980968, "lat": 46.1677805, "lon": -90.0626504}, {"type": "node", "id": 3647980969, "lat": 46.167859, "lon": -90.0627829}, {"type": "node", "id": 3647980970, "lat": 46.1679223, "lon": -90.0627048}, {"type": "node", "id": 3647980971, "lat": 46.1679621, "lon": -90.062772}, {"type": "node", "id": 3647980972, "lat": 46.1678697, "lon": -90.062886}, {"type": "node", "id": 4538711035, "lat": 46.1640856, "lon": -90.0587044, "tags": {"designation": "One of the World's largest plastic loons", "name": "Clair de Loon", "tourism": "viewpoint"}}, {"type": "way", "id": 360181840, "nodes": [3647870784, 3647870785, 3647870786, 3647870787, 3647870784], "tags": {"addr:city": "Mercer", "addr:housenumber": "5116", "addr:postcode": "54547", "addr:state": "WI", "addr:street": "US 51", "amenity": "fast_food", "brand": "Subway", "brand:wikidata": "Q244457", "building": "yes", "cuisine": "sandwich", "name": "Subway", "opening_hours": "Mo-Sa 08:00-19:00; Su 09:00-19:00", "phone": "+1 715-476-2197", "takeaway": "yes", "website": "https://restaurants.subway.com/united-states/wi/mercer/5116-n-hwy-51"}}, {"type": "way", "id": 360184907, "nodes": [3647886756, 3647886757, 3647886758, 3647886759, 3647886760, 3647886761, 3647886762, 3647886763, 3647886764, 3647886765, 3647886756], "tags": {"addr:city": "Mercer", "addr:housenumber": "5233", "addr:postcode": "54547", "addr:state": "WI", "addr:street": "US 51", "amenity": "restaurant", "building": "yes", "name": "Tom's Country Cafe"}}, {"type": "way", "id": 360184913, "nodes": [3647886766, 3647886767, 3647886768, 3647886769, 3647886770, 3647886771, 3647886766], "tags": {"building": "retail"}}, {"type": "way", "id": 360188066, "nodes": [3647923997, 3647923998, 3647923999, 3647924000, 3647923997], "tags": {"addr:city": "Mercer", "addr:housenumber": "5221", "addr:postcode": "54547", "addr:state": "WI", "addr:street": "US 51", "amenity": "bar", "building": "yes", "name": "Anchor Inn", "website": "http://www.mercerwi.com/anchorinn/"}}, {"type": "way", "id": 360190938, "nodes": [3647937759, 3647937760, 3647937761, 3647937762, 3647937759], "tags": {"addr:city": "Mercer", "addr:housenumber": "5225", "addr:postcode": "54547", "addr:state": "WI", "addr:street": "US 51", "amenity": "bar", "building": "yes", "name": "Johnnys Bar", "website": "http://www.johnnysbarmercer.com/"}}, {"type": "way", "id": 360191511, "nodes": [3647941764, 3647941765, 3647941766, 3647941767, 3647941764], "tags": {"addr:city": "Mercer", "addr:housenumber": "5262", "addr:postcode": "54547", "addr:state": "WI", "addr:street": "Lakeview Avenue", "amenity": "bar", "building": "yes", "name": "Heart Of The North", "website": "https://www.heartofthenorth.net/"}}, {"type": "way", "id": 360195603, "nodes": [3647980959, 3647980960, 3647980961, 3647980962, 3647980963, 3647980964, 3647980965, 3647980966, 3647980967, 3647980968, 3647980969, 3647980970, 3647980971, 3647980972, 3647980959], "tags": {"addr:city": "Mercer", "addr:housenumber": "2648", "addr:postcode": "54547", "addr:state": "WI", "addr:street": "Margaret Street", "amenity": "library", "building": "public", "name": "Mercer Public Library"}}]}