{"version": 0.6, "generator": "Overpass API 0.7.62.1 084b4234", "osm3s": {"timestamp_osm_base": "2024-07-23T20:28:15Z", "copyright": "The data included in this document is from www.openstreetmap.org. The data is made available under ODbL."}, "elements": [{"type": "node", "id": 5120758323, "lat": 41.083793, "lon": -111.973621, "tags": {"bus": "yes", "highway": "bus_stop", "name": "Hill Field Rd @ 1655 N", "network": "UTA", "network:wikidata": "Q7902494", "operator": "UTA", "public_transport": "platform", "ref": "101003", "shelter": "yes"}}, {"type": "node", "id": 5120758781, "lat": 41.083423, "lon": -111.981049, "tags": {"bench": "yes", "bus": "yes", "highway": "bus_stop", "name": "Heritage Park Blvd @ 836 W", "network": "UTA", "network:wikidata": "Q7902494", "operator": "UTA", "public_transport": "platform", "ref": "301470", "shelter": "no"}}, {"type": "node", "id": 5120759533, "lat": 41.081071, "lon": -111.978329, "tags": {"bus": "yes", "highway": "bus_stop", "name": "Layton Hills Pky @ 1434 N", "network": "UTA", "network:wikidata": "Q7902494", "operator": "UTA", "public_transport": "platform", "ref": "301459"}}, {"type": "node", "id": 5120759549, "lat": 41.079992, "lon": -111.973369, "tags": {"bus": "yes", "highway": "bus_stop", "name": "Hill Field Rd @ 1398 N", "network": "UTA", "network:wikidata": "Q7902494", "operator": "UTA", "public_transport": "platform", "ref": "101021", "shelter": "yes"}}, {"type": "node", "id": 5120759555, "lat": 41.0849521, "lon": -111.973307, "tags": {"bench": "no", "bus": "yes", "highway": "bus_stop", "name": "Hill Field Rd @ 1748 N", "network": "UTA", "network:wikidata": "Q7902494", "operator": "UTA", "public_transport": "platform", "ref": "101012", "shelter": "yes"}}, {"type": "node", "id": 5120759563, "lat": 41.078921, "lon": -111.974571, "tags": {"bench": "yes", "bin": "yes", "bus": "yes", "highway": "bus_stop", "name": "Ring Rd @ 425 W", "network": "UTA", "network:wikidata": "Q7902494", "operator": "Utah Transit Authority", "public_transport": "platform", "ref": "101007", "shelter": "yes"}}, {"type": "node", "id": 5120760459, "lat": 41.085637, "lon": -111.984332, "tags": {"bus": "yes", "highway": "bus_stop", "name": "Woodland Park Dr @ 1739 N", "network": "UTA", "network:wikidata": "Q7902494", "operator": "UTA", "public_transport": "platform", "ref": "301475"}}, {"type": "node", "id": 5120760461, "lat": 41.0833264, "lon": -111.981085, "tags": {"bus": "yes", "highway": "bus_stop", "name": "Heritage Park Blvd @ 835 W", "network": "UTA", "network:wikidata": "Q7902494", "operator": "UTA", "public_transport": "platform", "ref": "301469"}}, {"type": "node", "id": 5120760462, "lat": 41.081072, "lon": -111.978456, "tags": {"bus": "yes", "highway": "bus_stop", "name": "Layton Hills Pky @ 1415 N", "network": "UTA", "network:wikidata": "Q7902494", "operator": "UTA", "public_transport": "platform", "ref": "301458"}}, {"type": "node", "id": 5120760463, "lat": 41.082459, "lon": -111.978442, "tags": {"bus": "yes", "highway": "bus_stop", "name": "Layton Hills Pky @ 1547 N", "network": "UTA", "network:wikidata": "Q7902494", "operator": "UTA", "public_transport": "platform", "ref": "301456"}}, {"type": "node", "id": 5120760464, "lat": 41.083074, "lon": -111.979796, "tags": {"bus": "yes", "highway": "bus_stop", "name": "Heritage Park Blvd @ 771 W", "network": "UTA", "network:wikidata": "Q7902494", "operator": "UTA", "public_transport": "platform", "ref": "301454", "shelter": "no"}}, {"type": "node", "id": 5120760465, "lat": 41.083691, "lon": -111.982636, "tags": {"bench": "yes", "bus": "yes", "highway": "bus_stop", "name": "Heritage Park Blvd @ 919 W", "network": "UTA", "network:wikidata": "Q7902494", "operator": "UTA", "public_transport": "platform", "ref": "301452", "shelter": "no"}}, {"type": "node", "id": 5120761731, "lat": 41.0823, "lon": -111.978317, "tags": {"bus": "yes", "highway": "bus_stop", "name": "Layton Hills Pky @ 1534 N", "network": "UTA", "network:wikidata": "Q7902494", "operator": "UTA", "public_transport": "platform", "ref": "301457"}}, {"type": "node", "id": 5120761732, "lat": 41.083168, "lon": -111.979655, "tags": {"bus": "yes", "highway": "bus_stop", "name": "Heritage Park Blvd @ 764 W", "network": "UTA", "network:wikidata": "Q7902494", "operator": "UTA", "public_transport": "platform", "ref": "301455", "shelter": "no"}}, {"type": "node", "id": 5120761733, "lat": 41.083793, "lon": -111.982639, "tags": {"bus": "yes", "highway": "bus_stop", "name": "Heritage Park Blvd @ 918 W", "network": "UTA", "network:wikidata": "Q7902494", "operator": "UTA", "public_transport": "platform", "ref": "301453", "shelter": "no"}}, {"type": "node", "id": 5120761734, "lat": 41.085854, "lon": -111.984132, "tags": {"bus": "yes", "highway": "bus_stop", "name": "Woodland Park Dr @ 1754 N", "network": "UTA", "network:wikidata": "Q7902494", "operator": "UTA", "public_transport": "platform", "ref": "301451"}}, {"type": "node", "id": 5120761755, "lat": 41.080152, "lon": -111.973632, "tags": {"bench": "yes", "bus": "yes", "highway": "bus_stop", "name": "Hill Field Rd @ 1415 N", "network": "UTA", "network:wikidata": "Q7902494", "operator": "UTA", "public_transport": "platform", "ref": "101112", "shelter": "yes"}}, {"type": "node", "id": 5120765521, "lat": 41.083071, "lon": -111.973347, "tags": {"bench": "yes", "bin": "no", "bus": "yes", "highway": "bus_stop", "lit": "yes", "name": "Hill Field Rd @ 1596 N", "network": "UTA", "network:wikidata": "Q7902494", "operator": "UTA", "public_transport": "platform", "ref": "101011", "shelter": "yes", "tactile_paving": "no"}}]}