{"version": 0.6, "generator": "Overpass API 0.7.62.1 084b4234", "osm3s": {"timestamp_osm_base": "2024-07-25T18:34:31Z", "copyright": "The data included in this document is from www.openstreetmap.org. The data is made available under ODbL."}, "elements": [{"type": "node", "id": 5802525950, "lat": 39.945507, "lon": -86.3518109, "tags": {"description": "Dual-sided Enhanced Reference Location sign (Indiana MUTCD: D10-Y5)", "information": "guidepost", "operator": "INDOT", "ref": "Mile 129.8", "tourism": "information"}}, {"type": "node", "id": 5802526060, "lat": 39.9481453, "lon": -86.3547493, "tags": {"description": "Dual-sided Enhanced Reference Location sign (Indiana MUTCD: D10-Y5)", "information": "guidepost", "operator": "INDOT", "ref": "MILE 130", "tourism": "information"}}, {"type": "node", "id": 7154879521, "lat": 39.9483186, "lon": -86.3495873}, {"type": "node", "id": 7154879522, "lat": 39.9483699, "lon": -86.34934}, {"type": "node", "id": 7154879523, "lat": 39.9482585, "lon": -86.3493006}, {"type": "node", "id": 7154879524, "lat": 39.9482071, "lon": -86.349548}, {"type": "node", "id": 7154879529, "lat": 39.9486928, "lon": -86.3479706}, {"type": "node", "id": 7154879530, "lat": 39.948596, "lon": -86.3479542}, {"type": "node", "id": 7154879531, "lat": 39.948623, "lon": -86.3476823}, {"type": "node", "id": 7154879532, "lat": 39.9487198, "lon": -86.3476987}, {"type": "node", "id": 8339648162, "lat": 39.9495732, "lon": -86.3497841}, {"type": "node", "id": 8339648163, "lat": 39.9492465, "lon": -86.3496568}, {"type": "node", "id": 8339648164, "lat": 39.9492778, "lon": -86.3495202}, {"type": "node", "id": 8339648165, "lat": 39.9496045, "lon": -86.3496474}, {"type": "node", "id": 8339648166, "lat": 39.9495997, "lon": -86.3510191}, {"type": "node", "id": 8339648167, "lat": 39.949496, "lon": -86.3509724}, {"type": "node", "id": 8339648168, "lat": 39.9494927, "lon": -86.3509847}, {"type": "node", "id": 8339648169, "lat": 39.949454, "lon": -86.3509673}, {"type": "node", "id": 8339648170, "lat": 39.9494576, "lon": -86.3509534}, {"type": "node", "id": 8339648171, "lat": 39.9493721, "lon": -86.3509149}, {"type": "node", "id": 8339648172, "lat": 39.9494637, "lon": -86.3505686}, {"type": "node", "id": 8339648173, "lat": 39.9497204, "lon": -86.3507134}, {"type": "node", "id": 8339648174, "lat": 39.9496979, "lon": -86.3507983}, {"type": "node", "id": 8339648175, "lat": 39.9496624, "lon": -86.3507823}, {"type": "node", "id": 8339648176, "lat": 39.9495583, "lon": -86.3506405}, {"type": "node", "id": 8339648177, "lat": 39.9495653, "lon": -86.3506143}, {"type": "node", "id": 8339648178, "lat": 39.9494559, "lon": -86.3512514}, {"type": "node", "id": 8339648179, "lat": 39.9492648, "lon": -86.351134}, {"type": "node", "id": 8339648180, "lat": 39.9492193, "lon": -86.3512601}, {"type": "node", "id": 8339648181, "lat": 39.9494103, "lon": -86.3513775}, {"type": "node", "id": 8339648182, "lat": 39.9493503, "lon": -86.3517568}, {"type": "node", "id": 8339648183, "lat": 39.9491596, "lon": -86.3516286}, {"type": "node", "id": 8339648184, "lat": 39.9491998, "lon": -86.3515277}, {"type": "node", "id": 8339648185, "lat": 39.9494074, "lon": -86.3516674}, {"type": "node", "id": 8339648186, "lat": 39.9493849, "lon": -86.3517242}, {"type": "node", "id": 8339648187, "lat": 39.9493675, "lon": -86.3517125}, {"type": "node", "id": 8339648188, "lat": 39.949112, "lon": -86.3517483}, {"type": "node", "id": 8339648189, "lat": 39.9493031, "lon": -86.3518769}, {"type": "node", "id": 8339648190, "lat": 39.9490659, "lon": -86.3518642}, {"type": "node", "id": 8339648191, "lat": 39.9492574, "lon": -86.3519931}, {"type": "node", "id": 8339648192, "lat": 39.9491993, "lon": -86.3521401}, {"type": "node", "id": 8339648193, "lat": 39.9490077, "lon": -86.3520112}, {"type": "node", "id": 8339686777, "lat": 39.9521359, "lon": -86.3532385}, {"type": "node", "id": 8339686778, "lat": 39.9521451, "lon": -86.352909}, {"type": "node", "id": 8339686779, "lat": 39.952189, "lon": -86.3529111}, {"type": "node", "id": 8339686780, "lat": 39.9521915, "lon": -86.3528208}, {"type": "node", "id": 8339686781, "lat": 39.952148, "lon": -86.3528187}, {"type": "node", "id": 8339686782, "lat": 39.952162, "lon": -86.3523108}, {"type": "node", "id": 8339686783, "lat": 39.9515136, "lon": -86.3522803}, {"type": "node", "id": 8339686784, "lat": 39.9515054, "lon": -86.3525746}, {"type": "node", "id": 8339686785, "lat": 39.9514665, "lon": -86.3525728}, {"type": "node", "id": 8339686786, "lat": 39.9514581, "lon": -86.3528777}, {"type": "node", "id": 8339686787, "lat": 39.9515151, "lon": -86.3528804}, {"type": "node", "id": 8339686788, "lat": 39.9515069, "lon": -86.3531751}, {"type": "node", "id": 8339686789, "lat": 39.9515279, "lon": -86.3531761}, {"type": "node", "id": 8339686790, "lat": 39.9515289, "lon": -86.3531402}, {"type": "node", "id": 8339686791, "lat": 39.9516916, "lon": -86.3531479}, {"type": "node", "id": 8339686792, "lat": 39.9516907, "lon": -86.3531818}, {"type": "node", "id": 8339686793, "lat": 39.9517324, "lon": -86.3531838}, {"type": "node", "id": 8339686794, "lat": 39.9517332, "lon": -86.3531571}, {"type": "node", "id": 8339686795, "lat": 39.95189, "lon": -86.3531646}, {"type": "node", "id": 8339686796, "lat": 39.9518886, "lon": -86.3532153}, {"type": "node", "id": 8339686797, "lat": 39.9519368, "lon": -86.3532177}, {"type": "node", "id": 8339686798, "lat": 39.9519374, "lon": -86.3531952}, {"type": "node", "id": 8339686799, "lat": 39.9520914, "lon": -86.3532025}, {"type": "node", "id": 8339686800, "lat": 39.9520905, "lon": -86.3532363}, {"type": "node", "id": 8339686801, "lat": 39.9521661, "lon": -86.3522048}, {"type": "node", "id": 8339686802, "lat": 39.9520588, "lon": -86.3521999}, {"type": "node", "id": 8339686803, "lat": 39.9520739, "lon": -86.3516335}, {"type": "node", "id": 8339686804, "lat": 39.951531, "lon": -86.3516087}, {"type": "node", "id": 8339686805, "lat": 39.9519331, "lon": -86.351627}, {"type": "node", "id": 8339686806, "lat": 39.9519382, "lon": -86.3514117}, {"type": "node", "id": 8339686807, "lat": 39.9519625, "lon": -86.3514127}, {"type": "node", "id": 8339686808, "lat": 39.9519693, "lon": -86.3511218}, {"type": "node", "id": 8339686809, "lat": 39.9515435, "lon": -86.3511047}, {"type": "node", "id": 8339686815, "lat": 39.9515581, "lon": -86.3506595}, {"type": "node", "id": 8339694619, "lat": 39.9519066, "lon": -86.350673}, {"type": "node", "id": 8339694620, "lat": 39.9519123, "lon": -86.3503934}, {"type": "node", "id": 8339694621, "lat": 39.9515625, "lon": -86.3503814}, {"type": "node", "id": 8339694622, "lat": 39.9519612, "lon": -86.3503928}, {"type": "node", "id": 8339694623, "lat": 39.951567, "lon": -86.3501757}, {"type": "node", "id": 8339694624, "lat": 39.951964, "lon": -86.3501848}, {"type": "node", "id": 8339694625, "lat": 39.9520634, "lon": -86.3501878}, {"type": "node", "id": 8339694626, "lat": 39.9515714, "lon": -86.3498356}, {"type": "node", "id": 8339694627, "lat": 39.9520325, "lon": -86.3498482}, {"type": "node", "id": 8339694628, "lat": 39.9520287, "lon": -86.3500889}, {"type": "node", "id": 8339694629, "lat": 39.9520645, "lon": -86.3501216}, {"type": "node", "id": 8339694630, "lat": 39.950573, "lon": -86.3529525}, {"type": "node", "id": 8339694631, "lat": 39.9504919, "lon": -86.3529506}, {"type": "node", "id": 8339694632, "lat": 39.9504916, "lon": -86.3529722}, {"type": "node", "id": 8339694633, "lat": 39.950385, "lon": -86.3529698}, {"type": "node", "id": 8339694634, "lat": 39.9503855, "lon": -86.352937}, {"type": "node", "id": 8339694635, "lat": 39.9503263, "lon": -86.3529357}, {"type": "node", "id": 8339694636, "lat": 39.9503298, "lon": -86.3526656}, {"type": "node", "id": 8339694637, "lat": 39.95042, "lon": -86.3526676}, {"type": "node", "id": 8339694638, "lat": 39.9504205, "lon": -86.3526312}, {"type": "node", "id": 8339694639, "lat": 39.9505178, "lon": -86.3526334}, {"type": "node", "id": 8339694640, "lat": 39.9505173, "lon": -86.3526725}, {"type": "node", "id": 8339694641, "lat": 39.9505767, "lon": -86.3526739}, {"type": "node", "id": 8339694642, "lat": 39.9519472, "lon": -86.3495613}, {"type": "node", "id": 8339694643, "lat": 39.9515838, "lon": -86.3495511}, {"type": "node", "id": 8339694644, "lat": 39.9515854, "lon": -86.3494645}, {"type": "node", "id": 8339694645, "lat": 39.951546, "lon": -86.3494632}, {"type": "node", "id": 8339694646, "lat": 39.9515528, "lon": -86.3491027}, {"type": "node", "id": 8339694647, "lat": 39.952163, "lon": -86.3490708}, {"type": "node", "id": 8339694648, "lat": 39.9521618, "lon": -86.3491324}, {"type": "node", "id": 8339694649, "lat": 39.9520696, "lon": -86.3491678}, {"type": "node", "id": 8339694650, "lat": 39.9520674, "lon": -86.3492993}, {"type": "node", "id": 8339694651, "lat": 39.9519517, "lon": -86.349296}, {"type": "node", "id": 8339694652, "lat": 39.9516148, "lon": -86.3490531}, {"type": "node", "id": 8339694653, "lat": 39.9516139, "lon": -86.3491047}, {"type": "node", "id": 8339694654, "lat": 39.9519391, "lon": -86.3495611}, {"type": "node", "id": 8339694655, "lat": 39.9519393, "lon": -86.3495453}, {"type": "node", "id": 8339694656, "lat": 39.9516669, "lon": -86.349537}, {"type": "node", "id": 8339694657, "lat": 39.9516012, "lon": -86.3495517}, {"type": "node", "id": 8339694658, "lat": 39.9516016, "lon": -86.349535}, {"type": "node", "id": 8339694659, "lat": 39.9516665, "lon": -86.3495582}, {"type": "node", "id": 8339694660, "lat": 39.951682, "lon": -86.3495586}, {"type": "node", "id": 8339694661, "lat": 39.9516825, "lon": -86.3495353}, {"type": "node", "id": 8339694662, "lat": 39.9517547, "lon": -86.3495375}, {"type": "node", "id": 8339694663, "lat": 39.9517543, "lon": -86.3495599}, {"type": "node", "id": 8339694664, "lat": 39.9517692, "lon": -86.3495604}, {"type": "node", "id": 8339694665, "lat": 39.9517695, "lon": -86.3495433}, {"type": "node", "id": 8339694666, "lat": 39.9518396, "lon": -86.3495454}, {"type": "node", "id": 8339694667, "lat": 39.9518392, "lon": -86.3495684}, {"type": "node", "id": 8339694668, "lat": 39.9518566, "lon": -86.3495689}, {"type": "node", "id": 8339694669, "lat": 39.9518571, "lon": -86.3495429}, {"type": "node", "id": 8339694705, "lat": 39.9516189, "lon": -86.348844}, {"type": "node", "id": 8339694706, "lat": 39.9519318, "lon": -86.348859}, {"type": "node", "id": 8339694707, "lat": 39.9519296, "lon": -86.3490632}, {"type": "node", "id": 8339694708, "lat": 39.9514825, "lon": -86.3488375}, {"type": "node", "id": 8339694709, "lat": 39.9514867, "lon": -86.3486861}, {"type": "node", "id": 8339694710, "lat": 39.951444, "lon": -86.3486841}, {"type": "node", "id": 8339694711, "lat": 39.9514487, "lon": -86.348517}, {"type": "node", "id": 8339694712, "lat": 39.951889, "lon": -86.3485435}, {"type": "node", "id": 8339694713, "lat": 39.9518846, "lon": -86.3487005}, {"type": "node", "id": 8339694714, "lat": 39.951952, "lon": -86.3487302}, {"type": "node", "id": 8339694715, "lat": 39.9519334, "lon": -86.3488019}, {"type": "node", "id": 8339694716, "lat": 39.9518704, "lon": -86.3485422}, {"type": "node", "id": 8339694717, "lat": 39.9518743, "lon": -86.3484306}, {"type": "node", "id": 8339694718, "lat": 39.9518135, "lon": -86.3483979}, {"type": "node", "id": 8339694719, "lat": 39.9518329, "lon": -86.3478423}, {"type": "node", "id": 8339694720, "lat": 39.9513694, "lon": -86.3478205}, {"type": "node", "id": 8339694721, "lat": 39.9513502, "lon": -86.3485111}, {"type": "node", "id": 8339694722, "lat": 39.9518469, "lon": -86.347843}, {"type": "node", "id": 8339694723, "lat": 39.9513802, "lon": -86.3474068}, {"type": "node", "id": 8339694724, "lat": 39.9518583, "lon": -86.3474285}, {"type": "node", "id": 8339694725, "lat": 39.9517944, "lon": -86.3474245}, {"type": "node", "id": 8339694726, "lat": 39.9518005, "lon": -86.3471792}, {"type": "node", "id": 8339694727, "lat": 39.9515963, "lon": -86.3471705}, {"type": "node", "id": 8339694728, "lat": 39.9515982, "lon": -86.3470931}, {"type": "node", "id": 8339694729, "lat": 39.9513883, "lon": -86.3470842}, {"type": "node", "id": 11396152433, "lat": 39.9507318, "lon": -86.3472844}, {"type": "node", "id": 11396152434, "lat": 39.9505865, "lon": -86.3472819}, {"type": "node", "id": 11396152435, "lat": 39.9505921, "lon": -86.3469567}, {"type": "node", "id": 11396152436, "lat": 39.9507411, "lon": -86.3469616}, {"type": "node", "id": 11396152441, "lat": 39.9506404, "lon": -86.349191}, {"type": "node", "id": 11396152442, "lat": 39.9505119, "lon": -86.3491876}, {"type": "node", "id": 11396152443, "lat": 39.9505242, "lon": -86.3488014}, {"type": "node", "id": 11396152444, "lat": 39.9506517, "lon": -86.3488094}, {"type": "node", "id": 11396152445, "lat": 39.9506476, "lon": -86.3489634}, {"type": "node", "id": 11396152446, "lat": 39.9506656, "lon": -86.348966}, {"type": "node", "id": 11396152447, "lat": 39.950665, "lon": -86.3490186}, {"type": "node", "id": 11396152448, "lat": 39.9506471, "lon": -86.3490186}, {"type": "node", "id": 11396152449, "lat": 39.9506297, "lon": -86.3504072}, {"type": "node", "id": 11396152450, "lat": 39.9504408, "lon": -86.3503994}, {"type": "node", "id": 11396152451, "lat": 39.9504452, "lon": -86.3499937}, {"type": "node", "id": 11396152452, "lat": 39.9506342, "lon": -86.3500015}, {"type": "node", "id": 11396152453, "lat": 39.9505911, "lon": -86.3511894}, {"type": "node", "id": 11396152454, "lat": 39.9504423, "lon": -86.3511855}, {"type": "node", "id": 11396152455, "lat": 39.9504512, "lon": -86.3508613}, {"type": "node", "id": 11396152456, "lat": 39.9506015, "lon": -86.3508672}, {"type": "way", "id": 766083133, "nodes": [7154879521, 7154879522, 7154879523, 7154879524, 7154879521], "tags": {"addr:city": "Whitestown", "addr:housenumber": "6330", "addr:postcode": "46075", "addr:state": "IN", "addr:street": "Center Drive", "amenity": "fast_food", "brand": "Burger King", "brand:wikidata": "Q177054", "building": "yes", "cuisine": "burger", "delivery": "yes", "drive_through": "yes", "internet_access": "wlan", "name": "Burger King", "opening_hours": "07:00-22:00", "phone": "+1 317-769-7929", "ref": "12321", "takeaway": "yes", "website": "https://www.bk.com/store-locator/store/restaurant_7127"}}, {"type": "way", "id": 766083135, "nodes": [7154879529, 7154879530, 7154879531, 7154879532, 7154879529], "tags": {"addr:city": "Whitestown", "addr:housenumber": "6430", "addr:postcode": "46075", "addr:state": "IN", "addr:street": "Center Drive", "amenity": "fast_food", "brand": "Taco Bell", "brand:wikidata": "Q752941", "building": "yes", "cuisine": "tex-mex", "drive_through": "yes", "name": "Taco Bell", "opening_hours": "Mo-Fr 07:00-02:00; Sa-Su 08:00-02:00", "phone": "+1 317-769-5244", "takeaway": "yes", "website": "https://locations.tacobell.com/in/whitestown/6430-center-dr.html"}}, {"type": "way", "id": 897247573, "nodes": [8339648162, 8339648163, 8339648164, 8339648165, 8339648162], "tags": {"addr:city": "Whitestown", "addr:housenumber": "6240", "addr:postcode": "46075", "addr:state": "IN", "addr:street": "Whitestown Parkway", "amenity": "fast_food", "branch": "Anson", "brand": "Chick-fil-A", "brand:wikidata": "Q491516", "building": "yes", "cuisine": "chicken", "delivery": "yes", "drive_through": "yes", "indoor_seating": "no", "internet_access": "wlan", "name": "Chick-fil-A", "opening_hours": "Mo-Sa 06:30-22:00; Su off", "phone": "+1 317-769-3551", "ref": "04130", "takeaway": "yes", "website": "https://www.chick-fil-a.com/locations/in/anson-in"}}, {"type": "way", "id": 897247574, "nodes": [8339648166, 8339648167, 8339648168, 8339648169, 8339648170, 8339648171, 8339648172, 8339648177, 8339648176, 8339648173, 8339648174, 8339648175, 8339648166], "tags": {"addr:city": "Whitestown", "addr:housenumber": "6196", "addr:postcode": "46075", "addr:state": "IN", "addr:street": "Whitestown Parkway", "amenity": "fast_food", "branch": "Whitestown", "brand": "Qdoba", "brand:wikidata": "Q1363885", "building": "yes", "cuisine": "mexican", "name": "Qdoba", "official_name": "Qdoba Mexican Grill", "opening_hours": "Mo-Th 10:30-22:00; Fr-Sa 10:30-23:00; Su 10:30-22:00", "phone": "+1 317-769-2167", "takeaway": "yes", "website": "https://locations.qdoba.com/us/in/whitestown/6196-whitestown-pkwy.html"}}, {"type": "way", "id": 897247575, "nodes": [8339648178, 8339648179, 8339648180, 8339648181, 8339648178], "tags": {"addr:city": "Whitestown", "addr:housenumber": "6120", "addr:postcode": "46075", "addr:state": "IN", "addr:street": "Whitestown Parkway", "amenity": "fast_food", "brand": "Wendy's", "brand:wikidata": "Q550258", "building": "yes", "cuisine": "burger", "name": "Wendy's", "opening_hours": "06:30-22:00", "opening_hours:drive_through": "Mo-Th 06:30-23:00; Fr-Sa 06:30-00:00; Su 06:30-23:00", "phone": "+1 317-769-4655", "takeaway": "yes", "website": "https://locations.wendys.com/united-states/in/whitestown/6120-whitestown-parkway"}}, {"type": "way", "id": 897247576, "nodes": [8339648182, 8339648183, 8339648184, 8339648185, 8339648186, 8339648187, 8339648182], "tags": {"addr:housenumber": "6082", "addr:state": "IN", "addr:street": "Whitestown Parkway", "amenity": "restaurant", "building": "yes", "cuisine": "barbecue", "name": "City Barbeque"}}, {"type": "way", "id": 897247577, "nodes": [8339648182, 8339648183, 8339648188, 8339648189, 8339648182], "tags": {"addr:housenumber": "6070", "addr:state": "IN", "addr:street": "Whitestown Parkway", "amenity": "bank", "brand": "Bank of America", "brand:wikidata": "Q487907", "building": "yes", "name": "Bank of America", "website": "https://locators.bankofamerica.com/in/whitestown/sales-office-atm-whitestown-110719.html"}}, {"type": "way", "id": 897247579, "nodes": [8339648191, 8339648192, 8339648193, 8339648190, 8339648191], "tags": {"addr:city": "Whitestown", "addr:housenumber": "6046", "addr:postcode": "46075", "addr:state": "IN", "addr:street": "Whitestown Parkway", "amenity": "fast_food", "brand": "Panera Bread", "brand:wikidata": "Q7130852", "building": "yes", "cuisine": "sandwich;bakery", "name": "Panera Bread", "opening_hours": "07:00-21:00", "phone": "+1 317-769-2302", "short_name": "Panera", "takeaway": "yes", "website": "https://locations.panerabread.com/in/whitestown/6046-whitestown-pkwy.html"}}, {"type": "way", "id": 897252807, "nodes": [8339686777, 8339686778, 8339686779, 8339686780, 8339686781, 8339686782, 8339686783, 8339686784, 8339686785, 8339686786, 8339686787, 8339686788, 8339686789, 8339686790, 8339686791, 8339686792, 8339686793, 8339686794, 8339686795, 8339686796, 8339686797, 8339686798, 8339686799, 8339686800, 8339686777], "tags": {"addr:housenumber": "6140", "addr:state": "IN", "addr:street": "Mills Drive", "brand": "Hobby Lobby", "brand:wikidata": "Q5874938", "building": "retail", "name": "Hobby Lobby", "shop": "craft"}}, {"type": "way", "id": 897252808, "nodes": [8339686782, 8339686801, 8339686802, 8339686803, 8339686805, 8339686804, 8339686783, 8339686782], "tags": {"addr:housenumber": "6140", "addr:state": "IN", "addr:street": "Mills Drive", "addr:unit": "200", "alt_name": "Burlington Coat Factory", "brand": "Burlington", "brand:wikidata": "Q4999220", "building": "retail", "name": "Burlington", "shop": "department_store"}}, {"type": "way", "id": 897252809, "nodes": [8339686805, 8339686806, 8339686807, 8339686808, 8339686809, 8339686804, 8339686805], "tags": {"addr:housenumber": "6140", "addr:state": "IN", "addr:street": "Mills Drive", "brand": "Five Below", "brand:wikidata": "Q5455836", "building": "retail", "name": "Five Below", "shop": "variety_store"}}, {"type": "way", "id": 897252811, "nodes": [8339694619, 8339694620, 8339694621, 8339686815, 8339694619], "tags": {"addr:housenumber": "6140", "addr:state": "IN", "addr:street": "Mills Drive", "brand": "TJ Maxx", "brand:wikidata": "Q10860683", "building": "retail", "name": "TJ Maxx", "shop": "department_store"}}, {"type": "way", "id": 897252812, "nodes": [8339694622, 8339694620, 8339694621, 8339694623, 8339694624, 8339694622], "tags": {"addr:city": "Whitestown", "addr:housenumber": "6140", "addr:postcode": "46075", "addr:state": "IN", "addr:street": "Mills Drive", "addr:unit": "600", "alt_name": "Ulta Skin Bar", "beauty": "skin_care", "brand": "Ulta Beauty", "brand:wikidata": "Q7880076", "building": "retail", "name": "Ulta Beauty", "opening_hours": "Mo-We 10:00-20:00; Th-Sa 10:00-21:00; Su 11:00-18:00", "payment:american_express": "yes", "payment:cash": "yes", "payment:contactless": "yes", "payment:debit_cards": "yes", "payment:discover_card": "yes", "payment:mastercard": "yes", "payment:visa": "yes", "phone": "+1 317-396-6651", "ref": "1437", "shop": "beauty", "website": "https://www.ulta.com/stores/whitestown-in-1437"}}, {"type": "way", "id": 897252813, "nodes": [8339694625, 8339694624, 8339694623, 8339694626, 8339694627, 8339694628, 8339694629, 8339694625], "tags": {"addr:housenumber": "6140", "addr:street": "Mills Drive", "brand": "Kirkland's", "brand:wikidata": "Q6415714", "building": "retail", "name": "Kirkland's", "shop": "interior_decoration"}}, {"type": "way", "id": 897252814, "nodes": [8339694630, 8339694631, 8339694632, 8339694633, 8339694634, 8339694635, 8339694636, 8339694637, 8339694638, 8339694639, 8339694640, 8339694641, 8339694630], "tags": {"addr:housenumber": "6124", "addr:state": "IN", "addr:street": "Mills Drive", "amenity": "restaurant", "building": "yes", "cuisine": "sushi;japanese", "name": "Harmony Steakhouse"}}, {"type": "way", "id": 897252815, "nodes": [8339694642, 8339694654, 8339694655, 8339694669, 8339694668, 8339694667, 8339694666, 8339694665, 8339694664, 8339694663, 8339694662, 8339694661, 8339694660, 8339694659, 8339694656, 8339694658, 8339694657, 8339694643, 8339694644, 8339694645, 8339694646, 8339694653, 8339694652, 8339694707, 8339694647, 8339694648, 8339694649, 8339694650, 8339694651, 8339694642], "tags": {"addr:city": "Whitestown", "addr:housenumber": "6298", "addr:postcode": "46075", "addr:state": "IN", "addr:street": "Perry Worth Road", "brand": "Ross", "brand:wikidata": "Q3442791", "building": "retail", "name": "Ross", "official_name": "Ross Dress for Less", "opening_hours": "Mo-Sa 09:30-21:30; Su 10:00-21:00", "phone": "+1 317-769-7757", "ref": "2148", "shop": "department_store"}}, {"type": "way", "id": 897252818, "nodes": [8339694652, 8339694705, 8339694706, 8339694707, 8339694652], "tags": {"addr:housenumber": "6298", "addr:state": "IN", "addr:street": "Mills Drive", "addr:unit": "200A", "brand": "Torrid", "brand:wikidata": "Q7827120", "building": "retail", "clothes": "oversize;women", "name": "Torrid", "shop": "clothes"}}, {"type": "way", "id": 897252819, "nodes": [8339694706, 8339694705, 8339694708, 8339694709, 8339694710, 8339694711, 8339694716, 8339694712, 8339694713, 8339694714, 8339694715, 8339694706], "tags": {"addr:city": "Whitestown", "addr:housenumber": "6298", "addr:postcode": "46075", "addr:state": "IN", "addr:street": "Mills Drive", "addr:unit": "300", "branch": "Whitestown", "brand": "Petco", "brand:wikidata": "Q7171798", "building": "retail", "name": "Petco", "opening_hours": "Mo-We 09:00-20:00; Th 09:00-19:00; Fr-Sa 09:00-20:00; Su 10:00-19:00", "phone": "+1 317-768-8000", "ref": "1691", "shop": "pet", "website": "https://stores.petco.com/in/whitestown/pet-supplies-whitestown-in-1691.html"}}, {"type": "way", "id": 897252820, "nodes": [8339694716, 8339694717, 8339694718, 8339694719, 8339694720, 8339694721, 8339694711, 8339694716], "tags": {"addr:housenumber": "6298", "addr:street": "Mills Drive", "alt_name": "Ashley Furniture", "brand": "Ashley HomeStore", "brand:wikidata": "Q4805437", "building": "retail", "name": "Ashley HomeStore", "shop": "furniture"}}, {"type": "way", "id": 897252821, "nodes": [8339694722, 8339694719, 8339694720, 8339694723, 8339694725, 8339694724, 8339694722], "tags": {"addr:housenumber": "6298", "addr:street": "Mills Drive", "brand": "Dollar Tree", "brand:wikidata": "Q5289230", "building": "retail", "check_date": "2024-07-11", "check_date:opening_hours": "2024-07-11", "name": "Dollar Tree", "opening_hours": "Mo-Sa 09:00-22:00; Su 09:00-21:00", "shop": "variety_store", "website": "https://www.dollartree.com/locations/in/whitestown/7748/"}}, {"type": "way", "id": 897252822, "nodes": [8339694725, 8339694726, 8339694727, 8339694728, 8339694729, 8339694723, 8339694725], "tags": {"addr:housenumber": "6298", "addr:street": "Mills Drive", "building": "retail"}}, {"type": "way", "id": 1228855561, "nodes": [11396152433, 11396152434, 11396152435, 11396152436, 11396152433], "tags": {"amenity": "restaurant", "brand": "Denny's", "brand:wikidata": "Q1189695", "building": "yes", "cuisine": "american", "name": "Denny's"}}, {"type": "way", "id": 1228855563, "nodes": [11396152441, 11396152442, 11396152443, 11396152444, 11396152445, 11396152446, 11396152447, 11396152448, 11396152441], "tags": {"addr:city": "Whitestown", "addr:housenumber": "6292", "addr:postcode": "46075", "addr:state": "IN", "addr:street": "Mills Drive", "amenity": "fast_food", "brand": "Culver's", "brand:wikidata": "Q1143589", "building": "yes", "check_date:opening_hours": "2024-06-09", "check_date:opening_hours:drive_through": "2024-06-09", "cuisine": "burger", "delivery": "yes", "drive_through": "yes", "indoor_seating": "yes", "name": "Culver's", "opening_hours": "Mo-Th 10:00-23:00; Fr-Sa 10:00-00:00; Su 10:00-23:00", "opening_hours:drive_through": "Mo-Th 10:00-23:00; Fr-Sa 10:00-00:00; Su 10:00-23:00", "phone": "+1 317-768-1041", "ref": "888", "takeaway": "yes", "toilets": "yes", "website": "https://www.culvers.com/restaurants/whitestown-in-mills-dr"}}, {"type": "way", "id": 1228855564, "nodes": [11396152449, 11396152450, 11396152451, 11396152452, 11396152449], "tags": {"building": "retail"}}, {"type": "way", "id": 1228855565, "nodes": [11396152453, 11396152454, 11396152455, 11396152456, 11396152453], "tags": {"building": "retail"}}]}