{"version": 0.6, "generator": "Overpass API 0.7.62.1 084b4234", "osm3s": {"timestamp_osm_base": "2024-07-23T20:14:44Z", "copyright": "The data included in this document is from www.openstreetmap.org. The data is made available under ODbL."}, "elements": [{"type": "node", "id": 3325199902, "lat": 44.3367034, "lon": -75.9174548}, {"type": "node", "id": 3325199903, "lat": 44.3367817, "lon": -75.9176134}, {"type": "node", "id": 3325199904, "lat": 44.3369078, "lon": -75.9172575}, {"type": "node", "id": 3325199905, "lat": 44.3369861, "lon": -75.9174161}, {"type": "node", "id": 3327045014, "lat": 44.3382532, "lon": -75.917067}, {"type": "node", "id": 3327045015, "lat": 44.338389, "lon": -75.9173312}, {"type": "node", "id": 3327045016, "lat": 44.3381569, "lon": -75.9171515}, {"type": "node", "id": 3327045019, "lat": 44.3380652, "lon": -75.917}, {"type": "node", "id": 3327045020, "lat": 44.338252, "lon": -75.9174731}, {"type": "node", "id": 3327045023, "lat": 44.3381189, "lon": -75.9171153}, {"type": "node", "id": 3327045034, "lat": 44.3380287, "lon": -75.9170134}, {"type": "node", "id": 3327045039, "lat": 44.3382858, "lon": -75.917126}, {"type": "node", "id": 4086834709, "lat": 44.3381252, "lon": -75.9172251}, {"type": "node", "id": 4086932011, "lat": 44.3373638, "lon": -75.9192921}, {"type": "node", "id": 4086932019, "lat": 44.3371993, "lon": -75.919253}, {"type": "node", "id": 4086932028, "lat": 44.3367675, "lon": -75.9184503}, {"type": "node", "id": 4086932053, "lat": 44.3366589, "lon": -75.9185717}, {"type": "node", "id": 4086932059, "lat": 44.33635, "lon": -75.918864}, {"type": "node", "id": 4086932064, "lat": 44.3365822, "lon": -75.9187487}, {"type": "node", "id": 4086935089, "lat": 44.3372673, "lon": -75.9193875}, {"type": "node", "id": 4086935126, "lat": 44.3364671, "lon": -75.9185905}, {"type": "node", "id": 4086935146, "lat": 44.3372956, "lon": -75.9191576}, {"type": "node", "id": 4086935158, "lat": 44.3364517, "lon": -75.9186173}, {"type": "node", "id": 4086935159, "lat": 44.3364548, "lon": -75.918748}, {"type": "node", "id": 4086935164, "lat": 44.3363117, "lon": -75.9187916}, {"type": "node", "id": 4086935184, "lat": 44.3364939, "lon": -75.9188292}, {"type": "node", "id": 4086935187, "lat": 44.3372886, "lon": -75.9193664}, {"type": "node", "id": 4086935193, "lat": 44.3364364, "lon": -75.9186602}, {"type": "node", "id": 4086935209, "lat": 44.3367126, "lon": -75.9186575}, {"type": "node", "id": 4086951208, "lat": 44.3371888, "lon": -75.9184134, "tags": {"amenity": "restaurant", "name": "Admirals' Inn"}}, {"type": "node", "id": 4868203028, "lat": 44.3320766, "lon": -75.9150828}, {"type": "node", "id": 4868203029, "lat": 44.3320138, "lon": -75.9149803}, {"type": "node", "id": 4868203030, "lat": 44.3320597, "lon": -75.9149254}, {"type": "node", "id": 4868203031, "lat": 44.3320299, "lon": -75.9148768}, {"type": "node", "id": 4868203032, "lat": 44.3320476, "lon": -75.9148555}, {"type": "node", "id": 4868203033, "lat": 44.3320184, "lon": -75.9148079}, {"type": "node", "id": 4868203034, "lat": 44.3319974, "lon": -75.914833}, {"type": "node", "id": 4868203035, "lat": 44.3319659, "lon": -75.9147815}, {"type": "node", "id": 4868203036, "lat": 44.3318002, "lon": -75.9149799}, {"type": "node", "id": 4868203037, "lat": 44.3318328, "lon": -75.9150332}, {"type": "node", "id": 4868203038, "lat": 44.3318259, "lon": -75.9150415}, {"type": "node", "id": 4868203039, "lat": 44.3318492, "lon": -75.9150795}, {"type": "node", "id": 4868203040, "lat": 44.3318578, "lon": -75.9150692}, {"type": "node", "id": 4868203041, "lat": 44.3318883, "lon": -75.915119}, {"type": "node", "id": 4868203042, "lat": 44.3319446, "lon": -75.9150515}, {"type": "node", "id": 4868203043, "lat": 44.3320115, "lon": -75.9151607}, {"type": "node", "id": 4958720664, "lat": 44.3370203, "lon": -75.919933, "tags": {"addr:city": "Alexandria Bay", "addr:housenumber": "2", "addr:postcode": "13607", "addr:street": "Church Street", "amenity": "restaurant", "cuisine": "regional;international", "name": "The Kitchen at Captain Visger", "opening_hours": "Mo-Su 16:00-21:00", "outdoor_seating": "yes", "phone": "315-681-3422", "source": "Bing Maps, Survey", "takeaway": "yes"}}, {"type": "node", "id": 4958720666, "lat": 44.3359594, "lon": -75.9175713, "tags": {"addr:city": "Alexandria Bay", "addr:housenumber": "45", "addr:postcode": "13607", "addr:street": "Church Street", "amenity": "bar", "name": "Dancing Dog Bar & Nightclub", "source": "Bing Maps, Survey"}}, {"type": "node", "id": 4958720667, "lat": 44.3364793, "lon": -75.9183008, "tags": {"addr:city": "Alexandria Bay", "addr:flats": "1-2", "addr:housenumber": "23", "addr:postcode": "13607", "addr:state": "NY", "addr:street": "Church Street", "amenity": "fast_food", "cuisine": "popcorn", "name": "Nav's Popcorn", "nysgissam:nysaddresspointid": "JEFF056138;JEFF005908;JEFF056139", "source": "Bing Maps, Website", "takeaway": "yes"}}, {"type": "node", "id": 4958720668, "lat": 44.3366011, "lon": -75.9184564, "tags": {"addr:city": "Alexandria Bay", "addr:housenumber": "15", "addr:postcode": "13607", "addr:state": "NY", "addr:street": "Church Street", "amenity": "bar", "name": "Riverboat Bar", "source": "Bing Maps, Survey"}}, {"type": "node", "id": 6605681094, "lat": 44.3368375, "lon": -75.9193019}, {"type": "node", "id": 6605681095, "lat": 44.3367986, "lon": -75.9192304}, {"type": "node", "id": 6605681096, "lat": 44.3367454, "lon": -75.919287}, {"type": "node", "id": 6605681097, "lat": 44.3367844, "lon": -75.9193585}, {"type": "node", "id": 6605681163, "lat": 44.3368058, "lon": -75.9185147}, {"type": "node", "id": 6605681165, "lat": 44.3368222, "lon": -75.9185405}, {"type": "node", "id": 6610787746, "lat": 44.338595, "lon": -75.9175117, "tags": {"name": "Uncle Sam boat tours", "tourism": "attraction"}}, {"type": "node", "id": 7564373083, "lat": 44.335848, "lon": -75.918635}, {"type": "node", "id": 7564373084, "lat": 44.335962, "lon": -75.918537}, {"type": "node", "id": 7564403885, "lat": 44.335953, "lon": -75.918518}, {"type": "node", "id": 7564403886, "lat": 44.336041, "lon": -75.918442}, {"type": "node", "id": 7564403887, "lat": 44.336088, "lon": -75.918549}, {"type": "node", "id": 7564403888, "lat": 44.336173, "lon": -75.918476}, {"type": "node", "id": 7564403889, "lat": 44.336265, "lon": -75.918683}, {"type": "node", "id": 7564403890, "lat": 44.335979, "lon": -75.91893}, {"type": "way", "id": 325897515, "nodes": [3325199905, 3325199904, 3325199902, 3325199903, 3325199905], "tags": {"addr:city": "Alexandria Bay", "addr:flats": "A;B", "addr:housenumber": "4", "addr:postcode": "13607", "addr:state": "NY", "addr:street": "Market Street", "amenity": "bank", "building": "yes", "name": "Watertown Savings Bank", "nysgissam:nysaddresspointid": "JEFF007906;JEFF053004;JEFF053003", "opening_hours": "Mo-Fr 09:00-16:00", "operator": "Watertown Savings Bank", "phone": "3154822544", "source": "Own Survey, bing Maps"}}, {"type": "way", "id": 326083800, "nodes": [3327045020, 4086834709, 3327045034, 3327045019, 3327045023, 3327045016, 3327045014, 3327045039, 3327045015, 3327045020], "tags": {"addr:city": "Alexandria Bay", "addr:housenumber": "42", "addr:postcode": "13607", "addr:street": "James Street", "amenity": "restaurant", "building": "yes", "name": "Riley's by the River"}}, {"type": "way", "id": 406643890, "nodes": [4086932011, 4086935146, 4086932019, 4086935089, 4086935187, 4086932011], "tags": {"addr:city": "Alexandria Bay", "addr:housenumber": "29", "addr:postcode": "13607", "addr:state": "NY", "addr:street": "Market Street", "amenity": "fast_food", "building": "yes", "delivery": "no", "drive_through": "no", "name": "Jreck Subs", "outdoor_seating": "no", "smoking": "no"}}, {"type": "way", "id": 406643895, "nodes": [4086935184, 4086932064, 4086935126, 4086935158, 4086935193, 4086935164, 4086932059, 4086935159, 4086935184], "tags": {"addr:city": "Alexandria Bay", "addr:housenumber": "24", "addr:postcode": "13607", "addr:state": "NY", "addr:street": "Church Street", "amenity": "restaurant", "building": "yes", "building:levels": "1", "cuisine": "regional;brunch;breakfast", "delivery": "no", "name": "Chez Paris", "source": "Own Survey, bing Maps"}}, {"type": "way", "id": 406643901, "nodes": [4086935209, 4086932053, 4086932028, 6605681163, 6605681165, 4086935209], "tags": {"addr:city": "Alexandria Bay", "addr:housenumber": "19", "addr:postcode": "13607", "addr:state": "NY", "addr:street": "Church Street", "amenity": "restaurant", "building": "yes", "cuisine": "pizza", "name": "Josie's Pizza"}}, {"type": "way", "id": 495035737, "nodes": [4868203028, 4868203029, 4868203030, 4868203031, 4868203032, 4868203033, 4868203034, 4868203035, 4868203036, 4868203037, 4868203038, 4868203039, 4868203040, 4868203041, 4868203042, 4868203043, 4868203028], "tags": {"addr:city": "Alexandria Bay", "addr:housenumber": "15", "addr:postcode": "13607", "addr:state": "NY", "addr:street": "State Route 12", "amenity": "bank", "atm": "yes", "building": "yes", "drive_through": "yes", "name": "Gouverneur Savings & Loan Association", "opening_hours": "Mo-Th 08:15-16:00; Fr 08:15-18:00", "operator": "Gouverneur Savings & Loan Association", "phone": "+1-315-482-4197", "source": "Own Survey, Webpage Info"}}, {"type": "way", "id": 703403933, "nodes": [6605681094, 6605681095, 6605681096, 6605681097, 6605681094], "tags": {"addr:city": "Alexandria Bay", "addr:housenumber": "5", "addr:postcode": "13607", "addr:state": "NY", "addr:street": "James Street", "amenity": "ice_cream", "building": "yes", "name": "The Whole Scoop"}}, {"type": "way", "id": 808976791, "nodes": [7564403890, 7564403889, 7564403888, 7564403887, 7564403886, 7564403885, 7564373084, 7564373083, 7564403890], "tags": {"addr:city": "Alexandria Bay", "addr:housenumber": "34", "addr:postcode": "13607", "addr:state": "NY", "addr:street": "Church Street", "amenity": "restaurant", "building": "yes", "cuisine": "regional;american;seafood;pasta;steak_house", "delivery": "no", "name": "Cavallario's Steakhouse and Seafood", "opening_hours": "May-Oct Mo-Su 14:00-22:00", "source": "Own Survey, bing Maps"}}]}