{"version": 0.6, "generator": "Overpass API 0.7.62.1 084b4234", "osm3s": {"timestamp_osm_base": "2024-07-25T18:32:30Z", "copyright": "The data included in this document is from www.openstreetmap.org. The data is made available under ODbL."}, "elements": [{"type": "node", "id": 3140881672, "lat": 36.7171916, "lon": -78.1174787, "tags": {"addr:city": "South Hill", "addr:housenumber": "916", "addr:postcode": "23970", "addr:state": "VA", "addr:street": "East Atlantic Street", "amenity": "fast_food", "brand": "McDonald's", "brand:wikidata": "Q38076", "cuisine": "burger", "name": "McDonald's", "takeaway": "yes", "website": "https://www.mcdonalds.com/us/en-us/location/va/south-hill/916-e-atlantic-st/5279.html"}}, {"type": "node", "id": 3140881677, "lat": 36.7185472, "lon": -78.1167488, "tags": {"addr:city": "South Hill", "addr:housenumber": "829", "addr:postcode": "23970", "addr:state": "VA", "addr:street": "East Atlantic Street", "amenity": "restaurant", "brand": "Pizza Hut", "brand:wikidata": "Q191615", "cuisine": "pizza", "name": "Pizza Hut", "phone": "+1 434-447-3757", "website": "https://locations.pizzahut.com/va/south-hill/829-e-atlantic-st"}}, {"type": "node", "id": 3140881678, "lat": 36.7181258, "lon": -78.1164565, "tags": {"addr:city": "South Hill", "addr:housenumber": "903", "addr:postcode": "23970", "addr:state": "VA", "addr:street": "East Atlantic Street", "amenity": "fast_food", "brand": "Hardee's", "brand:wikidata": "Q1585088", "cuisine": "burger", "name": "Hardee's", "phone": "+1 434-447-4898", "ref": "1503442", "takeaway": "yes", "website": "https://locations.hardees.com/va/south-hill/903-east-atlantic-street"}}, {"type": "node", "id": 3140881681, "lat": 36.7197314, "lon": -78.1164117}, {"type": "node", "id": 3140881687, "lat": 36.7205093, "lon": -78.1167754}, {"type": "node", "id": 3140881688, "lat": 36.7207061, "lon": -78.1161219}, {"type": "node", "id": 3140881689, "lat": 36.71993, "lon": -78.1157552}, {"type": "node", "id": 3140881690, "lat": 36.7198453, "lon": -78.1160358}, {"type": "node", "id": 3140881697, "lat": 36.7206247, "lon": -78.1163899}, {"type": "node", "id": 3140881708, "lat": 36.7201181, "lon": -78.1188589, "tags": {"addr:city": "South Hill", "addr:housenumber": "706", "addr:postcode": "23970-3408", "addr:state": "VA", "addr:street": "East Atlantic Avenue", "amenity": "fast_food", "brand": "Burger King", "brand:wikidata": "Q177054", "cuisine": "burger", "delivery": "yes", "drive_through": "yes", "internet_access": "wlan", "name": "Burger King", "opening_hours": "Mo-Sa 05:30-22:00; Su 07:00-22:00", "phone": "+1 434-447-1086", "ref": "11391", "takeaway": "yes", "website": "https://www.bk.com/store-locator/store/restaurant_6512"}}, {"type": "node", "id": 3140881723, "lat": 36.7194325, "lon": -78.1162315, "tags": {"amenity": "cinema", "name": "South Hill Cinema", "wikidata": "Q43301786"}}, {"type": "node", "id": 3140881728, "lat": 36.7210042, "lon": -78.11695, "tags": {"amenity": "restaurant", "name": "New China"}}, {"type": "node", "id": 3140909672, "lat": 36.7209778, "lon": -78.1182189, "tags": {"amenity": "fast_food", "brand": "Taco Bell", "brand:wikidata": "Q752941", "cuisine": "tex-mex", "name": "Taco Bell", "takeaway": "yes", "website": "https://locations.tacobell.com/va/south-hill/703-e--atlantic.html"}}, {"type": "node", "id": 3140909674, "lat": 36.7195152, "lon": -78.1184991, "tags": {"addr:city": "South Hill", "addr:housenumber": "808", "addr:postcode": "23970", "addr:state": "VA", "addr:street": "East Atlantic Street", "amenity": "fast_food", "brand": "Wendy's", "brand:wikidata": "Q550258", "cuisine": "burger", "drive_through": "yes", "name": "Wendy's", "opening_hours": "09:00-22:00", "opening_hours:drive_through": "Mo-Su 06:30-00:00", "phone": "+1 434-584-9466", "takeaway": "yes", "website": "https://locations.wendys.com/united-states/va/south-hill/808-e-atlantic-st"}}, {"type": "node", "id": 3140910731, "lat": 36.7214641, "lon": -78.1184552, "tags": {"amenity": "restaurant", "name": "Brian's Steak House"}}, {"type": "node", "id": 3140910746, "lat": 36.7223198, "lon": -78.118954, "tags": {"amenity": "pharmacy", "healthcare": "pharmacy", "name": "The Medicine Shoppe"}}, {"type": "node", "id": 3140910747, "lat": 36.7220604, "lon": -78.1186939, "tags": {"addr:city": "South Hill", "addr:housenumber": "621", "addr:postcode": "23970", "addr:state": "VA", "addr:street": "East Atlantic Street", "amenity": "fast_food", "brand": "Subway", "brand:wikidata": "Q244457", "cuisine": "sandwich", "name": "Subway", "opening_hours": "09:00-21:30", "phone": "+1 434-447-3493", "takeaway": "yes", "website": "https://restaurants.subway.com/united-states/va/south-hill/621-e-atlantic-st"}}, {"type": "node", "id": 3140910756, "lat": 36.7212064, "lon": -78.1193131, "tags": {"addr:city": "South Hill", "addr:housenumber": "622", "addr:postcode": "23970", "addr:state": "VA", "addr:street": "East Atlantic Street", "amenity": "bank", "name": "Citizens Bank & Trust", "not:brand:wikidata": "Q5122694"}}, {"type": "node", "id": 3204051332, "lat": 36.7184904, "lon": -78.1148713}, {"type": "node", "id": 3204051336, "lat": 36.718569, "lon": -78.1145535}, {"type": "node", "id": 3204051339, "lat": 36.7187154, "lon": -78.1149776}, {"type": "node", "id": 3204051340, "lat": 36.7187897, "lon": -78.1146653}, {"type": "node", "id": 3204051392, "lat": 36.720852, "lon": -78.1182983}, {"type": "node", "id": 3204051395, "lat": 36.7209459, "lon": -78.1183688}, {"type": "node", "id": 3204051396, "lat": 36.720982, "lon": -78.1180285}, {"type": "node", "id": 3204051399, "lat": 36.7210759, "lon": -78.1180989}, {"type": "node", "id": 11228124563, "lat": 36.7194294, "lon": -78.1173853}, {"type": "node", "id": 11228124564, "lat": 36.7195148, "lon": -78.1171164}, {"type": "node", "id": 11228124565, "lat": 36.7192398, "lon": -78.1169634}, {"type": "node", "id": 11228124566, "lat": 36.7191544, "lon": -78.1172647}, {"type": "way", "id": 308807601, "nodes": [3140881681, 3140881687, 3140881697, 3140881688, 3140881689, 3140881690, 3140881681], "tags": {"addr:city": "South Hill", "addr:housenumber": "715", "addr:postcode": "23970", "addr:state": "VA", "addr:street": "East Atlantic Street", "brand": "Food Lion", "brand:wikidata": "Q1435950", "building": "retail", "name": "Food Lion", "shop": "supermarket"}}, {"type": "way", "id": 314358113, "nodes": [3204051339, 3204051340, 3204051336, 3204051332, 3204051339], "tags": {"amenity": "cinema", "building": "yes", "building:levels": "1", "name": "South Hill Movie Theater"}}, {"type": "way", "id": 314358129, "nodes": [3204051392, 3204051395, 3204051399, 3204051396, 3204051392], "tags": {"addr:city": "South Hill", "addr:housenumber": "701", "addr:postcode": "23970", "addr:state": "VA", "addr:street": "East Atlantic Street", "amenity": "fast_food", "brand": "Taco Bell", "brand:wikidata": "Q752941", "building": "yes", "cuisine": "tex-mex", "name": "Taco Bell", "phone": "+1 434-447-2611", "takeaway": "yes", "website": "https://locations.tacobell.com/va/south-hill/703-e--atlantic.html"}}, {"type": "way", "id": 1211949902, "nodes": [11228124563, 11228124564, 11228124565, 11228124566, 11228124563], "tags": {"addr:city": "South Hill", "addr:housenumber": "807", "addr:postcode": "23970", "addr:state": "VA", "addr:street": "East Atlantic Street", "amenity": "pharmacy", "brand": "CVS Pharmacy", "brand:website": "https://www.cvs.com/", "brand:wikidata": "Q2078880", "brand:wikipedia": "en:CVS Pharmacy", "building": "yes", "healthcare": "pharmacy", "name": "CVS Pharmacy", "short_name": "CVS", "website": "https://www.cvs.com/store-locator/south-hill-va-pharmacies/807-e-atlantic-st-south-hill-va-23970/storeid=5507"}}]}