{"version": 0.6, "generator": "Overpass API 0.7.62.1 084b4234", "osm3s": {"timestamp_osm_base": "2024-07-23T20:24:02Z", "copyright": "The data included in this document is from www.openstreetmap.org. The data is made available under ODbL."}, "elements": [{"type": "node", "id": 2756692037, "lat": 37.0941811, "lon": -85.3047328}, {"type": "node", "id": 2756692038, "lat": 37.0938623, "lon": -85.3043439}, {"type": "node", "id": 2756692039, "lat": 37.0941511, "lon": -85.3039738}, {"type": "node", "id": 2756692040, "lat": 37.0944742, "lon": -85.3043546}, {"type": "node", "id": 2756692041, "lat": 37.0928525, "lon": -85.3026621}, {"type": "node", "id": 2756692043, "lat": 37.0926022, "lon": -85.3024261}, {"type": "node", "id": 2756692044, "lat": 37.0927947, "lon": -85.302123}, {"type": "node", "id": 2756692045, "lat": 37.0930429, "lon": -85.3023564}, {"type": "node", "id": 2767087471, "lat": 37.0948331, "lon": -85.3008995}, {"type": "node", "id": 2767087472, "lat": 37.094632, "lon": -85.3010336}, {"type": "node", "id": 2767087473, "lat": 37.0945507, "lon": -85.3008727}, {"type": "node", "id": 2767087475, "lat": 37.0947604, "lon": -85.3007439}, {"type": "node", "id": 3237929021, "lat": 37.0922597, "lon": -85.3045096, "tags": {"addr:city": "Columbia", "addr:housenumber": "1002", "addr:postcode": "42728", "addr:state": "KY", "addr:street": "Jamestown Street", "amenity": "fast_food", "brand": "Wendy's", "brand:wikidata": "Q550258", "cuisine": "burger", "drive_through": "yes", "name": "Wendy's", "opening_hours": "07:00-22:00", "opening_hours:drive_through": "Mo-Su 06:30-22:00", "phone": "+1 270-384-3800", "takeaway": "yes", "toilets:wheelchair": "yes", "website": "https://locations.wendys.com/united-states/ky/columbia/1002-jamestown-street", "wheelchair": "yes", "wheelchair:description": "Curb cut is at front of building"}}, {"type": "node", "id": 3237929025, "lat": 37.0938293, "lon": -85.3046193, "tags": {"addr:city": "Columbia", "addr:housenumber": "960", "addr:postcode": "42728", "addr:state": "KY", "addr:street": "Jamestown Street", "amenity": "restaurant", "name": "Trey's Garden", "toilets:wheelchair": "no", "wheelchair": "yes", "wheelchair:description": "Bathrooms very small, would be hard to get wheelchair in bathroom and space to move around in bathroom"}}, {"type": "node", "id": 3237929026, "lat": 37.0931828, "lon": -85.3041026, "tags": {"addr:city": "Columbia", "addr:housenumber": "980", "addr:postcode": "42728", "addr:state": "KY", "addr:street": "Jamestown Street", "amenity": "fast_food", "brand": "McDonald's", "brand:wikidata": "Q38076", "cuisine": "burger", "name": "McDonald's", "takeaway": "yes", "toilets:wheelchair": "yes", "website": "https://www.mcdonalds.com/us/en-us/location/ky/columbia/980-jamestown-rd/12128.html", "wheelchair": "yes"}}, {"type": "node", "id": 5222023223, "lat": 37.0938088, "lon": -85.3042944, "tags": {"addr:city": "Columbia", "addr:housenumber": "950", "addr:postcode": "42728", "addr:state": "KY", "addr:street": "Jamestown Street", "amenity": "fast_food", "brand": "Subway", "brand:wikidata": "Q244457", "cuisine": "sandwich", "name": "Subway", "opening_hours": "09:00-22:00", "phone": "+1 270-384-9422", "takeaway": "yes", "toilets:wheelchair": "no", "website": "https://restaurants.subway.com/united-states/ky/columbia/950-jamestown-st", "wheelchair": "yes"}}, {"type": "node", "id": 5286450421, "lat": 37.0966106, "lon": -85.3027569, "tags": {"addr:city": "Columbia", "addr:housenumber": "700", "addr:postcode": "42728", "addr:state": "KY", "addr:street": "Jamestown Street", "amenity": "bank", "name": "United Citizens Bank South Central Kentucky", "toilets:wheelchair": "yes", "wheelchair": "yes"}}, {"type": "node", "id": 5322498721, "lat": 37.0949196, "lon": -85.3014238, "tags": {"addr:city": "Columbia", "addr:street": "Russell Road", "amenity": "fast_food", "name": "Best Donuts", "wheelchair": "limited"}}, {"type": "node", "id": 5322499921, "lat": 37.0950613, "lon": -85.3017264, "tags": {"addr:city": "Columbia", "addr:housenumber": "803", "addr:postcode": "42728", "addr:state": "KY", "addr:street": "Russell Road", "amenity": "pharmacy", "brand": "CVS Pharmacy", "brand:website": "https://www.cvs.com/", "brand:wikidata": "Q2078880", "brand:wikipedia": "en:CVS Pharmacy", "dispensing": "yes", "healthcare": "pharmacy", "name": "CVS Pharmacy", "phone": "+1 270 384 0539", "ref": "10049", "short_name": "CVS", "toilets:wheelchair": "yes", "website": "https://www.cvs.com/store-locator/cvs-pharmacy-address/803+Jamestown+Street-Columbia-KY-42728/storeid=10049", "wheelchair": "yes"}}, {"type": "node", "id": 5322506022, "lat": 37.0927947, "lon": -85.3035765, "tags": {"addr:city": "Columbia", "addr:housenumber": "899", "addr:postcode": "42728", "addr:state": "KY", "addr:street": "Jamestown Street", "amenity": "fast_food", "brand": "Taco Bell", "brand:wikidata": "Q752941", "cuisine": "tex-mex", "name": "Taco Bell", "phone": "+1 270-384-2025", "takeaway": "yes", "toilets:wheelchair": "yes", "website": "https://locations.tacobell.com/ky/columbia/899-jamestown-road.html", "wheelchair": "yes"}}, {"type": "node", "id": 5322506023, "lat": 37.0922413, "lon": -85.3043617}, {"type": "node", "id": 5322513721, "lat": 37.0928041, "lon": -85.3041914, "tags": {"addr:city": "Columbia", "addr:housenumber": "990", "addr:postcode": "42728", "addr:state": "KY", "addr:street": "Jamestown Street", "amenity": "restaurant", "brand": "Pizza Hut", "brand:wikidata": "Q191615", "cuisine": "pizza", "name": "Pizza Hut", "phone": "+1 270-384-5331", "toilets:wheelchair": "yes", "website": "https://locations.pizzahut.com/ky/columbia/990-jamestown-road", "wheelchair": "yes"}}, {"type": "node", "id": 5322526422, "lat": 37.0961929, "lon": -85.302565, "tags": {"addr:city": "Columbia", "addr:housenumber": "706", "addr:postcode": "42728", "addr:state": "KY", "addr:street": "Jamestown Street", "amenity": "pharmacy", "dispensing": "yes", "healthcare": "pharmacy", "name": "Century Medicines", "toilets:wheelchair": "no", "wheelchair": "no"}}, {"type": "node", "id": 6172549957, "lat": 37.0921731, "lon": -85.3044492}, {"type": "node", "id": 6172549958, "lat": 37.0922151, "lon": -85.3045007}, {"type": "node", "id": 6172549959, "lat": 37.0922055, "lon": -85.3045131}, {"type": "node", "id": 6172549960, "lat": 37.0923363, "lon": -85.3046734}, {"type": "node", "id": 6172549961, "lat": 37.0923817, "lon": -85.3046151}, {"type": "node", "id": 6172549962, "lat": 37.0923568, "lon": -85.3045845}, {"type": "node", "id": 6172549963, "lat": 37.0923892, "lon": -85.3045429}, {"type": "node", "id": 9634841514, "lat": 37.0917434, "lon": -85.3039966, "tags": {"amenity": "bank", "name": "Community Trust bank"}}, {"type": "node", "id": 9634841515, "lat": 37.0921471, "lon": -85.3036511, "tags": {"amenity": "fast_food", "brand": "Cook Out", "brand:wikidata": "Q5166992", "cuisine": "american", "name": "Cook Out", "takeaway": "yes"}}, {"type": "way", "id": 270655545, "nodes": [2756692037, 2756692038, 2756692039, 2756692040, 2756692037], "tags": {"addr:city": "Columbia", "addr:housenumber": "900", "addr:postcode": "42728", "addr:state": "KY", "addr:street": "Jamestown Street", "brand": "IGA", "brand:wikidata": "Q3146662", "building": "retail", "name": "IGA", "phone": "+1 270-384-3106", "ref": "11", "shop": "supermarket"}}, {"type": "way", "id": 270655546, "nodes": [2756692041, 2756692043, 2756692044, 2756692045, 2756692041], "tags": {"addr:city": "Columbia", "addr:housenumber": "819", "addr:postcode": "42728", "addr:state": "KY", "addr:street": "Jamestown Street", "amenity": "restaurant", "building": "yes", "name": "Fiesta Mexico", "toilets:wheelchair": "no", "wheelchair": "yes"}}, {"type": "way", "id": 271768329, "nodes": [2767087471, 2767087472, 2767087473, 2767087475, 2767087471], "tags": {"addr:city": "Columbia", "addr:housenumber": "712", "addr:postcode": "42728", "addr:state": "KY", "addr:street": "Russell Road", "amenity": "restaurant", "building": "yes", "cuisine": "american", "name": "Circle R", "toilets:wheelchair": "yes", "wheelchair": "yes"}}, {"type": "way", "id": 659277637, "nodes": [5322506023, 6172549963, 6172549962, 6172549961, 6172549960, 6172549959, 6172549958, 6172549957, 5322506023], "tags": {"building": "retail"}}]}