{"version": 0.6, "generator": "Overpass API 0.7.62.1 084b4234", "osm3s": {"timestamp_osm_base": "2024-07-23T20:21:59Z", "copyright": "The data included in this document is from www.openstreetmap.org. The data is made available under ODbL."}, "elements": [{"type": "node", "id": 467877145, "lat": 43.1590053, "lon": -77.6202017}, {"type": "node", "id": 467877152, "lat": 43.1588971, "lon": -77.62037}, {"type": "node", "id": 467877158, "lat": 43.1587423, "lon": -77.6205622}, {"type": "node", "id": 467877178, "lat": 43.1585525, "lon": -77.6208907}, {"type": "node", "id": 467877184, "lat": 43.1582433, "lon": -77.6210383}, {"type": "node", "id": 467877196, "lat": 43.1579115, "lon": -77.6209492}, {"type": "node", "id": 467877202, "lat": 43.1577463, "lon": -77.6207967}, {"type": "node", "id": 467877208, "lat": 43.1576497, "lon": -77.6206657}, {"type": "node", "id": 467877212, "lat": 43.157559, "lon": -77.6204506}, {"type": "node", "id": 467877218, "lat": 43.1575027, "lon": -77.6202188}, {"type": "node", "id": 467877223, "lat": 43.1574688, "lon": -77.6200511}, {"type": "node", "id": 467877227, "lat": 43.1574641, "lon": -77.6198936}, {"type": "node", "id": 467877241, "lat": 43.1574661, "lon": -77.6198065}, {"type": "node", "id": 467877246, "lat": 43.1575429, "lon": -77.6198091}, {"type": "node", "id": 467877250, "lat": 43.1575649, "lon": -77.6194725}, {"type": "node", "id": 467877256, "lat": 43.1578138, "lon": -77.6194302}, {"type": "node", "id": 467877259, "lat": 43.1579137, "lon": -77.6194465}, {"type": "node", "id": 467877332, "lat": 43.1579024, "lon": -77.6195753}, {"type": "node", "id": 467877346, "lat": 43.1579162, "lon": -77.6196953}, {"type": "node", "id": 467877351, "lat": 43.1580127, "lon": -77.620129}, {"type": "node", "id": 467877356, "lat": 43.1580292, "lon": -77.620203}, {"type": "node", "id": 467877359, "lat": 43.1580898, "lon": -77.6203044}, {"type": "node", "id": 467877364, "lat": 43.1581546, "lon": -77.6203395}, {"type": "node", "id": 467877367, "lat": 43.1582444, "lon": -77.6203292}, {"type": "node", "id": 467877372, "lat": 43.1583339, "lon": -77.6202461}, {"type": "node", "id": 467877377, "lat": 43.1585883, "lon": -77.620017}, {"type": "node", "id": 467877383, "lat": 43.1587213, "lon": -77.6198293}, {"type": "node", "id": 1141792401, "lat": 43.1613585, "lon": -77.6140791, "tags": {"name": "High Falls Overlook", "tourism": "viewpoint"}}, {"type": "node", "id": 1242626868, "lat": 43.1545853, "lon": -77.6081245}, {"type": "node", "id": 1242626915, "lat": 43.1544182, "lon": -77.6087061}, {"type": "node", "id": 1243586413, "lat": 43.1545027, "lon": -77.6128402}, {"type": "node", "id": 1243586416, "lat": 43.1546006, "lon": -77.6122501}, {"type": "node", "id": 1243586438, "lat": 43.1546202, "lon": -77.6128938}, {"type": "node", "id": 1243586440, "lat": 43.154761, "lon": -77.6123198}, {"type": "node", "id": 1496788697, "lat": 43.1547706, "lon": -77.6173728}, {"type": "node", "id": 1496788698, "lat": 43.1548959, "lon": -77.6172508}, {"type": "node", "id": 1496788699, "lat": 43.1548039, "lon": -77.617169}, {"type": "node", "id": 1496788700, "lat": 43.1548274, "lon": -77.6174198}, {"type": "node", "id": 1500718606, "lat": 43.1538816, "lon": -77.6212653, "tags": {"amenity": "fast_food", "cuisine": "regional", "name": "Nick Tahou's Hots", "source": "Local Knowledge", "website": "https://www.garbageplate.com/", "wikidata": "Q7028017"}}, {"type": "node", "id": 2941312368, "lat": 43.1578104, "lon": -77.6194734}, {"type": "node", "id": 2941312369, "lat": 43.1579264, "lon": -77.6195794}, {"type": "node", "id": 2941312382, "lat": 43.1588081, "lon": -77.6199602}, {"type": "node", "id": 2941312390, "lat": 43.1586024, "lon": -77.6208237}, {"type": "node", "id": 2941312391, "lat": 43.1586917, "lon": -77.6206249}, {"type": "node", "id": 2941312392, "lat": 43.1587198, "lon": -77.6206587}, {"type": "node", "id": 2941312393, "lat": 43.1583593, "lon": -77.6211556}, {"type": "node", "id": 2941312394, "lat": 43.1581778, "lon": -77.6210228}, {"type": "node", "id": 2941312395, "lat": 43.1579611, "lon": -77.6209752}, {"type": "node", "id": 2941312396, "lat": 43.1581714, "lon": -77.6210664}, {"type": "node", "id": 2941312397, "lat": 43.1581029, "lon": -77.6210483}, {"type": "node", "id": 2941312398, "lat": 43.1580917, "lon": -77.6210705}, {"type": "node", "id": 2941312399, "lat": 43.1580731, "lon": -77.6210819}, {"type": "node", "id": 2941312400, "lat": 43.1580496, "lon": -77.6210819}, {"type": "node", "id": 2941319201, "lat": 43.1580252, "lon": -77.6210785}, {"type": "node", "id": 2941319202, "lat": 43.1580027, "lon": -77.6210611}, {"type": "node", "id": 2941319203, "lat": 43.1579836, "lon": -77.621041}, {"type": "node", "id": 2941319204, "lat": 43.1579665, "lon": -77.6210101}, {"type": "node", "id": 2941319789, "lat": 43.1579638, "lon": -77.6209929}, {"type": "node", "id": 2941319796, "lat": 43.1576285, "lon": -77.6206153}, {"type": "node", "id": 3273817420, "lat": 43.1575853, "lon": -77.6146168, "tags": {"addr:city": "Rochester", "addr:country": "US", "addr:housenumber": "123", "addr:postcode": "14614", "addr:state": "NY", "addr:street": "State Street", "amenity": "restaurant", "cuisine": "pizza", "name": "Pizza Stop", "opening_hours": "Mo-Th 10:00-19:00; Fr 10:00-20:00; Sa 14:00-21:00", "phone": "+1 585-546-7252", "smoking": "no", "website": "https://www.pizzastop1.com/"}}, {"type": "node", "id": 3849204659, "lat": 43.1601612, "lon": -77.6157501}, {"type": "node", "id": 3849204660, "lat": 43.1602159, "lon": -77.6156766}, {"type": "node", "id": 3849204661, "lat": 43.1601022, "lon": -77.615523}, {"type": "node", "id": 3849204662, "lat": 43.1602183, "lon": -77.6158251}, {"type": "node", "id": 3849204663, "lat": 43.1601114, "lon": -77.6160665}, {"type": "node", "id": 3849204664, "lat": 43.1599076, "lon": -77.6157879}, {"type": "node", "id": 4239863491, "lat": 43.1546894, "lon": -77.6142697, "tags": {"addr:city": "Rochester", "addr:housenumber": "13", "addr:postcode": "14614", "addr:state": "NY", "addr:street": "South Fitzhugh Street", "amenity": "cafe", "contact:sms": "+1 585 636 3675", "cuisine": "deli;tea;sandwich;grill;coffee_shop;breakfast", "diet:vegan": "yes", "diet:vegetarian": "yes", "email": "hopeyourehungry@founderscaferochester.com", "internet_access": "wlan", "name": "Founders Caf\u00e9", "opening_hours": "Mo-Fr 07:00-17:00; Sa 09:00-15:00", "phone": "+1 585 770 1721", "website": "https://founderscaferochester.com/"}}, {"type": "node", "id": 5388417886, "lat": 43.1582106, "lon": -77.6210306, "tags": {"access": "yes", "entrance": "main", "name": "Main Gate"}}, {"type": "node", "id": 5389044373, "lat": 43.1547214, "lon": -77.6092239}, {"type": "node", "id": 5389044374, "lat": 43.1547239, "lon": -77.6091656}, {"type": "node", "id": 5389044375, "lat": 43.1547415, "lon": -77.6091669}, {"type": "node", "id": 5389044376, "lat": 43.154739, "lon": -77.6092253}, {"type": "node", "id": 5502506672, "lat": 43.161008, "lon": -77.6161016, "tags": {"addr:city": "Rochester", "addr:housenumber": "60", "addr:postcode": "14614", "addr:state": "NY", "addr:street": "Browns Race", "amenity": "restaurant", "cuisine": "italian", "delivery": "no", "description": "Bright space in a historic building serving an Authentic Italian menu, with a terrace with waterfall views.  Also features large event spaces.  ", "name": "La Luna", "outdoor_seating": "yes", "phone": "+1 585-232-5862", "smoking": "no", "website": "https://www.lalunahighfalls.com/", "wheelchair": "yes"}}, {"type": "node", "id": 5502506673, "lat": 43.1611756, "lon": -77.6166483, "tags": {"addr:city": "Rochester", "addr:housenumber": "74", "addr:postcode": "14614", "addr:state": "NY", "addr:street": "Browns Race", "description": "Historic museum detailing the historical significance of the High Falls area and Rochester throughout the ages.   ", "name": "High Falls Museum", "phone": "+1 585-325-2030", "tourism": "museum", "website": "https://www.cityofrochester.gov/highfallsmuseum/", "wheelchair": "yes"}}, {"type": "node", "id": 5667884312, "lat": 43.1548172, "lon": -77.6084372}, {"type": "node", "id": 5667884313, "lat": 43.1545472, "lon": -77.6081092}, {"type": "node", "id": 5667884314, "lat": 43.1548277, "lon": -77.6084385}, {"type": "node", "id": 5667884315, "lat": 43.1546495, "lon": -77.6118752}, {"type": "node", "id": 5667884316, "lat": 43.1545212, "lon": -77.6090547}, {"type": "node", "id": 5667884317, "lat": 43.1546983, "lon": -77.6110227}, {"type": "node", "id": 5667884318, "lat": 43.1543807, "lon": -77.6117471}, {"type": "node", "id": 5667884319, "lat": 43.1545241, "lon": -77.6091821}, {"type": "node", "id": 5667884320, "lat": 43.1544632, "lon": -77.6088179}, {"type": "node", "id": 5667884821, "lat": 43.1544614, "lon": -77.6088432}, {"type": "node", "id": 5667884822, "lat": 43.1547644, "lon": -77.6088589}, {"type": "node", "id": 5667884823, "lat": 43.1548544, "lon": -77.6082329}, {"type": "node", "id": 5667884824, "lat": 43.154708, "lon": -77.6105024}, {"type": "node", "id": 5667884825, "lat": 43.154709, "lon": -77.6107538}, {"type": "node", "id": 5667884826, "lat": 43.1546733, "lon": -77.6105037}, {"type": "node", "id": 5667884827, "lat": 43.1544145, "lon": -77.6087248}, {"type": "node", "id": 5762105334, "lat": 43.1561935, "lon": -77.6100554}, {"type": "node", "id": 5787469619, "lat": 43.1603989, "lon": -77.6157539}, {"type": "node", "id": 5787469622, "lat": 43.1603364, "lon": -77.6156669}, {"type": "node", "id": 5787469624, "lat": 43.1602357, "lon": -77.6159749}, {"type": "node", "id": 5787469627, "lat": 43.1602058, "lon": -77.6159363}, {"type": "node", "id": 5799201289, "lat": 43.1552731, "lon": -77.6121496}, {"type": "node", "id": 5799201290, "lat": 43.1553191, "lon": -77.6121689}, {"type": "node", "id": 5799201291, "lat": 43.1552989, "lon": -77.6120345}, {"type": "node", "id": 5799201292, "lat": 43.1553448, "lon": -77.6120538}, {"type": "node", "id": 5840134753, "lat": 43.156402, "lon": -77.6121806, "tags": {"amenity": "fast_food", "name": "Galleria"}}, {"type": "node", "id": 5840143156, "lat": 43.1571638, "lon": -77.6141726, "tags": {"addr:city": "Rochester", "addr:housenumber": "89", "addr:postcode": "14614", "addr:state": "NY", "addr:street": "State Street", "alt_name": "Dunkin' Donuts", "amenity": "fast_food", "brand": "Dunkin'", "brand:wikidata": "Q847743", "contact:website": "https://locations.dunkindonuts.com/en/ny/rochester/89-state-st/351838", "cuisine": "donut;coffee_shop", "drive_through": "no", "name": "Dunkin'", "opening_hours": "Mo-Fr 06:00-15:00; Sa 07:30-14:00; Su 00:00-24:00", "phone": "+1 585-546-1026", "ref": "351838", "takeaway": "yes", "website": "https://locations.dunkindonuts.com/en/ny/rochester/89-state-st/351838"}}, {"type": "node", "id": 5840156108, "lat": 43.1580711, "lon": -77.6152787, "tags": {"addr:city": "Rochester", "addr:housenumber": "155", "addr:postcode": "14614", "addr:state": "NY", "addr:street": "State Street", "amenity": "restaurant", "cuisine": "mexican", "name": "El Sauza Mexican Restaurant"}}, {"type": "node", "id": 6018731030, "lat": 43.156226, "lon": -77.6109306}, {"type": "node", "id": 6018731031, "lat": 43.1564448, "lon": -77.6100982}, {"type": "node", "id": 6018731032, "lat": 43.1562122, "lon": -77.6099834}, {"type": "node", "id": 6018731033, "lat": 43.1559972, "lon": -77.6108176}, {"type": "node", "id": 6018817897, "lat": 43.1590315, "lon": -77.6199201, "tags": {"historic": "monument", "name": "Innovative Field Walk of Fame", "start_date": "1997", "tourism": "attraction", "website": "http://www.frontierfield.org/walkoffame/frontierhome.html"}}, {"type": "node", "id": 8328580577, "lat": 43.1565362, "lon": -77.6137988, "tags": {"artist_name": "Ephraim Gebre", "artwork_type": "mural", "image": "https://media2.fdncms.com/rochester/imager/u/original/12560154/john-lewis-2.jpg", "name": "I Am Speaking", "tourism": "artwork"}}, {"type": "node", "id": 8493092356, "lat": 43.1549548, "lon": -77.6166784, "tags": {"addr:city": "Rochester", "addr:housenumber": "124", "addr:postcode": "14614", "addr:state": "NY", "addr:street": "West Main Street", "amenity": "restaurant", "name": "Busy Bee Restaurant"}}, {"type": "node", "id": 8786025080, "lat": 43.1577575, "lon": -77.6149969, "tags": {"addr:city": "Rochester", "addr:flats": "1-4", "addr:housenumber": "139", "addr:postcode": "14614", "addr:state": "NY", "addr:street": "State Street", "amenity": "bar", "name": "The Spirit Room", "nysgissam:nysaddresspointid": "MONR011217;MONR378991;MONR378992;MONR378990;MONR378989", "opening_hours": "Tu-Su 17:00-0:00"}}, {"type": "node", "id": 8936890002, "lat": 43.1601807, "lon": -77.6104903, "tags": {"addr:city": "Rochester", "addr:housenumber": "177", "addr:postcode": "14604", "addr:state": "NY", "addr:street": "Saint Paul Street", "amenity": "restaurant", "name": "Tapas 177"}}, {"type": "node", "id": 11154408985, "lat": 43.1589077, "lon": -77.6200821}, {"type": "node", "id": 11422410478, "lat": 43.1562051, "lon": -77.6100106}, {"type": "node", "id": 11659981298, "lat": 43.1579177, "lon": -77.6151151, "tags": {"addr:city": "Rochester", "addr:housenumber": "153", "addr:postcode": "14614", "addr:state": "NY", "addr:street": "State Street", "name": "UUU Art Collective", "tourism": "gallery"}}, {"type": "node", "id": 11929741877, "lat": 43.1558288, "lon": -77.6113306, "tags": {"addr:city": "Rochester", "addr:housenumber": "45", "addr:postcode": "14614", "addr:state": "NY", "addr:street": "East Main Street", "amenity": "bank", "branch": "Rochester - East Main", "brand": "Canandaigua National Bank & Trust", "brand:wikidata": "Q113587210", "name": "Canandaigua National Bank & Trust", "website": "https://www.cnbank.com/Your_Bank/Locations/Branch_Pages/Rochester_NY_Bank/"}}, {"type": "node", "id": 12017438820, "lat": 43.1536531, "lon": -77.6177423, "tags": {"addr:city": "Rochester", "addr:housenumber": "225", "addr:postcode": "14608", "addr:state": "NY", "addr:street": "West Broad Street", "amenity": "bank", "branch": "Broad Street", "brand": "Advantage Federal Credit Union", "drive_through": "yes", "name": "Advantage Federal Credit Union", "phone": "+1 585-454-5900", "website": "https://www.advantagefcu.org/"}}, {"type": "way", "id": 39121261, "nodes": [467877145, 467877152, 467877158, 2941312391, 2941312392, 2941312390, 467877178, 2941312393, 467877184, 5388417886, 2941312394, 2941312396, 2941312397, 2941312398, 2941312399, 2941312400, 2941319201, 2941319202, 2941319203, 2941319204, 2941319789, 2941312395, 467877196, 467877202, 467877208, 2941319796, 467877212, 467877218, 467877223, 467877227, 467877241, 467877246, 467877250, 2941312368, 467877256, 467877259, 467877332, 2941312369, 467877346, 467877351, 467877356, 467877359, 467877364, 467877367, 467877372, 467877377, 467877383, 2941312382, 11154408985, 467877145], "tags": {"building": "stadium"}}, {"type": "way", "id": 108360410, "nodes": [1243586438, 1243586413, 1243586416, 1243586440, 1243586438], "tags": {"addr:city": "Rochester", "addr:housenumber": "45", "addr:postcode": "14614", "addr:state": "NY", "addr:street": "Exchange Boulevard", "building": "commercial", "building:levels": "15", "description": "Built for the Genesee Valley Trust Company, this iconic Art Deco skyscraper contains various commercial spaces.  \"The Wings of Progress\" sit atop the structure and are one of the most recognizable elements of the Rochester Skyline. ", "height": "79", "historic": "building", "name": "Times Square Building", "name_1": "Genesee Valley Trust Company Building", "smoking": "no", "start_date": "1929-10-29", "tourism": "attraction", "wikidata": "Q7806557", "wikipedia": "en:Times Square Building (Rochester)"}}, {"type": "way", "id": 136460120, "nodes": [1496788699, 1496788698, 1496788700, 1496788697, 1496788699], "tags": {"addr:city": "Rochester", "addr:housenumber": "150", "addr:postcode": "14614", "addr:state": "NY", "addr:street": "West Main Street", "building": "retail", "email": "customerservice@fineartstore.com", "name": "Rochester Fine Art Inc.", "opening_hours": "Mo-Fr 08:00-17:30; Sa 09:00-15:00", "phone": "+1 585-546-6509", "shop": "art", "website": "https://www.fineartstore.com"}}, {"type": "way", "id": 381753258, "nodes": [3849204662, 5787469622, 5787469619, 5787469624, 5787469627, 3849204663, 3849204664, 3849204661, 3849204660, 3849204659, 3849204662], "tags": {"building": "retail"}}, {"type": "way", "id": 558720570, "nodes": [5389044376, 5389044375, 5389044374, 5389044373, 5389044376], "tags": {"historic": "memorial", "inscription": "Erie Canal Aqueduct 1842", "memorial": "marker", "network": "Heritage Trail", "operator": "City of Rochester, NY", "tourism": "attraction"}}, {"type": "way", "id": 594354996, "nodes": [5667884313, 1242626915, 5667884827, 5667884320, 5667884821, 5667884316, 5667884319, 5667884318, 5667884315, 5667884317, 5667884825, 5667884824, 5667884826, 5667884822, 5667884312, 5667884314, 5667884823, 1242626868, 5667884313], "tags": {"heritage": "2", "heritage:operator": "nrhp", "historic": "aqueduct", "layer": "1", "man_made": "bridge", "name": "Broad Street Bridge", "ref:nrhp": "76001228", "start_date": "1842", "tourism": "attraction", "wikidata": "Q4971954", "wikipedia": "en:Broad Street Bridge (Rochester, New York)"}}, {"type": "way", "id": 612700190, "nodes": [5799201290, 5799201292, 5799201291, 5799201289, 5799201290], "tags": {"amenity": "restaurant", "building": "retail", "building:colour": "white", "building:levels": "1", "cuisine": "chinese", "name": "He's"}}, {"type": "way", "id": 638645907, "nodes": [6018731030, 6018731031, 6018731032, 11422410478, 5762105334, 6018731033, 6018731030], "tags": {"historic": "bridge", "layer": "1", "man_made": "bridge", "name": "Main Street Bridge", "start_date": "1857", "tourism": "attraction", "wheelchair": "yes", "wikidata": "Q6736101", "wikipedia": "en:Main Street Bridge (Rochester, New York)"}}]}