{"version": 0.6, "generator": "Overpass API 0.7.62.1 084b4234", "osm3s": {"timestamp_osm_base": "2024-07-25T18:49:50Z", "copyright": "The data included in this document is from www.openstreetmap.org. The data is made available under ODbL."}, "elements": [{"type": "node", "id": 3989283463, "lat": 35.1615464, "lon": -90.1753053}, {"type": "node", "id": 3989283464, "lat": 35.1615553, "lon": -90.1741433}, {"type": "node", "id": 3989283480, "lat": 35.1619077, "lon": -90.1753095}, {"type": "node", "id": 3989283481, "lat": 35.1619166, "lon": -90.1741474}, {"type": "node", "id": 4272366391, "lat": 35.1651646, "lon": -90.1728562}, {"type": "node", "id": 4272366392, "lat": 35.1651636, "lon": -90.1727215}, {"type": "node", "id": 4272366393, "lat": 35.1650512, "lon": -90.1727228}, {"type": "node", "id": 4272366394, "lat": 35.1650227, "lon": -90.1726892}, {"type": "node", "id": 4272366395, "lat": 35.1650761, "lon": -90.1726477}, {"type": "node", "id": 4272366396, "lat": 35.1650754, "lon": -90.1725556}, {"type": "node", "id": 4272366397, "lat": 35.1649095, "lon": -90.1725576}, {"type": "node", "id": 4272366398, "lat": 35.1649102, "lon": -90.1726549}, {"type": "node", "id": 4272366399, "lat": 35.1649635, "lon": -90.1726588}, {"type": "node", "id": 4272366400, "lat": 35.164932, "lon": -90.1726884}, {"type": "node", "id": 4272366401, "lat": 35.1649333, "lon": -90.1728471}, {"type": "node", "id": 4272366402, "lat": 35.1649337, "lon": -90.1729053}, {"type": "node", "id": 4272366403, "lat": 35.1650576, "lon": -90.1729039}, {"type": "node", "id": 4272366404, "lat": 35.1650573, "lon": -90.1728574}, {"type": "node", "id": 4272366421, "lat": 35.1650139, "lon": -90.1725563}, {"type": "node", "id": 4272699165, "lat": 35.1649348, "lon": -90.1726546}, {"type": "node", "id": 4272699166, "lat": 35.1649348, "lon": -90.1726592}, {"type": "node", "id": 4272699167, "lat": 35.1649637, "lon": -90.1726881}, {"type": "node", "id": 4272699168, "lat": 35.1650225, "lon": -90.1726555}, {"type": "node", "id": 4272699169, "lat": 35.165047, "lon": -90.1726481}, {"type": "node", "id": 4272699170, "lat": 35.165047, "lon": -90.1726552}, {"type": "node", "id": 4272699171, "lat": 35.1650509, "lon": -90.1726888}, {"type": "node", "id": 8389289088, "lat": 35.1647106, "lon": -90.1773317}, {"type": "node", "id": 8389289089, "lat": 35.1645013, "lon": -90.177453}, {"type": "node", "id": 8389289090, "lat": 35.1643683, "lon": -90.1771093}, {"type": "node", "id": 8389289091, "lat": 35.1645776, "lon": -90.1769881}, {"type": "way", "id": 396114701, "nodes": [3989283480, 3989283481, 3989283464, 3989283463, 3989283480], "tags": {"addr:city": "West Memphis", "addr:housenumber": "1601", "addr:postcode": "72301", "addr:state": "AR", "addr:street": "North 7th Street", "brand": "True Value", "brand:wikidata": "Q7847545", "building": "retail", "name": "True Value", "phone": "+1 870-702-6000", "ref": "19365", "shop": "hardware", "website": "https://truevalue.com/"}}, {"type": "way", "id": 428095127, "nodes": [4272366391, 4272366392, 4272366393, 4272699171, 4272366394, 4272699168, 4272699170, 4272699169, 4272366395, 4272366396, 4272366421, 4272366397, 4272366398, 4272699165, 4272699166, 4272366399, 4272699167, 4272366400, 4272366401, 4272366402, 4272366403, 4272366404, 4272366391], "tags": {"addr:city": "West Memphis", "addr:housenumber": "704", "addr:postcode": "72301", "addr:state": "AR", "addr:street": "E Service Road North", "building": "yes", "closed": "major holidays", "information": "guidepost", "manager": "Calanda Young", "name": "Arkansas Welcome Center", "opening_hours": "Mo-Su 08:00-17:00", "operator": "AHDT", "phone": "870-735-3637", "source": "Arkansas.com", "toilet": "yes", "toilets": "yes", "tourism": "information"}}, {"type": "way", "id": 903252952, "nodes": [8389289088, 8389289089, 8389289090, 8389289091, 8389289088], "tags": {"addr:city": "West Memphis", "addr:housenumber": "1600", "addr:postcode": "72301", "addr:state": "AR", "addr:street": "North 6th Street", "amenity": "restaurant", "brand": "Cracker Barrel", "brand:wikidata": "Q4492609", "building": "yes", "cuisine": "american", "name": "Cracker Barrel", "official_name": "Cracker Barrel Old Country Store"}}]}