{"version": 0.6, "generator": "Overpass API 0.7.62.1 084b4234", "osm3s": {"timestamp_osm_base": "2024-07-29T14:27:13Z", "copyright": "The data included in this document is from www.openstreetmap.org. The data is made available under ODbL."}, "elements": [{"type": "node", "id": 49756887, "lat": 38.8886925, "lon": -77.0020385}, {"type": "node", "id": 49773918, "lat": 38.8886867, "lon": -77.0005699, "tags": {"direction": "both", "highway": "stop"}}, {"type": "node", "id": 49776452, "lat": 38.8860414, "lon": -76.9984562}, {"type": "node", "id": 49797390, "lat": 38.8886868, "lon": -76.9961755, "tags": {"highway": "stop", "stop": "all"}}, {"type": "node", "id": 49798148, "lat": 38.8886908, "lon": -77.001305}, {"type": "node", "id": 49819386, "lat": 38.8898131, "lon": -76.9995165}, {"type": "node", "id": 49823743, "lat": 38.8864758, "lon": -76.9984547, "tags": {"highway": "traffic_signals", "traffic_signals": "signal"}}, {"type": "node", "id": 49823775, "lat": 38.8886292, "lon": -76.9931594}, {"type": "node", "id": 49838698, "lat": 38.8898152, "lon": -76.9984548, "tags": {"highway": "traffic_signals", "traffic_signals": "signal"}}, {"type": "node", "id": 49843233, "lat": 38.8886828, "lon": -76.9937618}, {"type": "node", "id": 49850669, "lat": 38.8876038, "lon": -76.999516}, {"type": "node", "id": 49850671, "lat": 38.8876035, "lon": -76.998458, "tags": {"highway": "traffic_signals", "traffic_signals": "signal"}}, {"type": "node", "id": 49854158, "lat": 38.8886857, "lon": -76.9995156, "tags": {"highway": "stop", "stop": "all"}}, {"type": "node", "id": 49854164, "lat": 38.8865438, "lon": -76.9995112, "tags": {"highway": "stop", "stop": "all"}}, {"type": "node", "id": 49857783, "lat": 38.8886876, "lon": -77.0001847}, {"type": "node", "id": 49857785, "lat": 38.8886854, "lon": -76.9996041, "tags": {"crossing": "marked", "crossing:markings": "yes", "highway": "crossing"}}, {"type": "node", "id": 49857790, "lat": 38.8886863, "lon": -76.9985355, "tags": {"crossing": "marked", "crossing:island": "no", "crossing:markings": "yes", "highway": "crossing"}}, {"type": "node", "id": 49857791, "lat": 38.8886853, "lon": -76.9984561}, {"type": "node", "id": 49857793, "lat": 38.8886852, "lon": -76.9973169}, {"type": "node", "id": 49857798, "lat": 38.8886847, "lon": -76.994964, "tags": {"highway": "stop", "stop": "all"}}, {"type": "node", "id": 49857800, "lat": 38.888684, "lon": -76.9936736, "tags": {"crossing": "marked", "crossing:markings": "yes", "highway": "crossing"}}, {"type": "node", "id": 49857801, "lat": 38.8886807, "lon": -76.9933678, "tags": {"direction": "forward", "highway": "stop"}}, {"type": "node", "id": 49857802, "lat": 38.8886753, "lon": -76.9933145, "tags": {"crossing": "unmarked", "crossing:markings": "no", "highway": "crossing"}}, {"type": "node", "id": 655442818, "lat": 38.8857252, "lon": -76.9984563, "tags": {"highway": "traffic_signals", "traffic_signals": "signal"}}, {"type": "node", "id": 1689216691, "lat": 38.8881458, "lon": -76.9967685}, {"type": "node", "id": 1689216692, "lat": 38.8881459, "lon": -76.9973181}, {"type": "node", "id": 1689216694, "lat": 38.8881453, "lon": -76.9984588}, {"type": "node", "id": 2791594426, "lat": 38.8886833, "lon": -76.9938449, "tags": {"crossing": "marked", "crossing:markings": "yes", "highway": "crossing"}}, {"type": "node", "id": 2791594428, "lat": 38.8886865, "lon": -76.9948636, "tags": {"crossing": "marked", "crossing:markings": "yes", "highway": "crossing"}}, {"type": "node", "id": 2791594429, "lat": 38.8886845, "lon": -76.9950678, "tags": {"crossing": "marked;uncontrolled", "crossing:markings": "yes", "highway": "crossing"}}, {"type": "node", "id": 2791594431, "lat": 38.8886853, "lon": -76.9994208, "tags": {"crossing": "marked", "crossing:markings": "yes", "highway": "crossing"}}, {"type": "node", "id": 2791594432, "lat": 38.8886876, "lon": -76.9960845, "tags": {"highway": "crossing"}}, {"type": "node", "id": 2791594434, "lat": 38.8886866, "lon": -76.9962588, "tags": {"highway": "crossing"}}, {"type": "node", "id": 2791594435, "lat": 38.888685, "lon": -76.99836, "tags": {"crossing": "marked", "crossing:island": "no", "crossing:markings": "yes", "highway": "crossing", "tactile_paving": "yes"}}, {"type": "node", "id": 2791594437, "lat": 38.8886892, "lon": -77.0006696, "tags": {"crossing": "uncontrolled", "crossing:markings": "lines", "crossing:signals": "no", "highway": "crossing"}}, {"type": "node", "id": 2791594438, "lat": 38.8886859, "lon": -77.0004836, "tags": {"crossing": "uncontrolled", "crossing:island": "no", "crossing:markings": "lines", "crossing:signals": "no", "highway": "crossing", "tactile_paving": "yes"}}, {"type": "node", "id": 7554685054, "lat": 38.8897101, "lon": -76.9984552, "tags": {"crossing": "traffic_signals", "highway": "crossing"}}, {"type": "node", "id": 7554685055, "lat": 38.888616, "lon": -76.9984549, "tags": {"crossing": "marked", "crossing:markings": "yes", "highway": "crossing", "tactile_paving": "yes"}}, {"type": "node", "id": 7554685056, "lat": 38.8887569, "lon": -76.9984557, "tags": {"crossing": "marked", "crossing:markings": "yes", "highway": "crossing", "tactile_paving": "yes"}}, {"type": "node", "id": 7554685059, "lat": 38.8876772, "lon": -76.9984581, "tags": {"crossing": "marked", "crossing:markings": "yes", "highway": "crossing"}}, {"type": "node", "id": 7554685060, "lat": 38.8875309, "lon": -76.9984574, "tags": {"crossing": "marked", "crossing:markings": "yes", "highway": "crossing"}}, {"type": "node", "id": 7554685062, "lat": 38.8866165, "lon": -76.9984585, "tags": {"crossing": "traffic_signals", "highway": "crossing"}}, {"type": "node", "id": 7554685063, "lat": 38.8863827, "lon": -76.9984563, "tags": {"crossing": "traffic_signals", "highway": "crossing"}}, {"type": "node", "id": 7554685103, "lat": 38.885829, "lon": -76.9984565, "tags": {"crossing": "traffic_signals", "crossing:markings": "ladder", "crossing:signals": "yes", "highway": "crossing", "tactile_paving": "yes"}}, {"type": "node", "id": 8204455880, "lat": 38.8882847, "lon": -77.0001855}, {"type": "node", "id": 8204455885, "lat": 38.8882441, "lon": -77.0000609}, {"type": "node", "id": 8204455886, "lat": 38.8880008, "lon": -77.0000594}, {"type": "node", "id": 8204455887, "lat": 38.8880003, "lon": -76.9995142}, {"type": "node", "id": 8382480871, "lat": 38.8866029, "lon": -76.9995126, "tags": {"crossing": "marked", "crossing:markings": "yes", "highway": "crossing"}}, {"type": "node", "id": 9590190327, "lat": 38.8876762, "lon": -76.9995157, "tags": {"crossing": "marked", "crossing:markings": "yes", "highway": "crossing"}}, {"type": "node", "id": 9590190328, "lat": 38.887708, "lon": -76.9995156, "tags": {"direction": "forward", "highway": "stop"}}, {"type": "node", "id": 9590190329, "lat": 38.8875286, "lon": -76.9995156, "tags": {"crossing": "marked", "crossing:markings": "yes", "highway": "crossing"}}, {"type": "node", "id": 9590190330, "lat": 38.887487, "lon": -76.9995161, "tags": {"direction": "backward", "highway": "stop"}}, {"type": "node", "id": 9590190335, "lat": 38.8886922, "lon": -77.0019046, "tags": {"direction": "backward", "highway": "stop"}}, {"type": "node", "id": 9590190336, "lat": 38.8886923, "lon": -77.0019566, "tags": {"crossing": "marked", "crossing:markings": "yes", "highway": "crossing"}}, {"type": "node", "id": 9590190339, "lat": 38.8886863, "lon": -76.9985727, "tags": {"direction": "forward", "highway": "stop"}}, {"type": "node", "id": 9590190340, "lat": 38.8886851, "lon": -76.998327, "tags": {"direction": "backward", "highway": "stop"}}, {"type": "node", "id": 9590190343, "lat": 38.8886835, "lon": -76.9938887, "tags": {"direction": "forward", "highway": "stop"}}, {"type": "node", "id": 9590190344, "lat": 38.8886837, "lon": -76.9936412, "tags": {"direction": "backward", "highway": "stop"}}, {"type": "node", "id": 9590190350, "lat": 38.8897136, "lon": -76.9995164, "tags": {"crossing": "marked", "crossing:markings": "yes", "highway": "crossing"}}, {"type": "node", "id": 9590190351, "lat": 38.8896811, "lon": -76.9995164, "tags": {"direction": "backward", "highway": "stop"}}, {"type": "node", "id": 9590312509, "lat": 38.8886686, "lon": -76.9932827}, {"type": "node", "id": 9590312510, "lat": 38.8886786, "lon": -76.9933407}, {"type": "node", "id": 9590312511, "lat": 38.8886576, "lon": -76.9932429}, {"type": "node", "id": 9590312516, "lat": 38.8881456, "lon": -76.9978651}, {"type": "node", "id": 9590333822, "lat": 38.8882443, "lon": -77.0001686}, {"type": "node", "id": 9590333823, "lat": 38.8882617, "lon": -77.0001773}, {"type": "node", "id": 9727977210, "lat": 38.8880004, "lon": -76.9996127, "tags": {"crossing": "unmarked", "crossing:markings": "no", "highway": "crossing"}}, {"type": "node", "id": 9727977211, "lat": 38.8886186, "lon": -77.0001848, "tags": {"crossing": "unmarked", "crossing:markings": "no", "highway": "crossing"}}, {"type": "node", "id": 9727979228, "lat": 38.8881454, "lon": -76.9983589, "tags": {"crossing": "unmarked", "crossing:markings": "no", "highway": "crossing"}}, {"type": "node", "id": 9727979241, "lat": 38.8886912, "lon": -77.001461}, {"type": "node", "id": 9727979252, "lat": 38.8886918, "lon": -77.0017287}, {"type": "node", "id": 9727979266, "lat": 38.8893732, "lon": -77.0005705}, {"type": "node", "id": 9772796617, "lat": 38.8893534, "lon": -77.0004592}, {"type": "node", "id": 9772796618, "lat": 38.889345, "lon": -77.0002639}, {"type": "node", "id": 11194653222, "lat": 38.8893581, "lon": -77.0004855}, {"type": "node", "id": 11198277776, "lat": 38.8857818, "lon": -76.9984556, "tags": {"crossing": "uncontrolled", "crossing:markings": "yes", "crossing:signals": "no", "highway": "crossing"}}, {"type": "node", "id": 11230086618, "lat": 38.8887533, "lon": -76.9995157, "tags": {"crossing": "uncontrolled", "crossing:markings": "yes", "highway": "crossing"}}, {"type": "node", "id": 11230086619, "lat": 38.8886179, "lon": -76.9995155, "tags": {"crossing": "uncontrolled", "crossing:markings": "yes", "highway": "crossing"}}, {"type": "node", "id": 11608896748, "lat": 38.8886874, "lon": -77.0005978, "tags": {"highway": "crossing"}}, {"type": "node", "id": 11608923235, "lat": 38.8881453, "lon": -76.9984319, "tags": {"highway": "crossing"}}, {"type": "node", "id": 11608923237, "lat": 38.8886852, "lon": -76.9984315, "tags": {"highway": "crossing"}}, {"type": "way", "id": 6059873, "nodes": [1689216694, 11608923235, 9727979228, 9590312516, 1689216692, 1689216691], "tags": {"highway": "service", "name": "Browns Court Southeast", "service": "alley", "surface": "brick", "tiger:cfcc": "A41", "tiger:county": "District of Columbia, DC", "tiger:name_base": "Browns", "tiger:name_direction_suffix": "SE", "tiger:name_type": "Ct", "tiger:reviewed": "no", "tiger:zip_left": "20003", "tiger:zip_right": "20003"}}, {"type": "way", "id": 6061456, "nodes": [49819386, 9590190350, 9590190351, 11230086618, 49854158, 11230086619, 8204455887, 9590190328, 9590190327, 49850669, 9590190329, 9590190330, 8382480871, 49854164], "tags": {"highway": "residential", "name": "5th Street Southeast", "surface": "asphalt", "tiger:cfcc": "A41", "tiger:county": "District of Columbia, DC", "tiger:name_base": "5th", "tiger:name_direction_suffix": "SE", "tiger:name_type": "St", "tiger:reviewed": "no", "tiger:zip_left": "20003", "tiger:zip_right": "20003"}}, {"type": "way", "id": 6061639, "nodes": [49756887, 9590190336, 9590190335, 9727979252, 9727979241, 49798148, 2791594437, 11608896748, 49773918, 2791594438, 49857783, 49857785, 49854158, 2791594431, 9590190339, 49857790, 49857791, 11608923237, 2791594435, 9590190340, 49857793, 2791594434, 49797390, 2791594432, 2791594429, 49857798, 2791594428, 9590190343, 2791594426, 49843233, 49857800, 9590190344, 49857801, 9590312510, 49857802, 9590312509, 9590312511, 49823775], "tags": {"cycleway:both": "no", "highway": "residential", "lane_markings": "no", "maxspeed": "25 mph", "name": "A Street Southeast", "surface": "asphalt", "tiger:cfcc": "A41", "tiger:county": "District of Columbia, DC", "tiger:name_base": "A", "tiger:name_direction_suffix": "SE", "tiger:name_type": "St", "tiger:reviewed": "yes", "tiger:zip_left": "20003", "tiger:zip_right": "20003"}}, {"type": "way", "id": 130889762, "nodes": [655442818, 11198277776, 7554685103, 49776452, 7554685063, 49823743, 7554685062, 7554685060, 49850671, 7554685059, 1689216694, 7554685055, 49857791, 7554685056, 7554685054, 49838698], "tags": {"HFCS": "Collector", "cycleway:right": "lane", "cycleway:right:buffer": "no", "highway": "secondary", "lanes": "1", "maxspeed": "25 mph", "name": "6th Street Southeast", "oneway": "yes", "parking:lane:both": "parallel", "sidewalk": "separate", "source:HFCS": "District of Columbia (DC GIS)", "surface": "asphalt"}}, {"type": "way", "id": 882225468, "nodes": [8204455887, 9727977210, 8204455886, 8204455885, 9590333822, 9590333823, 8204455880, 9727977211, 49857783], "tags": {"highway": "service", "service": "alley", "surface": "brick"}}, {"type": "way", "id": 1064040156, "nodes": [9727979266, 11194653222, 9772796617, 9772796618], "tags": {"highway": "service"}}]}