{"version": 0.6, "generator": "Overpass API 0.7.62.1 084b4234", "osm3s": {"timestamp_osm_base": "2024-07-16T19:53:14Z", "copyright": "The data included in this document is from www.openstreetmap.org. The data is made available under ODbL."}, "elements": [{"type": "node", "id": 3936298260, "lat": 38.8710378, "lon": -77.1117752, "tags": {"bench": "yes", "bus": "yes", "covered": "yes", "highway": "bus_stop", "name": "Henderson Rd & 3rd St N", "network": "WMATA Metrobus", "network:wikidata": "Q6824810", "operator": "Washington Metropolitan Area Transit Authority", "operator:short": "WMATA", "operator:wikidata": "Q7972051", "public_transport": "platform", "ref:wmata": "6000352", "shelter": "yes", "tactile_paving": "no", "website": "https://www.arlingtontransit.com/realtime/all/6000352"}}, {"type": "node", "id": 3936298358, "lat": 38.8716519, "lon": -77.1117992, "tags": {"bench": "no", "bin": "yes", "bus": "yes", "covered": "no", "highway": "bus_stop", "name": "Henderson Rd & 3rd St N", "network": "WMATA Metrobus", "network:wikidata": "Q6824810", "operator": "Washington Metropolitan Area Transit Authority", "operator:short": "WMATA", "operator:wikidata": "Q7972051", "public_transport": "platform", "ref:wmata": "6000359", "shelter": "no", "tactile_paving": "no", "website": "https://www.arlingtontransit.com/realtime/all/6000359"}}, {"type": "node", "id": 3937920402, "lat": 38.8732826, "lon": -77.1186955, "tags": {"bench": "no", "bus": "yes", "highway": "bus_stop", "name": "25B", "note": "Metrobus route 25B", "operator": "Metrobus", "public_transport": "platform", "shelter": "no", "website": "https://www.arlingtontransit.com/realtime/all/6000388"}}, {"type": "node", "id": 5428889938, "lat": 38.8761169, "lon": -77.1086537, "tags": {"bench": "yes", "bus": "yes", "highway": "bus_stop", "name": "N Glebe Rd at Henderson Rd", "network": "WMATA;ART", "operator": "WMATA;ART", "public_transport": "platform", "ref:art": "41210", "ref:wmata": "6000435", "shelter": "yes", "website": "https://www.arlingtontransit.com/realtime/all/6000435"}}, {"type": "node", "id": 5492610353, "lat": 38.8770028, "lon": -77.1126033, "tags": {"bench": "no", "bus": "yes", "highway": "bus_stop", "name": "25B", "operator": "Metrobus", "public_transport": "platform", "shelter": "no", "website": "https://www.arlingtontransit.com/realtime/all/6000444"}}, {"type": "node", "id": 5500136828, "lat": 38.8730982, "lon": -77.1198447, "tags": {"bench": "no", "bus": "yes", "highway": "bus_stop", "name": "25B", "note": "Metrobus route 25B 6009480", "operator": "Metrobus", "public_transport": "platform", "shelter": "no", "website": "https://www.arlingtontransit.com/realtime/all/6000380"}}, {"type": "node", "id": 5500136830, "lat": 38.8735203, "lon": -77.1185527, "tags": {"bench": "no", "bus": "yes", "highway": "bus_stop", "name": "N Carlin Springs Rd at N Edison St", "public_transport": "platform", "ref:wmata": "6000383", "shelter": "no", "website": "https://www.arlingtontransit.com/realtime/all/6000383"}}, {"type": "node", "id": 5523872737, "lat": 38.8764086, "lon": -77.108507, "tags": {"bench": "yes", "bus": "yes", "highway": "bus_stop", "name": "N Glebe Rd at N Quincy St", "operator": "WMATA;ART", "public_transport": "platform", "ref:art": "41020", "ref:wmata": "6000436", "shelter": "yes", "website": "https://www.arlingtontransit.com/realtime/all/6000436"}}, {"type": "node", "id": 6164709023, "lat": 38.8785953, "lon": -77.1192003, "tags": {"bus": "yes", "highway": "bus_stop", "name": "Wilson Blvd at N Buchanan St", "network": "Arlington Transit", "network:short": "ART", "network:wikidata": "Q4792406", "network:wikipedia": "en:Arlington Transit", "not:network:wikidata": "Q4750893", "operator": "First Transit", "operator:wikidata": "Q5453919", "operator:wikipedia": "en:First Transit", "public_transport": "platform", "ref": "75127", "ref:art": "75127"}}, {"type": "node", "id": 6380808291, "lat": 38.8764898, "lon": -77.1134632, "tags": {"bus": "yes", "highway": "bus_stop", "name": "25B", "public_transport": "platform", "shelter": "no", "website": "https://www.arlingtontransit.com/realtime/all/6000927"}}, {"type": "node", "id": 6396844295, "lat": 38.8718867, "lon": -77.1086398, "tags": {"bus": "yes", "highway": "bus_stop", "name": "N George Mason Dr at Pershing Dr", "network": "WMATA;ART", "operator": "WMATA;ART", "public_transport": "platform", "ref:art": "15180", "shelter": "no", "website": "https://www.arlingtontransit.com/realtime/all/6001254"}}, {"type": "node", "id": 6396845416, "lat": 38.8720725, "lon": -77.1084825, "tags": {"bus": "yes", "highway": "bus_stop", "name": "N George Mason Dr at Pershing Dr", "network": "WMATA;ART", "operator": "WMATA;ART", "public_transport": "platform", "ref:art": "15157", "ref:wmata": "6000364", "shelter": "no", "website": "https://www.arlingtontransit.com/realtime/all/6000364"}}, {"type": "node", "id": 6399565017, "lat": 38.8732706, "lon": -77.1109001, "tags": {"bus": "yes", "highway": "bus_stop", "name": "N George Mason Dr at Henderson Rd", "network": "WMATA;ART", "operator": "WMATA;ART", "public_transport": "platform", "ref:art": "15158", "shelter": "no", "website": "https://www.arlingtontransit.com/realtime/all/6000377"}}, {"type": "node", "id": 6399567059, "lat": 38.8727605, "lon": -77.1114363, "tags": {"bench": "no", "bin": "no", "bus": "yes", "highway": "bus_stop", "name": "N Henderson Rd & N George Mason Dr", "network": "WMATA Metrobus", "network:wikidata": "Q6824810", "operator": "Washington Metropolitan Area Transit Authority", "operator:short": "WMATA", "operator:wikidata": "Q7972051", "public_transport": "platform", "ref:wmata": "6000371", "shelter": "no", "website": "https://www.arlingtontransit.com/realtime/all/6000371"}}, {"type": "node", "id": 6399568652, "lat": 38.8730345, "lon": -77.1108507, "tags": {"bus": "yes", "highway": "bus_stop", "name": "N George Mason Dr at Henderson Rd", "network": "WMATA;ART", "operator": "WMATA;ART", "public_transport": "platform", "ref:art": "15179", "ref:wmata": "6000379", "shelter": "no", "website": "https://www.arlingtontransit.com/realtime/all/6000379"}}, {"type": "node", "id": 6401016484, "lat": 38.8745163, "lon": -77.1099458, "tags": {"bus": "yes", "highway": "bus_stop", "name": "Henderson Rd at N Thomas St", "network": "WMATA;ART", "operator": "WMATA;ART", "public_transport": "platform", "ref:art": "15159", "shelter": "yes", "website": "https://www.arlingtontransit.com/realtime/all/6000408"}}, {"type": "node", "id": 6401017860, "lat": 38.874855, "lon": -77.1098812, "tags": {"bus": "yes", "highway": "bus_stop", "name": "Henderson Rd at N Thomas St", "network": "WMATA;ART", "operator": "WMATA;ART", "public_transport": "platform", "ref:art": "15178", "shelter": "no", "website": "https://www.arlingtontransit.com/realtime/all/6000415"}}, {"type": "node", "id": 6406723240, "lat": 38.8786101, "lon": -77.1093679, "tags": {"bus": "yes", "highway": "bus_stop", "name": "N Randolph St at Ballston Mall", "network": "Arlington Transit", "network:wikidata": "Q4792406", "network:wikipedia": "en:Arlington Transit", "operator": "ART", "public_transport": "platform", "ref": "6001403", "ref:wmata": "6001403", "shelter": "yes"}}, {"type": "node", "id": 6772068724, "lat": 38.8791559, "lon": -77.1091066, "tags": {"bus": "yes", "highway": "bus_stop", "name": "N Randolph St at Wilson Blvd", "network": "Arlington Transit", "network:wikidata": "Q4792406", "operator": "ART", "public_transport": "platform", "ref:art": "41021", "shelter": "no", "website": "https://www.arlingtontransit.com/realtime/all/6000475"}}, {"type": "node", "id": 6936242517, "lat": 38.879088, "lon": -77.1178368, "tags": {"bus": "yes", "highway": "bus_stop", "name": "Wilson Blvd at N Abingdon St", "network": "Arlington Transit", "network:short": "ART", "network:wikidata": "Q4792406", "not:network:wikidata": "Q4750893", "operator": "First Transit", "operator:wikidata": "Q5453919", "public_transport": "platform", "ref": "75004", "ref:art": "75004", "shelter": "no", "website": "https://www.arlingtontransit.com/realtime/all/6000483"}}, {"type": "node", "id": 6936394854, "lat": 38.8789709, "lon": -77.1176824, "tags": {"bus": "yes", "highway": "bus_stop", "name": "Wilson Blvd at N Abingdon St", "network": "Arlington Transit", "network:short": "ART", "network:wikidata": "Q4792406", "not:network:wikidata": "Q4750893", "operator": "First Transit", "operator:wikidata": "Q5453919", "public_transport": "platform", "ref": "75128", "ref:art": "75128", "website": "https://www.arlingtontransit.com/realtime/all/6000477"}}, {"type": "node", "id": 11987296765, "lat": 38.8786698, "lon": -77.1121318, "tags": {"bus": "yes", "highway": "bus_stop", "name": "N Glebe Rd at 7th St N", "public_transport": "platform", "ref:wmata": "6001404", "website": "https://www.arlingtontransit.com/realtime/all/6001404"}}, {"type": "node", "id": 11987306873, "lat": 38.8791992, "lon": -77.112378, "tags": {"bus": "yes", "highway": "bus_stop", "name": "N Glebe Rd at 7th St N", "public_transport": "platform", "ref:wmata": "6000928", "website": "https://www.arlingtontransit.com/realtime/all/6000928"}}, {"type": "node", "id": 11987306917, "lat": 38.8759347, "lon": -77.1145722, "tags": {"highway": "bus_stop", "name": "N Carlin Springs Rd at N Wakefield St", "public_transport": "platform", "ref:wmata": "6000430", "website": "https://www.arlingtontransit.com/realtime/all/6000430"}}, {"type": "node", "id": 11987306931, "lat": 38.8790978, "lon": -77.1093023, "tags": {"bus": "yes", "highway": "bus_stop", "name": "N Randolph St at Wilson Blvd", "public_transport": "platform", "ref:wmata": "6001403", "website": "https://www.arlingtontransit.com/realtime/all/6001403"}}, {"type": "node", "id": 11987306932, "lat": 38.8759744, "lon": -77.1150161, "tags": {"highway": "bus_stop", "name": "N Carlin Springs Rd at N Wakefield St", "public_transport": "platform", "ref:wmata": "6000432", "website": "https://www.arlingtontransit.com/realtime/all/6000432"}}]}