{"version": 0.6, "generator": "Overpass API 0.7.62.1 084b4234", "osm3s": {"timestamp_osm_base": "2024-07-29T16:20:32Z", "copyright": "The data included in this document is from www.openstreetmap.org. The data is made available under ODbL."}, "elements": [{"type": "node", "id": 735126542, "lat": 38.8852096, "lon": -76.9967344, "tags": {"addr:housenumber": "658", "addr:street": "Pennsylvania Avenue Southeast", "air_conditioning": "yes", "amenity": "fast_food", "brand": "District Taco", "brand:wikidata": "Q26237090", "cuisine": "mexican", "dataset": "grocery", "highchair": "yes", "name": "District Taco", "phone": "+1 202-546-9850", "source": "dcgis", "takeaway": "yes"}}, {"type": "node", "id": 737404993, "lat": 38.8851348, "lon": -76.9980082, "tags": {"addr:housenumber": "609", "addr:street": "Pennsylvania Avenue Southeast", "amenity": "restaurant", "cuisine": "indian", "dataset": "ABRA locations", "delivery": "yes", "name": "Aatish On The Hill", "phone": "+1-202-544-0931", "source": "dcgis", "takeaway": "yes", "website": "https://aatish-onthehill.com/"}}, {"type": "node", "id": 737405011, "lat": 38.8848976, "lon": -76.9974137, "tags": {"addr:housenumber": "629", "addr:street": "Pennsylvania Avenue Southeast", "amenity": "restaurant", "cuisine": "mexican;salvadoran", "dataset": "ABRA locations", "name": "La Plaza", "phone": "+1-202-546-9512", "source": "dcgis", "website": "https://www.laplazadc.com/"}}, {"type": "node", "id": 737405121, "lat": 38.8850365, "lon": -76.9963828, "tags": {"addr:city": "Washington", "addr:housenumber": "666", "addr:postcode": "20003", "addr:state": "DC", "addr:street": "Pennsylvania Avenue Southeast", "amenity": "cafe", "brand": "Le Pain Quotidien", "brand:wikidata": "Q2046903", "check_date": "2024-02-18", "cuisine": "coffee_shop", "dataset": "ABRA locations", "name": "Le Pain Quotidien", "outdoor_seating": "yes", "source": "dcgis", "takeaway": "yes"}}, {"type": "node", "id": 737405170, "lat": 38.8894219, "lon": -76.9881039, "tags": {"addr:housenumber": "106", "addr:street": "13th Street Southeast", "amenity": "restaurant", "contact:facebook": "https://www.facebook.com/people/Paccis-Capitol-Hill/100063919245045/", "cuisine": "italian;pizza", "dataset": "ABRA locations", "name": "Pacci's", "opening_hours": "Tu-Fr 11:00-21:00; Sa 09:00-21:00; Su 09:00-20:00", "phone": "+1-202-735-0026", "source": "dcgis", "website": "https://www.paccistrattoria.com/"}}, {"type": "node", "id": 751839884, "lat": 38.8853802, "lon": -76.9971685, "tags": {"addr:housenumber": "650", "addr:street": "Pennsylvania Avenue Southeast", "amenity": "bank", "brand": "PNC Bank", "brand:wikidata": "Q38928", "dataset": "Banks", "name": "PNC Bank", "source": "dcgis"}}, {"type": "node", "id": 751839914, "lat": 38.8857435, "lon": -76.99802, "tags": {"addr:housenumber": "600", "addr:street": "Pennsylvania Avenue Southeast", "amenity": "bank", "brand": "Citibank", "brand:wikidata": "Q857063", "dataset": "Banks", "drive_through": "yes", "level": "0", "name": "Citibank", "short_name": "Citi", "source": "dcgis"}}, {"type": "node", "id": 925567205, "lat": 38.8852165, "lon": -76.9964033, "tags": {"amenity": "cafe", "check_date": "2024-02-18", "internet_access": "wlan", "level": "0", "name": "Peregrine Espresso", "wheelchair": "yes"}}, {"type": "node", "id": 3496169033, "lat": 38.884565, "lon": -76.9966804, "tags": {"addr:housenumber": "653", "addr:street": "Pennsylvania Avenue Southeast", "amenity": "restaurant", "cuisine": "thai", "name": "Sanphan Thai", "opening_hours": "Su-Th 11:00-15:30, 16:30-21:15; Fr-Sa 11:00-15:30, 16:30-21:45", "phone": "+1 202-544-9368", "website": "https://www.sanphanrestaurant.com/"}}, {"type": "node", "id": 3559302435, "lat": 38.887199, "lon": -76.9959943, "tags": {"amenity": "cafe", "check_date": "2024-02-18", "name": "7st Hill Cafe", "website": "https://www.portcityjava.com/"}}, {"type": "node", "id": 3559302437, "lat": 38.8870013, "lon": -76.9959919, "tags": {"amenity": "restaurant", "check_date": "2024-02-18", "cuisine": "mexican", "name": "Tortilla Caf\u00e9", "opening_hours": "Mo-Fr,Su 09:00-17:00; Sa 09:00-13:00", "outdoor_seating": "yes"}}, {"type": "node", "id": 4233962106, "lat": 38.8855934, "lon": -76.996384, "tags": {"addr:city": "Washington", "addr:housenumber": "317", "addr:postcode": "20003", "addr:state": "DC", "addr:street": "7th Street Southeast", "amenity": "restaurant", "name": "Bullfrog Bagels"}}, {"type": "node", "id": 5109650122, "lat": 38.8850837, "lon": -76.9978761, "tags": {"amenity": "restaurant", "cuisine": "american", "name": "Barrel"}}, {"type": "node", "id": 5376787643, "lat": 38.8866124, "lon": -76.9959819, "tags": {"addr:city": "Washington", "addr:housenumber": "22", "addr:state": "DC", "addr:street": "7th Street Southeast", "amenity": "restaurant", "check_date": "2024-02-25", "cuisine": "american", "diet:vegetarian": "limited", "name": "Tunnicliff's Tavern", "outdoor_seating": "yes", "payment:cash": "yes", "payment:credit_cards": "yes", "payment:debit_cards": "yes", "phone": "+1 202-544-5680", "website": "https://www.tunnicliffstavern.com/", "wheelchair": "no"}}, {"type": "node", "id": 10261211552, "lat": 38.8861684, "lon": -76.9959892, "tags": {"addr:city": "Washington", "addr:housenumber": "250", "addr:postcode": "20003", "addr:street": "7th Street Southeast", "amenity": "fast_food", "check_date": "2024-02-18", "cuisine": "burger", "diet:vegetarian": "yes", "name": "Eat Brgz", "outdoor_seating": "yes", "website": "https://www.eatbrgz.com/"}}, {"type": "node", "id": 10537539116, "lat": 38.8849723, "lon": -76.9975772, "tags": {"amenity": "restaurant", "cuisine": "american", "name": "Beuchert's Saloon", "opening_hours": "Mo-Th 16:00-22:00; Fr 16:00-23:00; Sa 11:00-15:00, 16:00-23:00; Su 11:00-15:00, 16:00-22:00", "phone": "+1-202-733-1384", "website": "https://beuchertssaloon.com/"}}, {"type": "node", "id": 10537539124, "lat": 38.8848395, "lon": -76.9972858, "tags": {"amenity": "restaurant", "cuisine": "sandwich", "name": "Fight Club", "opening_hours": "Su-Th 11:00-23:00; Fr-Sa 11:00-01:00", "website": "https://www.fightclubdc.com/"}}, {"type": "node", "id": 10594328317, "lat": 38.8853361, "lon": -76.9963719, "tags": {"amenity": "restaurant", "contact:instagram": "https://www.instagram.com/lacasinadc/", "cuisine": "pizza", "name": "La Casina", "opening_hours": "Tu-Sa 11:30-14:30, 17:30-21:00; Su 11:30-16:30", "phone": "+1-202-516-5100", "website": "https://lacasinadc.com/"}}, {"type": "node", "id": 10977879098, "lat": 38.8925224, "lon": -76.9880745, "tags": {"artist_name": "Marcia Billig", "artwork_type": "statue", "material": "bronze", "name": "Balance", "tourism": "artwork"}}, {"type": "node", "id": 11382556901, "lat": 38.8853794, "lon": -76.9963731, "tags": {"amenity": "restaurant", "contact:instagram": "https://www.instagram.com/ruta.dc", "cuisine": "ukrainian", "name": "Ruta", "opening_hours": "Mo off; Tu-Th 17:00-21:00; Fr 17:00-22:00; Sa-Su 11:00-15:00, 16:00-21:00", "phone": "+1 202-492-7986", "website": "https://www.rutadc.us/"}}, {"type": "node", "id": 11895544255, "lat": 38.885274, "lon": -76.995958, "tags": {"addr:housenumber": "360", "addr:postcode": "20003", "addr:street": "7th Street Southeast", "amenity": "bar", "bar": "wine", "name": "The Eastern", "opening_hours": "Mo-Fr 16:00-23:00+; Sa-Su 14:00-23:00+", "phone": "+1-202-621-7950", "website": "https://www.easternwinebar.com/"}}, {"type": "node", "id": 11895544256, "lat": 38.8857256, "lon": -76.9959451, "tags": {"addr:housenumber": "300", "addr:street": "7th Street Southeast", "amenity": "restaurant", "cuisine": "american", "name": "The Duck & The Peach", "opening_hours": "Mo off; Tu-Fr 17:00-22:00; Sa 10:00-15:00, 17:00-22:00; Su 10:00-15:00", "outdoor_seating": "yes", "phone": "+1-202-431-1913", "website": "https://www.duckandpeachdc.com/"}}, {"type": "node", "id": 11904943185, "lat": 38.8848154, "lon": -76.9956751, "tags": {"addr:housenumber": "700", "addr:street": "Pennsylvania Avenue Southeast", "addr:unit": "A", "amenity": "bank", "brand": "Chase", "brand:wikidata": "Q524629", "check_date": "2024-05-14", "name": "Chase", "opening_hours": "Mo-Fr 09:00-17:00; Sa 09:00-13:00; Su off"}}]}