{"version": 0.6, "generator": "Overpass API 0.7.62.1 084b4234", "osm3s": {"timestamp_osm_base": "2024-07-25T16:14:49Z", "copyright": "The data included in this document is from www.openstreetmap.org. The data is made available under ODbL."}, "elements": [{"type": "node", "id": 565892273, "lat": 41.4005771, "lon": -75.6441116, "tags": {"name": "Everhart Museum", "tourism": "museum"}}, {"type": "node", "id": 571343966, "lat": 41.400396, "lon": -75.6439868}, {"type": "node", "id": 571343967, "lat": 41.4006785, "lon": -75.6444351}, {"type": "node", "id": 571343970, "lat": 41.4008561, "lon": -75.6442375}, {"type": "node", "id": 571343971, "lat": 41.4007878, "lon": -75.6441289}, {"type": "node", "id": 571343972, "lat": 41.4007012, "lon": -75.6442251}, {"type": "node", "id": 571343973, "lat": 41.4006468, "lon": -75.6441387}, {"type": "node", "id": 571343974, "lat": 41.4006825, "lon": -75.6440991}, {"type": "node", "id": 571343975, "lat": 41.4006463, "lon": -75.6440416}, {"type": "node", "id": 571343976, "lat": 41.4006105, "lon": -75.6440815}, {"type": "node", "id": 571343977, "lat": 41.4005567, "lon": -75.6439959}, {"type": "node", "id": 571343978, "lat": 41.4006448, "lon": -75.643898}, {"type": "node", "id": 571343979, "lat": 41.4005754, "lon": -75.6437877}, {"type": "node", "id": 4015051583, "lat": 41.3940234, "lon": -75.6518832}, {"type": "node", "id": 4015051584, "lat": 41.3941935, "lon": -75.6516971}, {"type": "node", "id": 4015051585, "lat": 41.3941008, "lon": -75.6515703}, {"type": "node", "id": 4015051586, "lat": 41.3939475, "lon": -75.6517381}, {"type": "node", "id": 4015069891, "lat": 41.3945225, "lon": -75.6529231}, {"type": "node", "id": 4015069892, "lat": 41.3945587, "lon": -75.6528769}, {"type": "node", "id": 4015069893, "lat": 41.3945966, "lon": -75.6529187}, {"type": "node", "id": 4015069894, "lat": 41.3946477, "lon": -75.652855}, {"type": "node", "id": 4015069895, "lat": 41.3946247, "lon": -75.6528154}, {"type": "node", "id": 4015069896, "lat": 41.3946593, "lon": -75.6527737}, {"type": "node", "id": 4015069897, "lat": 41.3945966, "lon": -75.6526683}, {"type": "node", "id": 4015069898, "lat": 41.394534, "lon": -75.6527385}, {"type": "node", "id": 4015069899, "lat": 41.3945456, "lon": -75.6527583}, {"type": "node", "id": 4015069900, "lat": 41.3944698, "lon": -75.6528462}, {"type": "node", "id": 4015069901, "lat": 41.3953833, "lon": -75.6532811}, {"type": "node", "id": 4015069902, "lat": 41.3956913, "lon": -75.6529422}, {"type": "node", "id": 4015069903, "lat": 41.3953985, "lon": -75.6524694}, {"type": "node", "id": 4015069904, "lat": 41.3950301, "lon": -75.6528747}, {"type": "node", "id": 4015069905, "lat": 41.3956202, "lon": -75.6521721}, {"type": "node", "id": 4015069906, "lat": 41.3956725, "lon": -75.6521155}, {"type": "node", "id": 4015069907, "lat": 41.3955107, "lon": -75.6518493}, {"type": "node", "id": 4015069908, "lat": 41.3954584, "lon": -75.6519059}, {"type": "node", "id": 4015069911, "lat": 41.3958981, "lon": -75.652135}, {"type": "node", "id": 4015069912, "lat": 41.3956398, "lon": -75.65171}, {"type": "node", "id": 4015069913, "lat": 41.3961997, "lon": -75.6517265}, {"type": "node", "id": 4015069914, "lat": 41.3960141, "lon": -75.6519269}, {"type": "node", "id": 4015069915, "lat": 41.3957862, "lon": -75.6515518}, {"type": "node", "id": 4015069916, "lat": 41.3959718, "lon": -75.6513514}, {"type": "node", "id": 4015069917, "lat": 41.3957165, "lon": -75.6516271}, {"type": "node", "id": 4015069918, "lat": 41.3959748, "lon": -75.6520521}, {"type": "node", "id": 4015069919, "lat": 41.3960445, "lon": -75.6519769}, {"type": "node", "id": 6141124285, "lat": 41.3968453, "lon": -75.6493073, "tags": {"addr:housenumber": "1103", "addr:street": "Moosic Street", "amenity": "pharmacy", "brand": "CVS Pharmacy", "brand:website": "https://www.cvs.com/", "brand:wikidata": "Q2078880", "brand:wikipedia": "en:CVS Pharmacy", "healthcare": "pharmacy", "name": "CVS Pharmacy", "opening_hours": "24/7", "short_name": "CVS"}}, {"type": "node", "id": 7254715921, "lat": 41.3960707, "lon": -75.6515142}, {"type": "node", "id": 7254715924, "lat": 41.395989, "lon": -75.6513798}, {"type": "node", "id": 7530353648, "lat": 41.3968072, "lon": -75.6504397, "tags": {"amenity": "restaurant", "cuisine": "coffee_shop;burger;sandwich", "name": "Chick's Dinner"}}, {"type": "node", "id": 9309870804, "lat": 41.3939801, "lon": -75.651813}, {"type": "node", "id": 9309870805, "lat": 41.3939882, "lon": -75.6518042}, {"type": "node", "id": 9309870806, "lat": 41.3941429, "lon": -75.6516387}, {"type": "node", "id": 9309870807, "lat": 41.3941517, "lon": -75.6516291}, {"type": "node", "id": 9309870809, "lat": 41.3970023, "lon": -75.6485483}, {"type": "node", "id": 9309870810, "lat": 41.3970355, "lon": -75.6485114}, {"type": "node", "id": 9309870811, "lat": 41.3970603, "lon": -75.6485511}, {"type": "node", "id": 9309870812, "lat": 41.3970845, "lon": -75.6485243}, {"type": "node", "id": 9309870813, "lat": 41.3972447, "lon": -75.648781}, {"type": "node", "id": 9309870814, "lat": 41.3970402, "lon": -75.649008}, {"type": "node", "id": 9309870815, "lat": 41.3970532, "lon": -75.6490289}, {"type": "node", "id": 9309870816, "lat": 41.3969537, "lon": -75.6491393}, {"type": "node", "id": 9309873817, "lat": 41.3968638, "lon": -75.6489953}, {"type": "node", "id": 9309873818, "lat": 41.3968792, "lon": -75.6489782}, {"type": "node", "id": 9309873819, "lat": 41.3967958, "lon": -75.6488446}, {"type": "node", "id": 9309873820, "lat": 41.397027, "lon": -75.648588}, {"type": "node", "id": 9309873821, "lat": 41.3970668, "lon": -75.6486378, "tags": {"addr:city": "Scranton", "addr:housenumber": "1101", "addr:postcode": "18505", "addr:state": "PA", "addr:street": "Moosic Street", "amenity": "pharmacy", "brand": "CVS Pharmacy", "brand:website": "https://www.cvs.com/", "brand:wikidata": "Q2078880", "brand:wikipedia": "en:CVS Pharmacy", "dispensing": "yes", "healthcare": "pharmacy", "name": "CVS Pharmacy", "ref": "1611", "short_name": "CVS", "website": "https://www.cvs.com/store-locator/scranton-pa-pharmacies/1101-moosic-st-scranton-pa-18505/storeid=1611"}}, {"type": "node", "id": 9309873822, "lat": 41.3952702, "lon": -75.6532624}, {"type": "node", "id": 9309873823, "lat": 41.3953306, "lon": -75.6531959}, {"type": "way", "id": 45056127, "nodes": [571343966, 571343967, 571343970, 571343971, 571343972, 571343973, 571343974, 571343975, 571343976, 571343977, 571343978, 571343979, 571343966], "tags": {"addr:city": "Scranton", "addr:housenumber": "1901", "addr:postcode": "18510", "addr:state": "PA", "addr:street": "Mulberry Street", "building": "yes", "name": "Everhart Museum", "tourism": "museum", "website": "https://everhart-museum.org/"}}, {"type": "way", "id": 398764511, "nodes": [4015051583, 4015051584, 9309870807, 9309870806, 4015051585, 4015051586, 9309870805, 9309870804, 4015051583], "tags": {"building": "retail"}}, {"type": "way", "id": 398764513, "nodes": [4015069891, 4015069892, 4015069893, 4015069894, 4015069895, 4015069896, 4015069897, 4015069898, 4015069899, 4015069900, 4015069891], "tags": {"amenity": "bank", "atm": "yes", "brand": "Wells Fargo", "brand:wikidata": "Q744149", "building": "yes", "drive_through": "yes", "name": "Wells Fargo"}}, {"type": "way", "id": 398764514, "nodes": [4015069901, 4015069902, 4015069903, 4015069904, 9309873822, 9309873823, 4015069901], "tags": {"addr:city": "Scranton", "addr:housenumber": "320", "addr:postcode": "18505", "addr:state": "PA", "addr:street": "Meadow Avenue", "building": "retail", "name": "Gerrity's Supermarket", "operator": "ShurSave", "shop": "supermarket"}}, {"type": "way", "id": 398764515, "nodes": [4015069905, 4015069906, 4015069907, 4015069908, 4015069905], "tags": {"amenity": "restaurant", "building": "yes", "capacity": "50", "cuisine": "ice_cream", "delivery": "no", "name": "Manning's Dairy", "opening_hours": "Mo-Su 10:00-22:00", "smoking": "no", "takeaway": "yes"}}, {"type": "way", "id": 398764517, "nodes": [4015069913, 4015069914, 4015069915, 4015069916, 7254715924, 7254715921, 4015069913], "tags": {"addr:city": "Scranton", "addr:housenumber": "208", "addr:postcode": "18505", "addr:state": "PA", "addr:street": "Meadow Avenue", "brand": "Dollar Tree", "brand:wikidata": "Q5289230", "building": "retail", "check_date": "2024-07-11", "name": "Dollar Tree", "ref": "1955", "shop": "variety_store", "website": "https://www.dollartree.com/locations/pa/scranton/1955/"}}, {"type": "way", "id": 398764518, "nodes": [4015069915, 4015069917, 4015069918, 4015069919, 4015069914, 4015069915], "tags": {"amenity": "restaurant", "building": "yes", "capacity": "50", "cuisine": "pizza", "delivery": "yes", "name": "Saccos", "smoking": "no", "takeaway": "yes"}}, {"type": "way", "id": 777422618, "nodes": [4015069912, 4015069917, 4015069918, 4015069911, 4015069912], "tags": {"amenity": "restaurant", "building": "yes", "building:levels": "1", "name": "asian taste"}}, {"type": "way", "id": 1009018273, "nodes": [9309873820, 9309873819, 9309873818, 9309873817, 9309870816, 9309870815, 9309870814, 9309870813, 9309870812, 9309870811, 9309870810, 9309870809, 9309873820], "tags": {"addr:city": "Scranton", "addr:housenumber": "1101", "addr:postcode": "18505", "addr:state": "PA", "addr:street": "Moosic Street", "brand": "CVS Pharmacy", "brand:website": "https://www.cvs.com/", "brand:wikidata": "Q2078880", "brand:wikipedia": "en:CVS Pharmacy", "building": "retail", "name": "CVS Pharmacy", "shop": "chemist", "short_name": "CVS", "website": "https://www.cvs.com/store-locator/scranton-pa-pharmacies/1101-moosic-st-scranton-pa-18505/storeid=1611"}}]}