{"version": 0.6, "generator": "Overpass API 0.7.62.1 084b4234", "osm3s": {"timestamp_osm_base": "2024-07-25T18:19:11Z", "copyright": "The data included in this document is from www.openstreetmap.org. The data is made available under ODbL."}, "elements": [{"type": "node", "id": 2884474277, "lat": 42.5347542, "lon": -83.7834611}, {"type": "node", "id": 2884474278, "lat": 42.5346088, "lon": -83.7836544}, {"type": "node", "id": 2884474279, "lat": 42.5346846, "lon": -83.7836958}, {"type": "node", "id": 2884474280, "lat": 42.5346783, "lon": -83.7834197}, {"type": "node", "id": 2887361708, "lat": 42.5346265, "lon": -83.7825847}, {"type": "node", "id": 2887361709, "lat": 42.535006, "lon": -83.7829188}, {"type": "node", "id": 2887361710, "lat": 42.5350382, "lon": -83.7828107}, {"type": "node", "id": 2887361711, "lat": 42.5345943, "lon": -83.7826929}, {"type": "node", "id": 3950529076, "lat": 42.5298245, "lon": -83.7792538}, {"type": "node", "id": 3950529077, "lat": 42.5299494, "lon": -83.7788113}, {"type": "node", "id": 3950529078, "lat": 42.5302775, "lon": -83.7794894}, {"type": "node", "id": 3950529079, "lat": 42.5304025, "lon": -83.7790468}, {"type": "node", "id": 8288296800, "lat": 42.5300578, "lon": -83.7793751}, {"type": "node", "id": 8288296801, "lat": 42.530047, "lon": -83.7794133}, {"type": "node", "id": 8288296802, "lat": 42.5299861, "lon": -83.7793817}, {"type": "node", "id": 8288296803, "lat": 42.5299969, "lon": -83.7793435}, {"type": "node", "id": 8288307127, "lat": 42.5371588, "lon": -83.7854907, "tags": {"addr:city": "Brighton", "addr:housenumber": "8720", "addr:postcode": "48116", "addr:state": "MI", "addr:street": "West Grand River Avenue", "amenity": "pharmacy", "brand": "Walgreens", "brand:wikidata": "Q1591889", "dispensing": "yes", "healthcare": "pharmacy", "name": "Walgreens", "ref": "517"}}, {"type": "node", "id": 8288307144, "lat": 42.5388876, "lon": -83.7860025}, {"type": "node", "id": 8288307145, "lat": 42.5390591, "lon": -83.786096}, {"type": "node", "id": 8288307146, "lat": 42.5390174, "lon": -83.7862369}, {"type": "node", "id": 8288307153, "lat": 42.538973, "lon": -83.7862127}, {"type": "node", "id": 8288307154, "lat": 42.5388914, "lon": -83.7861683}, {"type": "node", "id": 8288307156, "lat": 42.5388459, "lon": -83.7861434}, {"type": "node", "id": 8288307166, "lat": 42.5341901, "lon": -83.7825743}, {"type": "node", "id": 8288307167, "lat": 42.5342474, "lon": -83.7823744}, {"type": "node", "id": 8288307168, "lat": 42.5341472, "lon": -83.7823215}, {"type": "node", "id": 8288307170, "lat": 42.5340899, "lon": -83.7825214}, {"type": "node", "id": 8732500579, "lat": 42.534027, "lon": -83.7846381, "tags": {"tourism": "viewpoint"}}, {"type": "node", "id": 8732500588, "lat": 42.5331111, "lon": -83.783753, "tags": {"tourism": "viewpoint"}}, {"type": "node", "id": 8951819737, "lat": 42.5327978, "lon": -83.782874}, {"type": "node", "id": 8951819738, "lat": 42.5325593, "lon": -83.7827429}, {"type": "node", "id": 8951819739, "lat": 42.5324956, "lon": -83.7829562}, {"type": "node", "id": 8951819740, "lat": 42.5327732, "lon": -83.7831088}, {"type": "node", "id": 8951819741, "lat": 42.5327872, "lon": -83.7830619}, {"type": "node", "id": 8951819742, "lat": 42.5327731, "lon": -83.7830542}, {"type": "node", "id": 8951819743, "lat": 42.5327983, "lon": -83.7829696}, {"type": "node", "id": 8951819744, "lat": 42.5327733, "lon": -83.7829559}, {"type": "node", "id": 9404005288, "lat": 42.5379057, "lon": -83.7855909, "tags": {"amenity": "fast_food", "cuisine": "chicken;pasta;pizza", "name": "Gus's Carry Out", "takeaway": "yes"}}, {"type": "node", "id": 9404005291, "lat": 42.5371885, "lon": -83.7847853, "tags": {"amenity": "restaurant", "name": "Lefty's Cheesesteak"}}, {"type": "node", "id": 9404005295, "lat": 42.5374236, "lon": -83.7839578, "tags": {"addr:city": "Brighton", "addr:housenumber": "8709", "addr:postcode": "48116", "addr:state": "MI", "addr:street": "West Grand River Avenue", "amenity": "fast_food", "branch": "Brighton", "brand": "Qdoba", "brand:wikidata": "Q1363885", "cuisine": "mexican", "name": "Qdoba", "official_name": "Qdoba Mexican Grill", "opening_hours": "10:30-21:00", "phone": "+1 810-522-5100", "takeaway": "yes", "website": "https://locations.qdoba.com/us/mi/brighton/8709-w-grand-river-ave.html"}}, {"type": "node", "id": 9404005297, "lat": 42.5380091, "lon": -83.7834113, "tags": {"addr:housenumber": "8701", "addr:street": "West Grand River Avenue", "amenity": "pharmacy", "brand": "Rite Aid", "brand:wikidata": "Q3433273", "healthcare": "pharmacy", "name": "Rite Aid"}}, {"type": "node", "id": 9404020136, "lat": 42.5374758, "lon": -83.7841086}, {"type": "node", "id": 9404020137, "lat": 42.5373056, "lon": -83.784013}, {"type": "node", "id": 9404020138, "lat": 42.5373709, "lon": -83.7837989}, {"type": "node", "id": 9404020139, "lat": 42.537541, "lon": -83.7838945}, {"type": "node", "id": 9404020140, "lat": 42.5380672, "lon": -83.7835088}, {"type": "node", "id": 9404020141, "lat": 42.5378997, "lon": -83.7834172}, {"type": "node", "id": 9404020142, "lat": 42.5379305, "lon": -83.7833134}, {"type": "node", "id": 9404020143, "lat": 42.5375377, "lon": -83.7830985}, {"type": "node", "id": 9404020144, "lat": 42.5375525, "lon": -83.7830487}, {"type": "node", "id": 9404020145, "lat": 42.5375304, "lon": -83.7830366}, {"type": "node", "id": 9404020146, "lat": 42.5376307, "lon": -83.7826992}, {"type": "node", "id": 9404020147, "lat": 42.5380498, "lon": -83.7829287}, {"type": "node", "id": 9404020148, "lat": 42.5380433, "lon": -83.7829504}, {"type": "node", "id": 9404020149, "lat": 42.5382336, "lon": -83.7830545}, {"type": "node", "id": 9404020150, "lat": 42.5381042, "lon": -83.78349}, {"type": "node", "id": 9404020151, "lat": 42.5380772, "lon": -83.7834752}, {"type": "node", "id": 10315958145, "lat": 42.5300346, "lon": -83.7820181, "tags": {"artwork_type": "sculpture", "tourism": "artwork"}}, {"type": "node", "id": 10315959073, "lat": 42.5306719, "lon": -83.7793328, "tags": {"amenity": "restaurant", "name": "The Canopy Lounge"}}, {"type": "way", "id": 284738491, "nodes": [2884474277, 2884474280, 2884474278, 2884474279, 2884474277], "tags": {"addr:city": "Brighton", "addr:housenumber": "675", "addr:state": "MI", "addr:street": "Grand River Road", "amenity": "restaurant", "building": "yes", "name": "Wooden Spoon", "phone": "+1-810-588-4386", "toilets:wheelchair": "yes", "wheelchair": "yes"}}, {"type": "way", "id": 285044124, "nodes": [2887361709, 2887361711, 2887361708, 2887361710, 2887361709], "tags": {"amenity": "restaurant", "building": "yes", "name": "The Breakfast Club"}}, {"type": "way", "id": 391799849, "nodes": [3950529079, 3950529077, 3950529076, 8288296803, 8288296802, 8288296801, 8288296800, 3950529078, 3950529079], "tags": {"addr:city": "Brighton", "addr:housenumber": "106", "addr:postcode": "48116", "addr:state": "MI", "addr:street": "West Grand River Avenue", "amenity": "pharmacy", "brand": "CVS Pharmacy", "brand:website": "https://www.cvs.com/", "brand:wikidata": "Q2078880", "brand:wikipedia": "en:CVS Pharmacy", "building": "retail", "dispensing": "yes", "healthcare": "pharmacy", "name": "CVS Pharmacy", "ref": "8204", "short_name": "CVS", "website": "https://www.cvs.com/store-locator/brighton-mi-pharmacies/106-w-grand-river-brighton-mi-48116/storeid=8204"}}, {"type": "way", "id": 891761155, "nodes": [8288307156, 8288307154, 8288307153, 8288307146, 8288307145, 8288307144, 8288307156], "tags": {"addr:city": "Brighton", "addr:housenumber": "8660", "addr:postcode": "48116", "addr:state": "MI", "addr:street": "West Grand River Avenue", "brand": "Meijer", "brand:wikidata": "Q1917753", "building": "retail", "name": "Meijer", "operator": "Meijer", "shop": "convenience"}}, {"type": "way", "id": 891761159, "nodes": [8288307170, 8288307168, 8288307167, 8288307166, 8288307170], "tags": {"addr:city": "Brighton", "addr:housenumber": "602", "addr:postcode": "48116", "addr:state": "MI", "addr:street": "Grand River Avenue", "building": "retail", "name": "Express Stop", "shop": "convenience"}}, {"type": "way", "id": 967612782, "nodes": [8951819737, 8951819738, 8951819739, 8951819740, 8951819741, 8951819742, 8951819743, 8951819744, 8951819737], "tags": {"amenity": "restaurant", "building": "yes", "name": "Stillwater Grill"}}, {"type": "way", "id": 1019617367, "nodes": [9404020136, 9404020137, 9404020138, 9404020139, 9404020136], "tags": {"building": "retail"}}, {"type": "way", "id": 1019617368, "nodes": [9404020140, 9404020141, 9404020142, 9404020143, 9404020144, 9404020145, 9404020146, 9404020147, 9404020148, 9404020149, 9404020150, 9404020151, 9404020140], "tags": {"building": "retail", "name": "Cross Grand Plaza"}}]}