{"version": 0.6, "generator": "Overpass API 0.7.62.1 084b4234", "osm3s": {"timestamp_osm_base": "2024-07-23T20:12:45Z", "copyright": "The data included in this document is from www.openstreetmap.org. The data is made available under ODbL."}, "elements": [{"type": "node", "id": 6046580244, "lat": 40.1750973, "lon": -75.128478}, {"type": "node", "id": 6046580245, "lat": 40.1750911, "lon": -75.1288522}, {"type": "node", "id": 6046580246, "lat": 40.1750614, "lon": -75.1288548}, {"type": "node", "id": 6046580247, "lat": 40.1750593, "lon": -75.1288428}, {"type": "node", "id": 6046580248, "lat": 40.1749927, "lon": -75.1288401}, {"type": "node", "id": 6046580249, "lat": 40.1749917, "lon": -75.1288535}, {"type": "node", "id": 6046580250, "lat": 40.1749641, "lon": -75.1288522}, {"type": "node", "id": 6046580251, "lat": 40.1749671, "lon": -75.1288066}, {"type": "node", "id": 6046580252, "lat": 40.1749507, "lon": -75.1288039}, {"type": "node", "id": 6046580253, "lat": 40.1749579, "lon": -75.1285933}, {"type": "node", "id": 6046580254, "lat": 40.1749712, "lon": -75.1285947}, {"type": "node", "id": 6046580255, "lat": 40.1749774, "lon": -75.1284699}, {"type": "node", "id": 6046580256, "lat": 40.1735141, "lon": -75.1275513}, {"type": "node", "id": 6046580257, "lat": 40.173512, "lon": -75.127794}, {"type": "node", "id": 6046580258, "lat": 40.1735038, "lon": -75.1277954}, {"type": "node", "id": 6046580259, "lat": 40.1735028, "lon": -75.1278235}, {"type": "node", "id": 6046580260, "lat": 40.173427, "lon": -75.1278182}, {"type": "node", "id": 6046580261, "lat": 40.173427, "lon": -75.1277913}, {"type": "node", "id": 6046580262, "lat": 40.1733511, "lon": -75.1277887}, {"type": "node", "id": 6046580263, "lat": 40.1733481, "lon": -75.1275499}, {"type": "node", "id": 6230281055, "lat": 40.1717735, "lon": -75.1289442}, {"type": "node", "id": 6230281056, "lat": 40.171707, "lon": -75.1290144}, {"type": "node", "id": 6230281057, "lat": 40.1714694, "lon": -75.1286442}, {"type": "node", "id": 6230281058, "lat": 40.1716549, "lon": -75.1284135}, {"type": "node", "id": 6230281059, "lat": 40.1717082, "lon": -75.1284182}, {"type": "node", "id": 6230281060, "lat": 40.1719099, "lon": -75.1287879}, {"type": "node", "id": 7984774372, "lat": 40.171717, "lon": -75.1284697}, {"type": "node", "id": 7984774373, "lat": 40.1716394, "lon": -75.1284599}, {"type": "node", "id": 8554474071, "lat": 40.1675473, "lon": -75.1251967}, {"type": "node", "id": 8554474072, "lat": 40.1674923, "lon": -75.1252496}, {"type": "node", "id": 8554474073, "lat": 40.1675104, "lon": -75.1252754}, {"type": "node", "id": 8554474074, "lat": 40.1674752, "lon": -75.1253193}, {"type": "node", "id": 8554474075, "lat": 40.1672811, "lon": -75.1249922}, {"type": "node", "id": 8554474076, "lat": 40.1673171, "lon": -75.1249652}, {"type": "node", "id": 8554474077, "lat": 40.1673206, "lon": -75.1249742}, {"type": "node", "id": 8554474078, "lat": 40.1673592, "lon": -75.1249349}, {"type": "node", "id": 8554474079, "lat": 40.1673704, "lon": -75.124954}, {"type": "node", "id": 8554474080, "lat": 40.1673807, "lon": -75.1249428}, {"type": "node", "id": 8554474081, "lat": 40.1674829, "lon": -75.1251181}, {"type": "node", "id": 8554474082, "lat": 40.1674923, "lon": -75.1251068}, {"type": "node", "id": 9313283344, "lat": 40.1702443, "lon": -75.126818}, {"type": "node", "id": 9313283345, "lat": 40.170248, "lon": -75.1268143}, {"type": "node", "id": 9313283346, "lat": 40.1702656, "lon": -75.1268445}, {"type": "node", "id": 9313283347, "lat": 40.1703755, "lon": -75.1267349}, {"type": "node", "id": 9313283348, "lat": 40.1702733, "lon": -75.1265595}, {"type": "node", "id": 9313283349, "lat": 40.1701634, "lon": -75.1266691}, {"type": "node", "id": 9313283350, "lat": 40.1701834, "lon": -75.1267033}, {"type": "node", "id": 9313283351, "lat": 40.1701797, "lon": -75.126707}, {"type": "node", "id": 9313283353, "lat": 40.1717247, "lon": -75.1288692, "tags": {"addr:city": "Horsham", "addr:housenumber": "101", "addr:postcode": "19044", "addr:state": "PA", "addr:street": "Easton Road", "amenity": "pharmacy", "brand": "CVS Pharmacy", "brand:website": "https://www.cvs.com/", "brand:wikidata": "Q2078880", "brand:wikipedia": "en:CVS Pharmacy", "dispensing": "yes", "healthcare": "pharmacy", "name": "CVS Pharmacy", "ref": "1191", "short_name": "CVS", "website": "https://www.cvs.com/store-locator/horsham-pa-pharmacies/101-easton-rd-suite-b-horsham-pa-19044/storeid=1191"}}, {"type": "node", "id": 9313283358, "lat": 40.1708466, "lon": -75.1279288}, {"type": "node", "id": 9313283359, "lat": 40.1709579, "lon": -75.1281094}, {"type": "node", "id": 9313283360, "lat": 40.1708898, "lon": -75.1281812}, {"type": "node", "id": 9313283361, "lat": 40.1707785, "lon": -75.1280006}, {"type": "node", "id": 10989379976, "lat": 40.1709844, "lon": -75.1290119}, {"type": "node", "id": 10989379977, "lat": 40.1711361, "lon": -75.1292568}, {"type": "node", "id": 10989379978, "lat": 40.1710336, "lon": -75.1293534}, {"type": "node", "id": 10989379979, "lat": 40.1711047, "lon": -75.1294714}, {"type": "node", "id": 10989379980, "lat": 40.1710254, "lon": -75.1295501}, {"type": "node", "id": 10989379981, "lat": 40.1708123, "lon": -75.1291907}, {"type": "way", "id": 642215950, "nodes": [6046580244, 6046580245, 6046580246, 6046580247, 6046580248, 6046580249, 6046580250, 6046580251, 6046580252, 6046580253, 6046580254, 6046580255, 6046580244], "tags": {"addr:city": "Horsham", "addr:postcode": "19044", "addr:state": "PA", "addr:street": "Easton Road", "amenity": "fast_food", "brand": "McDonald's", "brand:wikidata": "Q38076", "building": "yes", "cuisine": "burger", "drive_through": "yes", "internet_access": "wlan", "name": "McDonald's", "opening_hours": "05:00-23:00", "phone": "+1 215-443-7745", "takeaway": "yes", "website": "https://www.mcdonalds.com/us/en-us/location/3507.html"}}, {"type": "way", "id": 642215951, "nodes": [6046580256, 6046580257, 6046580258, 6046580259, 6046580260, 6046580261, 6046580262, 6046580263, 6046580256], "tags": {"addr:city": "Horsham", "addr:postcode": "19044", "addr:state": "PA", "addr:street": "Easton Road", "amenity": "restaurant", "brand": "Friendly's", "brand:wikidata": "Q1464513", "building": "yes", "cuisine": "american", "name": "Friendly's"}}, {"type": "way", "id": 665619738, "nodes": [6230281055, 6230281056, 6230281057, 7984774373, 6230281058, 6230281059, 7984774372, 6230281060, 6230281055], "tags": {"addr:city": "Horsham", "addr:housenumber": "101", "addr:postcode": "19044", "addr:state": "PA", "addr:street": "Easton Road", "brand": "CVS Pharmacy", "brand:website": "https://www.cvs.com/", "brand:wikidata": "Q2078880", "brand:wikipedia": "en:CVS Pharmacy", "building": "retail", "name": "CVS Pharmacy", "ref": "1191", "shop": "chemist", "short_name": "CVS", "website": "https://www.cvs.com/store-locator/horsham-pa-pharmacies/101-easton-rd-suite-b-horsham-pa-19044/storeid=1191"}}, {"type": "way", "id": 921400687, "nodes": [8554474071, 8554474072, 8554474073, 8554474074, 8554474075, 8554474076, 8554474077, 8554474078, 8554474079, 8554474080, 8554474081, 8554474082, 8554474071], "tags": {"addr:city": "Willow Grove", "addr:housenumber": "2405", "addr:postcode": "19090", "addr:state": "PA", "addr:street": "Easton Road", "amenity": "fast_food", "brand": "Sonic", "brand:wikidata": "Q7561808", "building": "yes", "cuisine": "burger", "drive_in": "yes", "name": "Sonic", "opening_hours": "10:00-23:00", "phone": "+1 215-259-6171", "takeaway": "yes", "website": "https://locations.sonicdrivein.com/pa/willowgrove/2405-easton-road.html"}}, {"type": "way", "id": 1009391877, "nodes": [9313283351, 9313283350, 9313283349, 9313283348, 9313283347, 9313283346, 9313283345, 9313283344, 9313283351], "tags": {"building": "retail"}}, {"type": "way", "id": 1009391879, "nodes": [9313283361, 9313283360, 9313283359, 9313283358, 9313283361], "tags": {"building": "retail"}}, {"type": "way", "id": 1183390052, "nodes": [10989379976, 10989379977, 10989379978, 10989379979, 10989379980, 10989379981, 10989379976], "tags": {"addr:city": "Horsham", "addr:housenumber": "101", "addr:postcode": "19044", "addr:state": "PA", "addr:street": "Easton Road", "amenity": "restaurant", "building": "yes", "name": "P.J. Whelihan's Pub + Restaurant"}}]}