{"version": 0.6, "generator": "Overpass API 0.7.62.1 084b4234", "osm3s": {"timestamp_osm_base": "2024-07-23T19:56:15Z", "copyright": "The data included in this document is from www.openstreetmap.org. The data is made available under ODbL."}, "elements": [{"type": "node", "id": 4491635907, "lat": 21.310209, "lon": -157.862799, "tags": {"bench": "yes", "bin": "yes", "bus": "yes", "highway": "bus_stop", "name": "South King Street + Bethel Street", "network": "TheBus", "network:wikidata": "Q7711627", "operator": "O\u02bbahu Transit Services Inc.", "public_transport": "platform", "ref": "393", "shelter": "no", "tactile_paving": "no", "website": "http://hea.thebus.org/nextbus.asp?s=393"}}, {"type": "node", "id": 4491671791, "lat": 21.3079073, "lon": -157.8611835, "tags": {"bench": "no", "bin": "no", "bus": "yes", "highway": "bus_stop", "name": "South King Street + Alakea Street", "network": "TheBus", "network:wikidata": "Q7711627", "operator": "O\u02bbahu Transit Services Inc.", "public_transport": "platform", "ref": "4400", "shelter": "no", "website": "http://hea.thebus.org/nextbus.asp?s=4400"}}, {"type": "node", "id": 4826246819, "lat": 21.3100547, "lon": -157.862317, "tags": {"bench": "yes", "bin": "yes", "bus": "yes", "highway": "bus_stop", "name": "Bethel Street + South King Street", "network": "TheBus", "network:wikidata": "Q7711627", "operator": "O\u02bbahu Transit Services Inc.", "public_transport": "platform", "ref": "330", "shelter": "no", "website": "http://hea.thebus.org/nextbus.asp?s=330"}}, {"type": "node", "id": 4844738367, "lat": 21.3105261, "lon": -157.861751, "tags": {"bench": "no", "bus": "yes", "highway": "bus_stop", "name": "South Hotel Street + Bethel Street", "network": "TheBus", "network:wikidata": "Q7711627", "operator": "O\u02bbahu Transit Services Inc.", "public_transport": "platform", "ref": "127", "shelter": "no", "website": "http://hea.thebus.org/nextbus.asp?s=127"}}, {"type": "node", "id": 5049882356, "lat": 21.3064313, "lon": -157.861701, "tags": {"bench": "yes", "bus": "yes", "highway": "bus_stop", "name": "Queen Street + Richards Street", "network": "TheBus", "network:wikidata": "Q7711627", "operator": "O\u02bbahu Transit Services Inc.", "public_transport": "platform", "ref": "327", "shelter": "no", "website": "http://hea.thebus.org/nextbus.asp?s=327"}}, {"type": "node", "id": 5049882357, "lat": 21.3074763, "lon": -157.8626108, "tags": {"bench": "yes", "bus": "yes", "highway": "bus_stop", "name": "Queen Street + Bishop Street", "network": "TheBus", "network:wikidata": "Q7711627", "operator": "O\u02bbahu Transit Services Inc.", "public_transport": "platform", "ref": "328", "shelter": "yes", "website": "http://hea.thebus.org/nextbus.asp?s=328"}}, {"type": "node", "id": 5049882358, "lat": 21.3082535, "lon": -157.863338, "tags": {"bench": "yes", "bus": "yes", "highway": "bus_stop", "name": "Queen Street + Fort Street Mall", "network": "TheBus", "network:wikidata": "Q7711627", "operator": "O\u02bbahu Transit Services Inc.", "public_transport": "platform", "ref": "329", "shelter": "no", "website": "http://hea.thebus.org/nextbus.asp?s=329"}}, {"type": "node", "id": 5625452523, "lat": 21.3029863, "lon": -157.863165, "tags": {"bus": "yes", "highway": "bus_stop", "name": "Ala Moana Boulevard + Punchbowl Street", "public_transport": "platform", "ref": "895", "shelter": "yes"}}, {"type": "node", "id": 6429366285, "lat": 21.3063952, "lon": -157.862595, "tags": {"bus": "yes", "fixme": "approximate location", "highway": "bus_stop", "name": "Alakea Street + Nimitz Highway", "network": "TheBus", "network:wikidata": "Q7711627", "operator": "O\u02bbahu Transit Services Inc.", "public_transport": "platform", "ref": "897", "website": "http://hea.thebus.org/nextbus.asp?s=897"}}, {"type": "node", "id": 6533703010, "lat": 21.3104153, "lon": -157.861537, "tags": {"bus": "yes", "highway": "bus_stop", "name": "South Hotel Street + Bethel Street", "network": "TheBus", "network:wikidata": "Q7711627", "operator": "O\u02bbahu Transit Services Inc.", "public_transport": "platform", "ref": "48", "website": "http://hea.thebus.org/nextbus.asp?s=48"}}, {"type": "node", "id": 6535073898, "lat": 21.3056141, "lon": -157.864211, "tags": {"bus": "yes", "highway": "bus_stop", "name": "Aloha Tower", "network": "TheBus", "network:wikidata": "Q7711627", "operator": "O\u02bbahu Transit Services Inc.", "public_transport": "platform", "ref": "1281", "website": "http://hea.thebus.org/nextbus.asp?s=1281"}}, {"type": "node", "id": 6535073899, "lat": 21.307569, "lon": -157.862935, "tags": {"bus": "yes", "highway": "bus_stop", "name": "Bishop Street + Queen Street", "network": "TheBus", "network:wikidata": "Q7711627", "operator": "O\u02bbahu Transit Services Inc.", "public_transport": "platform", "ref": "1280", "website": "http://hea.thebus.org/nextbus.asp?s=1280"}}, {"type": "node", "id": 6535073901, "lat": 21.305263, "lon": -157.862603, "tags": {"bench": "yes", "bin": "yes", "bus": "yes", "highway": "bus_stop", "name": "Ala Moana Boulevard + Richards Street", "network": "TheBus", "network:wikidata": "Q7711627", "operator": "O\u02bbahu Transit Services Inc.", "public_transport": "platform", "ref": "896", "shelter": "yes", "website": "http://hea.thebus.org/nextbus.asp?s=896"}}, {"type": "node", "id": 6535073904, "lat": 21.306324, "lon": -157.861718, "tags": {"bus": "yes", "highway": "bus_stop", "name": "Queen Street + Richards Street", "network": "TheBus", "network:wikidata": "Q7711627", "operator": "O\u02bbahu Transit Services Inc.", "public_transport": "platform", "ref": "837", "website": "http://hea.thebus.org/nextbus.asp?s=837"}}, {"type": "node", "id": 6535073905, "lat": 21.30722, "lon": -157.862487, "tags": {"bus": "yes", "highway": "bus_stop", "name": "Queen Street + Alakea Street", "network": "TheBus", "network:wikidata": "Q7711627", "operator": "O\u02bbahu Transit Services Inc.", "public_transport": "platform", "ref": "836", "website": "http://hea.thebus.org/nextbus.asp?s=836"}}, {"type": "node", "id": 6535073906, "lat": 21.308295, "lon": -157.861895, "tags": {"bench": "yes", "bin": "yes", "bus": "yes", "highway": "bus_stop", "name": "Bishop Street + South King Street", "network": "TheBus", "network:wikidata": "Q7711627", "operator": "O\u02bbahu Transit Services Inc.", "public_transport": "platform", "ref": "835", "shelter": "no", "website": "http://hea.thebus.org/nextbus.asp?s=835"}}, {"type": "node", "id": 6535073917, "lat": 21.3105332, "lon": -157.861438, "tags": {"bus": "yes", "highway": "bus_stop", "name": "Bethel Street + South Hotel Street", "network": "TheBus", "network:wikidata": "Q7711627", "operator": "O\u02bbahu Transit Services Inc.", "public_transport": "platform", "ref": "331", "website": "http://hea.thebus.org/nextbus.asp?s=331"}}, {"type": "node", "id": 11953275665, "lat": 21.3021938, "lon": -157.8621124, "tags": {"bus": "yes", "highway": "bus_stop", "name": "Pohukaina Street + Punchbowl", "network": "TheBus", "network:wikidata": "Q7711627", "operator": "O\u02bbahu Transit Services Inc.", "public_transport": "platform", "ref": "4379"}}]}