{"version": 0.6, "generator": "Overpass API 0.7.62.1 084b4234", "osm3s": {"timestamp_osm_base": "2024-07-23T20:36:20Z", "copyright": "The data included in this document is from www.openstreetmap.org. The data is made available under ODbL."}, "elements": [{"type": "node", "id": 9394520647, "lat": 36.1322321, "lon": -86.9069991, "tags": {"bench": "no", "bin": "no", "highway": "bus_stop", "name": "Walmart", "network": "WeGo Public Transit", "public_transport": "platform", "shelter": "no", "surface": "concrete:plates", "tactile_paving": "no"}}, {"type": "node", "id": 9394520656, "lat": 36.1297385, "lon": -86.9027382, "tags": {"bench": "yes", "bin": "yes", "highway": "bus_stop", "name": "Davidson Station Outbound", "network": "WeGo Public Transit", "public_transport": "platform", "shelter": "yes", "surface": "concrete:plates", "tactile_paving": "no"}}, {"type": "node", "id": 9394520657, "lat": 36.1293248, "lon": -86.9036491, "tags": {"bench": "yes", "bin": "yes", "highway": "bus_stop", "name": "Davidson Station Inbound", "network": "WeGo Public Transit", "public_transport": "platform", "shelter": "yes", "surface": "concrete:plates", "tactile_paving": "no"}}, {"type": "node", "id": 11882667010, "lat": 36.126293, "lon": -86.908729, "tags": {"bus": "yes", "gtfs_id": "CHALILNF", "highway": "bus_stop", "import:revised": "no", "name": "CHARLOTTE PIKE & LILY VALLEY WAY NB", "operator": "WeGo Public Transit", "public_transport": "platform", "ref": "CHALILNF", "wheelchair": "no"}}, {"type": "node", "id": 11882667011, "lat": 36.124359, "lon": -86.910299, "tags": {"bus": "yes", "gtfs_id": "CHA720NF", "highway": "bus_stop", "import:revised": "no", "name": "CHARLOTTE PIKE & 7201 CHARLOTTE PIK", "operator": "WeGo Public Transit", "public_transport": "platform", "ref": "CHA720NF", "wheelchair": "no"}}, {"type": "node", "id": 11882667021, "lat": 36.124174, "lon": -86.910723, "tags": {"bus": "yes", "gtfs_id": "CHA720SN", "highway": "bus_stop", "import:revised": "no", "name": "CHARLOTTE PIKE & 7201 CHARLOTTE PIK", "operator": "WeGo Public Transit", "public_transport": "platform", "ref": "CHA720SN"}}, {"type": "node", "id": 11882667768, "lat": 36.132167, "lon": -86.906837, "tags": {"bus": "yes", "gtfs_id": "WALMARTC", "highway": "bus_stop", "import:revised": "no", "name": "WALMART", "operator": "WeGo Public Transit", "public_transport": "platform", "ref": "WALMARTC"}}, {"type": "node", "id": 11882668300, "lat": 36.12936, "lon": -86.903625, "tags": {"bus": "yes", "gtfs_id": "CXIDVDSN", "highway": "bus_stop", "import:revised": "no", "name": "DAVIDSON STATION INBOUND", "operator": "WeGo Public Transit", "public_transport": "platform", "ref": "CXIDVDSN", "wheelchair": "limited"}}, {"type": "node", "id": 11882668301, "lat": 36.129661, "lon": -86.903165, "tags": {"bus": "yes", "gtfs_id": "CXODVDSN", "highway": "bus_stop", "import:revised": "no", "name": "DAVIDSON STATION OUTBOUND", "operator": "WeGo Public Transit", "public_transport": "platform", "ref": "CXODVDSN", "wheelchair": "limited"}}]}