{"version": 0.6, "generator": "Overpass API 0.7.62.1 084b4234", "osm3s": {"timestamp_osm_base": "2024-07-25T15:42:55Z", "copyright": "The data included in this document is from www.openstreetmap.org. The data is made available under ODbL."}, "elements": [{"type": "node", "id": 3093942552, "lat": 44.5348027, "lon": -68.413043, "tags": {"addr:city": "Ellsworth", "addr:housenumber": "175", "addr:postcode": "04605", "addr:state": "ME", "addr:street": "High Street", "brand": "Shaw's", "brand:wikidata": "Q578387", "building": "retail", "name": "Shaw's Supermarket", "operator": "Shaw's Supermarket", "phone": "+1-207-667-2293", "shop": "supermarket", "website": "https://local.shaws.com/me/ellsworth/175-high-st.html"}}, {"type": "node", "id": 3093943037, "lat": 44.5362361, "lon": -68.4134377, "tags": {"addr:city": "Ellsworth", "addr:housenumber": "151", "addr:postcode": "04605", "addr:state": "ME", "addr:street": "High Street", "amenity": "restaurant", "capacity": "40", "cuisine": "diner;breakfast", "name": "Martha's Diner", "opening_hours": "Mo closed, Tu 06:00-14:00, We 06:00-14:00, Th 06:00-14:00, Fr 06:00-14:00, Sa 06:00-13:00, Su 07:00-13:00", "phone": "+1-207-664-2495", "smoking": "no", "website": "http://marthasdiner.com/"}}, {"type": "node", "id": 3783642124, "lat": 44.5397456, "lon": -68.4170304}, {"type": "node", "id": 3783642125, "lat": 44.539542, "lon": -68.4167903}, {"type": "node", "id": 3783642126, "lat": 44.5394359, "lon": -68.41697}, {"type": "node", "id": 3783642127, "lat": 44.5397084, "lon": -68.4172838}, {"type": "node", "id": 3783642128, "lat": 44.5397485, "lon": -68.4172087}, {"type": "node", "id": 3783642129, "lat": 44.5396845, "lon": -68.417135}, {"type": "node", "id": 4222529991, "lat": 44.5335965, "lon": -68.409698, "tags": {"addr:city": "Ellsworth", "addr:housenumber": "211", "addr:postcode": "04605", "addr:state": "ME", "addr:street": "High Street", "amenity": "restaurant", "brand": "Pizza Hut", "brand:wikidata": "Q191615", "cuisine": "pizza", "indoor_seating": "yes", "name": "Pizza Hut", "opening_hours": "Mo-Su 11:00-21:00", "outdoor_seating": "no", "phone": "+1 207-667-3335", "website": "https://locations.pizzahut.com/me/ellsworth/211-high-st"}}, {"type": "node", "id": 5784574692, "lat": 44.5353646, "lon": -68.4136998}, {"type": "node", "id": 5784574693, "lat": 44.5358427, "lon": -68.4135228}, {"type": "node", "id": 5784574703, "lat": 44.5357004, "lon": -68.4139776}, {"type": "node", "id": 5784574705, "lat": 44.5351482, "lon": -68.4135665}, {"type": "node", "id": 5784574714, "lat": 44.5353459, "lon": -68.4137593}, {"type": "node", "id": 5784574718, "lat": 44.5352721, "lon": -68.4131711}, {"type": "node", "id": 7257280122, "lat": 44.5332109, "lon": -68.4092183, "tags": {"amenity": "bank", "brand": "TD Bank", "brand:wikidata": "Q7669891", "name": "TD Bank", "opening_hours": "Mo-Th 08:30-17:00; Fr 08:30-18:00", "website": "https://locations.td.com/us/217-high-street-ellsworth"}}, {"type": "node", "id": 7762583407, "lat": 44.5385353, "lon": -68.4147654, "tags": {"colour": "brown", "information": "route_marker", "material": "metal", "tourism": "information"}}, {"type": "node", "id": 11209154137, "lat": 44.5339946, "lon": -68.4099606}, {"type": "node", "id": 11209154138, "lat": 44.5338518, "lon": -68.4098016}, {"type": "node", "id": 11209154139, "lat": 44.5337081, "lon": -68.4100556}, {"type": "node", "id": 11209154140, "lat": 44.5338135, "lon": -68.4101729}, {"type": "node", "id": 11209154141, "lat": 44.5338401, "lon": -68.410126}, {"type": "node", "id": 11209154142, "lat": 44.5338775, "lon": -68.4101676}, {"type": "node", "id": 11248398269, "lat": 44.5339106, "lon": -68.4130405, "tags": {"amenity": "bank", "name": "Bangor Savings Bank"}}, {"type": "node", "id": 11248400143, "lat": 44.5350969, "lon": -68.411767, "tags": {"addr:city": "Ellsworth", "addr:housenumber": "187", "addr:postcode": "04605", "addr:state": "ME", "addr:street": "High Street", "amenity": "fast_food", "brand": "Wendy's", "brand:wikidata": "Q550258", "cuisine": "burger", "name": "Wendy's", "opening_hours": "06:30-22:00", "opening_hours:drive_through": "Mo-Su 06:30-23:00", "phone": "+1 207-667-0928", "takeaway": "yes", "website": "https://locations.wendys.com/united-states/me/ellsworth/187-high-street"}}, {"type": "node", "id": 11248409205, "lat": 44.5342572, "lon": -68.4104933, "tags": {"amenity": "restaurant", "cuisine": "mexican", "name": "Casa Jalisco"}}, {"type": "node", "id": 12022891847, "lat": 44.5372922, "lon": -68.4139728, "tags": {"amenity": "bank", "name": "Bar Harbor Bank and Trust"}}, {"type": "way", "id": 374982779, "nodes": [3783642124, 3783642125, 3783642126, 3783642127, 3783642128, 3783642129, 3783642124], "tags": {"addr:city": "Ellsworth", "addr:housenumber": "75", "addr:postcode": "04605", "addr:state": "ME", "addr:street": "High Street", "amenity": "restaurant", "brand": "Denny's", "brand:wikidata": "Q1189695", "building": "yes", "cuisine": "american", "name": "Denny's", "opening_hours": "24/7", "phone": "+1-207-667-4193", "website": "https://locations.dennys.com/ME/ELLSWORTH/247105"}}, {"type": "way", "id": 610841766, "nodes": [5784574718, 5784574693, 5784574703, 5784574714, 5784574692, 5784574705, 5784574718], "tags": {"brand": "Renys", "brand:wikidata": "Q7313614", "building": "retail", "name": "Reny\u2019s Department Store"}}, {"type": "way", "id": 1209909029, "nodes": [11209154137, 11209154138, 11209154139, 11209154140, 11209154141, 11209154142, 11209154137], "tags": {"building": "retail", "building:levels": "1", "roof:levels": "0", "roof:shape": "gabled"}}]}