{"version": 0.6, "generator": "Overpass API 0.7.62.1 084b4234", "osm3s": {"timestamp_osm_base": "2024-07-25T15:59:26Z", "copyright": "The data included in this document is from www.openstreetmap.org. The data is made available under ODbL."}, "elements": [{"type": "node", "id": 4459309343, "lat": 39.8840044, "lon": -104.9397853, "tags": {"addr:city": "Thornton", "addr:housenumber": "10376", "addr:postcode": "80229", "addr:state": "CO", "addr:street": "North Colorado Boulevard", "amenity": "fast_food", "brand": "Subway", "brand:wikidata": "Q244457", "cuisine": "sandwich", "delivery": "no", "drive_through": "no", "name": "Subway", "opening_hours": "Mo-Tu 09:00-22:30; We 09:00-22:00; Th-Fr 09:00-22:30; Sa-Su 09:00-22:00", "phone": "+1 303-451-9231", "takeaway": "yes", "website": "https://restaurants.subway.com/united-states/co/thornton/10376-n-colorado-blvd"}}, {"type": "node", "id": 4459309359, "lat": 39.8840088, "lon": -104.9392066}, {"type": "node", "id": 4459309360, "lat": 39.8840151, "lon": -104.9394302}, {"type": "node", "id": 4459309361, "lat": 39.883878, "lon": -104.93943}, {"type": "node", "id": 4459309362, "lat": 39.8838771, "lon": -104.9393873}, {"type": "node", "id": 4459309363, "lat": 39.8834808, "lon": -104.9393817}, {"type": "node", "id": 4459309364, "lat": 39.8834767, "lon": -104.9391385}, {"type": "node", "id": 4459309365, "lat": 39.8835353, "lon": -104.9391344}, {"type": "node", "id": 4459309366, "lat": 39.8835511, "lon": -104.9391654}, {"type": "node", "id": 4459309367, "lat": 39.8835527, "lon": -104.9392025}, {"type": "node", "id": 4459309368, "lat": 39.8838299, "lon": -104.9392025}, {"type": "node", "id": 4459309370, "lat": 39.8830613, "lon": -104.9408124}, {"type": "node", "id": 4459309371, "lat": 39.8830613, "lon": -104.9411366}, {"type": "node", "id": 4459309372, "lat": 39.8827928, "lon": -104.9411315}, {"type": "node", "id": 4459309373, "lat": 39.8827948, "lon": -104.9410594}, {"type": "node", "id": 4459309374, "lat": 39.8825243, "lon": -104.9410672}, {"type": "node", "id": 4459309375, "lat": 39.8825243, "lon": -104.9408021}, {"type": "node", "id": 4459310594, "lat": 39.8843999, "lon": -104.9415895}, {"type": "node", "id": 4459310595, "lat": 39.8843999, "lon": -104.9419497}, {"type": "node", "id": 4459310596, "lat": 39.8842242, "lon": -104.941942}, {"type": "node", "id": 4459310597, "lat": 39.8842262, "lon": -104.9415869}, {"type": "node", "id": 4459310598, "lat": 39.884145, "lon": -104.9407584}, {"type": "node", "id": 4459310599, "lat": 39.8841452, "lon": -104.9410337}, {"type": "node", "id": 4459310600, "lat": 39.8839379, "lon": -104.9410311}, {"type": "node", "id": 4459310601, "lat": 39.8839381, "lon": -104.940757}, {"type": "node", "id": 4459310602, "lat": 39.8844123, "lon": -104.9427156}, {"type": "node", "id": 4459310603, "lat": 39.8844118, "lon": -104.9430045}, {"type": "node", "id": 4459310604, "lat": 39.8842143, "lon": -104.9429934}, {"type": "node", "id": 4459310605, "lat": 39.8842128, "lon": -104.9427364}, {"type": "node", "id": 4459310606, "lat": 39.8843679, "lon": -104.942941, "tags": {"addr:city": "Thornton", "addr:housenumber": "3790", "addr:postcode": "80233", "addr:state": "CO", "addr:street": "East 104th Avenue", "amenity": "fast_food", "brand": "Quiznos", "brand:wikidata": "Q1936229", "cuisine": "sandwich", "delivery": "no", "drive_through": "no", "name": "Quiznos", "outdoor_seating": "no", "phone": "+1-720-557-8045", "takeaway": "yes"}}, {"type": "node", "id": 4459310611, "lat": 39.8842434, "lon": -104.944131}, {"type": "node", "id": 4459310614, "lat": 39.8841675, "lon": -104.9442647}, {"type": "node", "id": 4459310616, "lat": 39.8841672, "lon": -104.9441301}, {"type": "node", "id": 4459438109, "lat": 39.8855398, "lon": -104.9392027}, {"type": "node", "id": 4459438110, "lat": 39.8855354, "lon": -104.9393676}, {"type": "node", "id": 4459438111, "lat": 39.8855265, "lon": -104.9395959}, {"type": "node", "id": 4459438112, "lat": 39.8855045, "lon": -104.9395939}, {"type": "node", "id": 4459438113, "lat": 39.885503, "lon": -104.9396246}, {"type": "node", "id": 4459438114, "lat": 39.8854839, "lon": -104.9396381}, {"type": "node", "id": 4459438115, "lat": 39.8854691, "lon": -104.9396438}, {"type": "node", "id": 4459438116, "lat": 39.8854544, "lon": -104.9396457}, {"type": "node", "id": 4459438117, "lat": 39.8854368, "lon": -104.9396476}, {"type": "node", "id": 4459438118, "lat": 39.8854191, "lon": -104.9396419}, {"type": "node", "id": 4459438119, "lat": 39.8854044, "lon": -104.9396265}, {"type": "node", "id": 4459438120, "lat": 39.8853838, "lon": -104.9396189}, {"type": "node", "id": 4459438121, "lat": 39.8853882, "lon": -104.9395901}, {"type": "node", "id": 4459438122, "lat": 39.8853661, "lon": -104.9395863}, {"type": "node", "id": 4459438123, "lat": 39.885372, "lon": -104.9393696}, {"type": "node", "id": 4459438124, "lat": 39.8854662, "lon": -104.9393753}, {"type": "node", "id": 4459438125, "lat": 39.8854809, "lon": -104.9393619}, {"type": "node", "id": 4459438126, "lat": 39.8854853, "lon": -104.9392008}, {"type": "node", "id": 4459438127, "lat": 39.885528, "lon": -104.9386792}, {"type": "node", "id": 4459438128, "lat": 39.8855236, "lon": -104.938963}, {"type": "node", "id": 4459438129, "lat": 39.8854206, "lon": -104.9389592}, {"type": "node", "id": 4459438130, "lat": 39.8854265, "lon": -104.9388345}, {"type": "node", "id": 4459438131, "lat": 39.8854147, "lon": -104.9388326}, {"type": "node", "id": 4459438132, "lat": 39.8854191, "lon": -104.9387425}, {"type": "node", "id": 4459438133, "lat": 39.8854382, "lon": -104.9387425}, {"type": "node", "id": 4459438134, "lat": 39.8854412, "lon": -104.9386811}, {"type": "node", "id": 4459811092, "lat": 39.8853273, "lon": -104.9434131}, {"type": "node", "id": 4459811093, "lat": 39.8853265, "lon": -104.9432496}, {"type": "node", "id": 4459811094, "lat": 39.8856709, "lon": -104.9432465}, {"type": "node", "id": 4459811095, "lat": 39.8856717, "lon": -104.9433819}, {"type": "node", "id": 4459811096, "lat": 39.8855599, "lon": -104.943383}, {"type": "node", "id": 4459811097, "lat": 39.8855601, "lon": -104.943411}, {"type": "node", "id": 4459811098, "lat": 39.88556, "lon": -104.9439713}, {"type": "node", "id": 4459811099, "lat": 39.8855633, "lon": -104.944182}, {"type": "node", "id": 4459811100, "lat": 39.8855357, "lon": -104.944182}, {"type": "node", "id": 4459811101, "lat": 39.8855357, "lon": -104.9442787}, {"type": "node", "id": 4459811102, "lat": 39.8854747, "lon": -104.9442816}, {"type": "node", "id": 4459811103, "lat": 39.885477, "lon": -104.9441849}, {"type": "node", "id": 4459811104, "lat": 39.8854183, "lon": -104.9441835}, {"type": "node", "id": 4459811105, "lat": 39.885416, "lon": -104.9439756}, {"type": "node", "id": 4459811117, "lat": 39.8838081, "lon": -104.943696, "tags": {"addr:city": "Thornton", "addr:housenumber": "3744", "addr:postcode": "80233", "addr:state": "CO", "addr:street": "East 104th Avenue", "amenity": "restaurant", "cuisine": "vietnamese;asian", "name": "Vietnamese Cafe", "outdoor_seating": "yes", "phone": "+1-303-255-8555"}}, {"type": "node", "id": 4459811119, "lat": 39.8837968, "lon": -104.94292, "tags": {"addr:city": "Thornton", "addr:housenumber": "3782", "addr:postcode": "80233", "addr:state": "CO", "addr:street": "East 104th Avenue", "amenity": "fast_food", "brand": "Papa Murphy's", "brand:wikidata": "Q7132349", "cuisine": "pizza", "drive_through": "no", "name": "Papa Murphy's", "official_name": "Papa Murphy's Take 'N' Bake Pizza", "outdoor_seating": "no", "phone": "+1-303-280-8200", "takeaway": "only"}}, {"type": "node", "id": 4459811121, "lat": 39.8835281, "lon": -104.9425134, "tags": {"addr:city": "Thornton", "addr:housenumber": "3840", "addr:postcode": "80233", "addr:state": "CO", "addr:street": "East 104th Avenue", "amenity": "cafe", "branch": "Safeway Thornton 892", "brand": "Starbucks", "brand:wikidata": "Q37158", "cuisine": "coffee_shop", "name": "Starbucks", "official_name": "Starbucks Coffee", "phone": "+1 303-255-0596", "ref": "13253", "takeaway": "yes", "website": "https://www.starbucks.com/store-locator/store/13253/safeway-thornton-892-3840-e-104th-ave-thornton-co-802334436-us"}}, {"type": "node", "id": 4459811125, "lat": 39.8835599, "lon": -104.9393151, "tags": {"amenity": "bar", "name": "Trailside Saloon"}}, {"type": "node", "id": 4937728369, "lat": 39.8854839, "lon": -104.9392526}, {"type": "node", "id": 4937728370, "lat": 39.8855383, "lon": -104.9392575}, {"type": "node", "id": 5638234560, "lat": 39.8843471, "lon": -104.941874, "tags": {"addr:city": "Thornton", "addr:housenumber": "3880", "addr:postcode": "80233", "addr:state": "CO", "addr:street": "East 104th Avenue", "amenity": "restaurant", "brand": "Pizza Hut", "brand:wikidata": "Q191615", "cuisine": "pizza", "name": "Pizza Hut", "outdoor_seating": "no", "phone": "+1 720-872-9115", "takeaway": "only", "website": "https://locations.pizzahut.com/co/thornton/3880-e-104th-ave"}}, {"type": "node", "id": 5638234774, "lat": 39.8841045, "lon": -104.940662, "tags": {"amenity": "atm", "brand": "First Bank", "brand:wikidata": "Q5452217", "currency:USD": "yes", "drive_through": "yes", "name": "First Bank", "opening_hours": "24/7", "operator": "First Bank", "operator:wikidata": "Q5452217", "operator:wikipedia": "en:FirstBank Holding Co", "short_name": "1STBank"}}, {"type": "node", "id": 9515441029, "lat": 39.8842434, "lon": -104.9439558}, {"type": "node", "id": 9515441030, "lat": 39.8842019, "lon": -104.9439558}, {"type": "node", "id": 9515441031, "lat": 39.8841856, "lon": -104.9439381}, {"type": "node", "id": 9515441032, "lat": 39.8840898, "lon": -104.9439381}, {"type": "node", "id": 9515441033, "lat": 39.8840899, "lon": -104.9440531}, {"type": "node", "id": 9515441034, "lat": 39.8840804, "lon": -104.9440531}, {"type": "node", "id": 9515441035, "lat": 39.8840803, "lon": -104.9441309}, {"type": "node", "id": 9515441036, "lat": 39.8841044, "lon": -104.944131}, {"type": "node", "id": 9515441037, "lat": 39.8841055, "lon": -104.9442253}, {"type": "node", "id": 9515441038, "lat": 39.8841213, "lon": -104.9442622}, {"type": "node", "id": 9515441039, "lat": 39.8841073, "lon": -104.9442455}, {"type": "node", "id": 11084991693, "lat": 39.8855357, "lon": -104.9442383}, {"type": "node", "id": 11084991694, "lat": 39.8854757, "lon": -104.9442383}, {"type": "way", "id": 448963410, "nodes": [4459309359, 4459309360, 4459309361, 4459309362, 4459309363, 4459309364, 4459309365, 4459309366, 4459309367, 4459309368, 4459309359], "tags": {"building": "retail"}}, {"type": "way", "id": 448963413, "nodes": [4459309370, 4459309371, 4459309372, 4459309373, 4459309374, 4459309375, 4459309370], "tags": {"building": "retail"}}, {"type": "way", "id": 448963417, "nodes": [4459310594, 4459310595, 4459310596, 4459310597, 4459310594], "tags": {"building": "retail"}}, {"type": "way", "id": 448963418, "nodes": [4459310598, 4459310599, 4459310600, 4459310601, 4459310598], "tags": {"addr:city": "Thornton", "addr:housenumber": "3990", "addr:postcode": "80233", "addr:state": "CO", "addr:street": "East 104th Avenue", "amenity": "bank", "atm": "yes", "brand": "First Bank", "brand:wikidata": "Q5452217", "building": "yes", "drive_through": "yes", "name": "First Bank", "operator": "First Bank", "short_name": "1STBank"}}, {"type": "way", "id": 448963420, "nodes": [4459310602, 4459310603, 4459310604, 4459310605, 4459310602], "tags": {"building": "retail"}}, {"type": "way", "id": 448976511, "nodes": [4459438109, 4937728370, 4459438110, 4459438111, 4459438112, 4459438113, 4459438114, 4459438115, 4459438116, 4459438117, 4459438118, 4459438119, 4459438120, 4459438121, 4459438122, 4459438123, 4459438124, 4459438125, 4937728369, 4459438126, 4459438109], "tags": {"addr:city": "Thornton", "addr:housenumber": "10404", "addr:postcode": "80233", "addr:state": "CO", "addr:street": "Colorado Boulevard", "amenity": "bank", "atm": "yes", "brand": "Chase", "brand:wikidata": "Q524629", "building": "yes", "building:levels": "1", "drive_through": "yes", "name": "Chase", "opening_hours": "Mo-Fr 09:00-17:00; Sa 09:00-14:00", "operator": "Chase", "phone": "3032554082", "website": "https://www.chase.com/"}}, {"type": "way", "id": 448976512, "nodes": [4459438127, 4459438128, 4459438129, 4459438130, 4459438131, 4459438132, 4459438133, 4459438134, 4459438127], "tags": {"addr:city": "Thornton", "addr:housenumber": "4211", "addr:postcode": "80233", "addr:state": "CO", "addr:street": "East 104th Avenue", "amenity": "fast_food", "brand": "Carl's Jr.", "brand:wikidata": "Q1043486", "building": "yes", "cuisine": "burger", "drive_through": "yes", "name": "Carl's Jr.", "phone": "+1 303-255-2062", "ref": "1101606", "takeaway": "yes", "website": "https://locations.carlsjr.com/co/thornton/4211-e-104th-ave"}}, {"type": "way", "id": 449015204, "nodes": [4459811092, 4459811093, 4459811094, 4459811095, 4459811096, 4459811097, 4459811092], "tags": {"addr:city": "Thornton", "addr:housenumber": "3605", "addr:postcode": "80233", "addr:state": "CO", "addr:street": "East 104th Avenue", "amenity": "fast_food", "brand": "Sonic", "brand:wikidata": "Q7561808", "building": "yes", "cuisine": "burger", "drive_in": "yes", "name": "Sonic", "opening_hours": "08:00-23:00", "phone": "+1 303-255-4668", "takeaway": "yes", "website": "https://locations.sonicdrivein.com/co/thornton/3605-east-104th-avenue.html"}}, {"type": "way", "id": 449015205, "nodes": [4459811098, 4459811099, 4459811100, 11084991693, 4459811101, 4459811102, 11084991694, 4459811103, 4459811104, 4459811105, 4459811098], "tags": {"amenity": "bank", "brand": "KeyBank", "brand:wikidata": "Q1740314", "building": "yes", "name": "KeyBank"}}, {"type": "way", "id": 1032762187, "nodes": [4459310611, 9515441029, 9515441030, 9515441031, 9515441032, 9515441033, 9515441034, 9515441035, 9515441036, 9515441037, 9515441039, 9515441038, 4459310614, 4459310616, 4459310611], "tags": {"addr:city": "Thornton", "addr:housenumber": "3690", "addr:postcode": "80229", "addr:state": "CO", "addr:street": "East 104th Avenue", "amenity": "fast_food", "brand": "McDonald's", "brand:wikidata": "Q38076", "building": "yes", "cuisine": "burger", "drive_through": "yes", "internet_access": "wlan", "name": "McDonald's", "opening_hours": "05:00-23:00", "phone": "+1 303-453-0708", "takeaway": "yes", "website": "https://www.mcdonalds.com/us/en-us/location/19541.html"}}]}