{"version": 0.6, "generator": "Overpass API 0.7.62.1 084b4234", "osm3s": {"timestamp_osm_base": "2024-07-10T16:39:30Z", "copyright": "The data included in this document is from www.openstreetmap.org. The data is made available under ODbL."}, "elements": [{"type": "node", "id": 2276095740, "lat": 38.8974457, "lon": -77.009888, "tags": {"amenity": "bicycle_rental", "bicycle_rental": "docking_station", "brand": "Capital Bikeshare", "brand:wikidata": "Q1034635", "capacity": "14", "dcgis:dataset": "CapitalBikeSharePt", "dcgis:gis_id": "14751616", "dcgis:pubdate": "2013-03-11", "fee": "yes", "name": "North Capitol St and F St NW", "network": "Capital Bikeshare", "network:wikidata": "Q1034635", "opening_hours": "24/7", "operator": "Lyft", "operator:type": "private", "operator:wikidata": "Q17077936", "ref": "31624", "source": "dcgis", "website": "https://www.capitalbikeshare.com/"}}, {"type": "node", "id": 2276095761, "lat": 38.8970265, "lon": -77.0049146, "tags": {"amenity": "bicycle_rental", "bicycle_rental": "docking_station", "brand": "Capital Bikeshare", "brand:wikidata": "Q1034635", "capacity": "31", "dcgis:dataset": "CapitalBikeSharePt", "dcgis:gis_id": "14751615", "dcgis:pubdate": "2013-03-11", "fee": "yes", "name": "Columbus Circle / Union Station", "network": "Capital Bikeshare", "network:wikidata": "Q1034635", "opening_hours": "24/7", "operator": "Lyft", "operator:type": "private", "operator:wikidata": "Q17077936", "ref": "31623", "source": "dcgis", "website": "https://www.capitalbikeshare.com/"}}, {"type": "node", "id": 4332706994, "lat": 38.9003482, "lon": -77.0120879, "tags": {"amenity": "bicycle_rental", "bicycle_rental": "docking_station", "brand": "Capital Bikeshare", "brand:wikidata": "Q1034635", "capacity": "15", "fee": "yes", "name": "1st & H St NW", "network": "Capital Bikeshare", "network:wikidata": "Q1034635", "opening_hours": "24/7", "operator": "Lyft", "operator:type": "private", "operator:wikidata": "Q17077936", "website": "https://www.capitalbikeshare.com/"}}, {"type": "node", "id": 4731349917, "lat": 38.8997546, "lon": -77.0089272, "tags": {"amenity": "bicycle_rental", "bicycle_rental": "docking_station", "brand": "Capital Bikeshare", "brand:wikidata": "Q1034635", "capacity": "18", "fee": "yes", "name": "North Capitol St & G Pl NE", "network": "Capital Bikeshare", "network:wikidata": "Q1034635", "opening_hours": "24/7", "operator": "Lyft", "operator:type": "private", "operator:wikidata": "Q17077936", "ref": "31637", "source": "dcgis", "website": "https://www.capitalbikeshare.com/"}}, {"type": "node", "id": 6285398198, "lat": 38.8949798, "lon": -77.0031373, "tags": {"amenity": "bicycle_rental", "bicycle_rental": "docking_station", "brand": "Capital Bikeshare", "brand:wikidata": "Q1034635", "capacity": "21", "dcgis:dataset": "CapitalBikeSharePt", "dcgis:gis_id": "243045377", "dcgis:pubdate": "2018-08-20", "fee": "yes", "name": "2nd St and Massachusetts Ave NE", "network": "Capital Bikeshare", "network:wikidata": "Q1034635", "opening_hours": "24/7", "operator": "Lyft", "operator:type": "private", "operator:wikidata": "Q17077936", "source": "dcgis", "website": "https://www.capitalbikeshare.com/"}}, {"type": "node", "id": 6285398221, "lat": 38.8996778, "lon": -77.0036683, "tags": {"amenity": "bicycle_rental", "bicycle_rental": "docking_station", "brand": "Capital Bikeshare", "brand:wikidata": "Q1034635", "capacity": "22", "dcgis:dataset": "CapitalBikeSharePt", "dcgis:gis_id": "243045345", "dcgis:pubdate": "2018-08-20", "fee": "yes", "name": "2nd and G St NE", "network": "Capital Bikeshare", "network:wikidata": "Q1034635", "opening_hours": "24/7", "operator": "Lyft", "operator:type": "private", "operator:wikidata": "Q17077936", "source": "dcgis", "website": "https://www.capitalbikeshare.com/"}}, {"type": "node", "id": 6285398394, "lat": 38.8971158, "lon": -77.0116183, "tags": {"amenity": "bicycle_rental", "bicycle_rental": "docking_station", "brand": "Capital Bikeshare", "brand:wikidata": "Q1034635", "capacity": "32", "dcgis:dataset": "CapitalBikeSharePt", "dcgis:gis_id": "243045684", "dcgis:pubdate": "2018-08-20", "fee": "yes", "name": "New Jersey Ave and F St NW", "network": "Capital Bikeshare", "network:wikidata": "Q1034635", "opening_hours": "24/7", "operator": "Lyft", "operator:type": "private", "operator:wikidata": "Q17077936", "source": "dcgis", "website": "https://www.capitalbikeshare.com/"}}]}