{"version": 0.6, "generator": "Overpass API 0.7.62.1 084b4234", "osm3s": {"timestamp_osm_base": "2024-07-25T19:11:14Z", "copyright": "The data included in this document is from www.openstreetmap.org. The data is made available under ODbL."}, "elements": [{"type": "node", "id": 1760728412, "lat": 45.0990066, "lon": -87.6381907}, {"type": "node", "id": 1760728414, "lat": 45.0990539, "lon": -87.6382577}, {"type": "node", "id": 1760728415, "lat": 45.0987066, "lon": -87.6386479}, {"type": "node", "id": 1760728416, "lat": 45.0987003, "lon": -87.6381994}, {"type": "node", "id": 1760728417, "lat": 45.0990592, "lon": -87.638638}, {"type": "node", "id": 4416706467, "lat": 45.1002533, "lon": -87.6308068}, {"type": "node", "id": 4416706468, "lat": 45.1003858, "lon": -87.6309175}, {"type": "node", "id": 4416706469, "lat": 45.100404, "lon": -87.6309056}, {"type": "node", "id": 4416706470, "lat": 45.1005338, "lon": -87.6310084}, {"type": "node", "id": 4416706471, "lat": 45.1005198, "lon": -87.6310322}, {"type": "node", "id": 4416706472, "lat": 45.100584, "lon": -87.6310776}, {"type": "node", "id": 4416706473, "lat": 45.1006273, "lon": -87.6309669}, {"type": "node", "id": 4416706474, "lat": 45.1005715, "lon": -87.6309215}, {"type": "node", "id": 4416706475, "lat": 45.1006357, "lon": -87.6307771}, {"type": "node", "id": 4416706476, "lat": 45.1005896, "lon": -87.6306031}, {"type": "node", "id": 4416706477, "lat": 45.1006412, "lon": -87.6305774}, {"type": "node", "id": 4416706478, "lat": 45.1006217, "lon": -87.6305043}, {"type": "node", "id": 4416706479, "lat": 45.1002547, "lon": -87.6306783}, {"type": "node", "id": 4416707464, "lat": 45.1016871, "lon": -87.6297024}, {"type": "node", "id": 4416707465, "lat": 45.1019611, "lon": -87.6301221}, {"type": "node", "id": 4416707466, "lat": 45.1020008, "lon": -87.6300701}, {"type": "node", "id": 4416707467, "lat": 45.1019763, "lon": -87.6300327}, {"type": "node", "id": 4416707468, "lat": 45.1020336, "lon": -87.6299576}, {"type": "node", "id": 4416707469, "lat": 45.1019762, "lon": -87.6298697}, {"type": "node", "id": 4416707470, "lat": 45.1019566, "lon": -87.6298954}, {"type": "node", "id": 4416707471, "lat": 45.1018903, "lon": -87.6297939}, {"type": "node", "id": 4416707472, "lat": 45.1019145, "lon": -87.6297622}, {"type": "node", "id": 4416707473, "lat": 45.101856, "lon": -87.6296727}, {"type": "node", "id": 4416707474, "lat": 45.1018296, "lon": -87.6297074}, {"type": "node", "id": 4416707475, "lat": 45.1018136, "lon": -87.6296829}, {"type": "node", "id": 4416707476, "lat": 45.1018363, "lon": -87.6296531}, {"type": "node", "id": 4416707477, "lat": 45.1017849, "lon": -87.6295743}, {"type": "node", "id": 4771658226, "lat": 45.0989654, "lon": -87.6369794, "tags": {"addr:city": "Marinette", "addr:housenumber": "2205", "addr:postcode": "54143", "addr:state": "WI", "addr:street": "Hall Avenue", "amenity": "restaurant", "brand": "Pizza Hut", "brand:wikidata": "Q191615", "cuisine": "pizza", "name": "Pizza Hut", "phone": "+1-715-732-2501", "website": "https://locations.pizzahut.com/wi/marinette/2205-hall-ave"}}, {"type": "node", "id": 7112090717, "lat": 45.1011587, "lon": -87.6343311}, {"type": "node", "id": 7112090718, "lat": 45.100681, "lon": -87.6343121}, {"type": "node", "id": 7112090719, "lat": 45.1006845, "lon": -87.6341387}, {"type": "node", "id": 7112090720, "lat": 45.1008217, "lon": -87.6341442}, {"type": "node", "id": 7112090721, "lat": 45.1008236, "lon": -87.6340467}, {"type": "node", "id": 7112090722, "lat": 45.1008601, "lon": -87.6340098}, {"type": "node", "id": 7112090723, "lat": 45.100984, "lon": -87.6340153}, {"type": "node", "id": 7112090724, "lat": 45.1010271, "lon": -87.634056}, {"type": "node", "id": 7112090725, "lat": 45.1010253, "lon": -87.6341433}, {"type": "node", "id": 7112090726, "lat": 45.1011623, "lon": -87.6341487}, {"type": "node", "id": 7352217629, "lat": 45.1002275, "lon": -87.6321452}, {"type": "node", "id": 7352217630, "lat": 45.1002477, "lon": -87.6321612}, {"type": "node", "id": 7352217631, "lat": 45.1003072, "lon": -87.6320109}, {"type": "node", "id": 7352217632, "lat": 45.1002793, "lon": -87.6319887}, {"type": "node", "id": 7352217633, "lat": 45.1003275, "lon": -87.6318668}, {"type": "node", "id": 7352217634, "lat": 45.1002438, "lon": -87.6318002}, {"type": "node", "id": 7352217635, "lat": 45.1002655, "lon": -87.6317453}, {"type": "node", "id": 7352217636, "lat": 45.1001601, "lon": -87.6316614}, {"type": "node", "id": 7352217637, "lat": 45.1002131, "lon": -87.6315275}, {"type": "node", "id": 7352217638, "lat": 45.099923, "lon": -87.6312966}, {"type": "node", "id": 7352217639, "lat": 45.0998984, "lon": -87.6320798}, {"type": "node", "id": 7352217640, "lat": 45.0999221, "lon": -87.6321348}, {"type": "node", "id": 7352217641, "lat": 45.100158, "lon": -87.6323215}, {"type": "node", "id": 7352406392, "lat": 45.0996266, "lon": -87.6345211}, {"type": "node", "id": 7352406393, "lat": 45.0995788, "lon": -87.6345191}, {"type": "node", "id": 7352406394, "lat": 45.0995795, "lon": -87.6344887}, {"type": "node", "id": 7352406395, "lat": 45.0993965, "lon": -87.634481}, {"type": "node", "id": 7352406396, "lat": 45.0994021, "lon": -87.6342179}, {"type": "node", "id": 7352406397, "lat": 45.0995387, "lon": -87.6342237}, {"type": "node", "id": 7352406398, "lat": 45.0995398, "lon": -87.6341755}, {"type": "node", "id": 7352406399, "lat": 45.0996054, "lon": -87.6341783}, {"type": "node", "id": 7352406400, "lat": 45.0996045, "lon": -87.6342226}, {"type": "node", "id": 7352406401, "lat": 45.0996329, "lon": -87.6342238}, {"type": "node", "id": 7352406410, "lat": 45.1000541, "lon": -87.63459}, {"type": "node", "id": 7352406411, "lat": 45.1000624, "lon": -87.634415}, {"type": "node", "id": 7352406412, "lat": 45.0998474, "lon": -87.6343944}, {"type": "node", "id": 7352406413, "lat": 45.0998391, "lon": -87.6345693}, {"type": "node", "id": 7352406414, "lat": 45.1000132, "lon": -87.634586}, {"type": "node", "id": 7352406441, "lat": 45.0997666, "lon": -87.6360495}, {"type": "node", "id": 7352406442, "lat": 45.1001014, "lon": -87.6360776}, {"type": "node", "id": 7352406443, "lat": 45.1000938, "lon": -87.6362588}, {"type": "node", "id": 7352406444, "lat": 45.099759, "lon": -87.6362308}, {"type": "node", "id": 7352406501, "lat": 45.0997804, "lon": -87.6369503}, {"type": "node", "id": 7352406502, "lat": 45.099784, "lon": -87.6367139}, {"type": "node", "id": 7352406503, "lat": 45.1000435, "lon": -87.636722}, {"type": "node", "id": 7352406504, "lat": 45.1000442, "lon": -87.6366821}, {"type": "node", "id": 7352406505, "lat": 45.1001897, "lon": -87.6366867}, {"type": "node", "id": 7352406506, "lat": 45.1001873, "lon": -87.636837}, {"type": "node", "id": 7352406507, "lat": 45.100046, "lon": -87.6368326}, {"type": "node", "id": 7352406508, "lat": 45.100044, "lon": -87.6369586}, {"type": "node", "id": 7960121969, "lat": 45.0992914, "lon": -87.6369138, "tags": {"addr:city": "Marinette", "addr:housenumber": "2205", "addr:postcode": "54143", "addr:state": "WI", "addr:street": "Hattie Street", "amenity": "fast_food", "brand": "Hardee's", "brand:wikidata": "Q1585088", "cuisine": "burger", "drive_through": "yes", "name": "Hardee's", "phone": "+1 715-732-1113", "ref": "1505868", "takeaway": "yes", "website": "https://locations.hardees.com/wi/marinette/2205-hall-ave"}}, {"type": "node", "id": 7960121972, "lat": 45.0987989, "lon": -87.6386453}, {"type": "node", "id": 7960121975, "lat": 45.098733, "lon": -87.6386472}, {"type": "node", "id": 7960159896, "lat": 45.0990916, "lon": -87.63607}, {"type": "node", "id": 7960159897, "lat": 45.0989142, "lon": -87.6360773}, {"type": "node", "id": 7960159898, "lat": 45.0988323, "lon": -87.6356455}, {"type": "node", "id": 7960159899, "lat": 45.0990828, "lon": -87.6356353}, {"type": "node", "id": 8223572124, "lat": 45.0988385, "lon": -87.6359517}, {"type": "node", "id": 8223572125, "lat": 45.0989116, "lon": -87.6359487}, {"type": "node", "id": 9136113196, "lat": 45.0998761, "lon": -87.6348006, "tags": {"amenity": "restaurant", "name": "Blue Bike Burrito"}}, {"type": "node", "id": 9370930843, "lat": 45.100254, "lon": -87.6307404, "tags": {"entrance": "yes"}}, {"type": "node", "id": 11170796084, "lat": 45.098753, "lon": -87.6384866, "tags": {"addr:city": "Marinette", "addr:housenumber": "2301", "addr:postcode": "54143", "addr:state": "WI", "addr:street": "Hall Avenue", "amenity": "pharmacy", "brand": "Walgreens", "brand:wikidata": "Q1591889", "dispensing": "yes", "drive_through": "yes", "healthcare": "pharmacy", "name": "Walgreens", "ref": "7634"}}, {"type": "node", "id": 12013204379, "lat": 45.0981964, "lon": -87.6303678}, {"type": "node", "id": 12013204380, "lat": 45.0981958, "lon": -87.6302655}, {"type": "node", "id": 12013204381, "lat": 45.0981776, "lon": -87.6302451}, {"type": "node", "id": 12013204382, "lat": 45.0982984, "lon": -87.6300284}, {"type": "node", "id": 12013204383, "lat": 45.0983909, "lon": -87.6301318}, {"type": "node", "id": 12013204384, "lat": 45.0983299, "lon": -87.6302413}, {"type": "node", "id": 12013204385, "lat": 45.0983306, "lon": -87.6303662}, {"type": "way", "id": 164435035, "nodes": [1760728415, 7960121975, 7960121972, 1760728417, 1760728414, 1760728412, 1760728416, 1760728415], "tags": {"addr:city": "Marinette", "addr:housenumber": "2301", "addr:postcode": "54143", "addr:state": "WI", "addr:street": "Hall Avenue", "brand": "Walgreens", "brand:wikidata": "Q1591889", "building": "retail", "name": "Walgreens", "phone": "+1-715-732-4102", "shop": "chemist", "website": "https://www.walgreens.com/locator/walgreens-2301+hall+ave-marinette-wi-54143/id=7634"}}, {"type": "way", "id": 444183492, "nodes": [4416706467, 4416706468, 4416706469, 4416706470, 4416706471, 4416706472, 4416706473, 4416706474, 4416706475, 4416706476, 4416706477, 4416706478, 4416706479, 9370930843, 4416706467], "tags": {"addr:city": "Marinette", "addr:housenumber": "1700", "addr:postcode": "54143", "addr:state": "WI", "addr:street": "Hall Avenue", "amenity": "library", "building": "yes", "ele": "180", "email": "mrt@marinettecountylibraries.org", "gnis:feature_id": "1845642", "internet_access": "yes", "name": "Stephenson Public Library", "phone": "+1-715-732-7570", "website": "https://www.marinettecountylibraries.org/marinette.html"}}, {"type": "way", "id": 444183507, "nodes": [4416707464, 4416707465, 4416707466, 4416707467, 4416707468, 4416707469, 4416707470, 4416707471, 4416707472, 4416707473, 4416707474, 4416707475, 4416707476, 4416707477, 4416707464], "tags": {"building": "yes", "name": "Marinette County Museum", "operator": "Marinette County Historical Society", "tourism": "museum"}}, {"type": "way", "id": 761231364, "nodes": [7112090717, 7112090718, 7112090719, 7112090720, 7112090721, 7112090722, 7112090723, 7112090724, 7112090725, 7112090726, 7112090717], "tags": {"addr:city": "Marinette", "addr:housenumber": "2000", "addr:postcode": "54143", "addr:state": "WI", "addr:street": "Ella Court", "amenity": "cinema", "building": "yes", "name": "Mariner Theatre", "website": "https://marinertheater.com/", "wikidata": "Q43335757"}}, {"type": "way", "id": 786323927, "nodes": [7352217629, 7352217630, 7352217631, 7352217632, 7352217633, 7352217634, 7352217635, 7352217636, 7352217637, 7352217638, 7352217639, 7352217640, 7352217641, 7352217629], "tags": {"addr:city": "Marinette", "addr:housenumber": "1820", "addr:postcode": "54143", "addr:state": "WI", "addr:street": "Hall Avenue", "amenity": "bank", "atm": "yes", "building": "yes", "drive_through": "yes", "name": "Stephenson National Bank and Trust", "opening_hours": "Mo-Fr 08:00-17:00", "phone": "+1-715-732-1732", "website": "https://snbt.com/", "wheelchair": "yes"}}, {"type": "way", "id": 786343098, "nodes": [7352406392, 7352406393, 7352406394, 7352406395, 7352406396, 7352406397, 7352406398, 7352406399, 7352406400, 7352406401, 7352406392], "tags": {"addr:city": "Marinette", "addr:housenumber": "2009", "addr:postcode": "54143", "addr:state": "WI", "addr:street": "Hall Avenue", "amenity": "bank", "building": "yes", "drive_through": "yes", "name": "Nicolet National Bank"}}, {"type": "way", "id": 786343101, "nodes": [7352406410, 7352406411, 7352406412, 7352406413, 7352406414, 7352406410], "tags": {"addr:city": "Marinette", "addr:housenumber": "2002", "addr:postcode": "54143", "addr:state": "WI", "addr:street": "Hall Avenue", "building": "retail", "name": "Krist Food Mart", "ref": "52", "shop": "convenience"}}, {"type": "way", "id": 786343108, "nodes": [7352406442, 7352406443, 7352406444, 7352406441, 7352406442], "tags": {"building": "retail"}}, {"type": "way", "id": 786343115, "nodes": [7352406501, 7352406502, 7352406503, 7352406504, 7352406505, 7352406506, 7352406507, 7352406508, 7352406501], "tags": {"addr:housenumber": "2202", "building": "retail"}}, {"type": "way", "id": 853360579, "nodes": [7960159896, 7960159897, 8223572125, 8223572124, 7960159898, 7960159899, 7960159896], "tags": {"addr:city": "Marinette", "addr:housenumber": "2103", "addr:postcode": "54143", "addr:state": "WI", "addr:street": "Hall Avenue", "brand": "Kwik Trip", "brand:wikidata": "Q6450420", "building": "retail", "name": "Kwik Trip", "phone": "+1-715-732-0371", "ref": "574", "shop": "convenience", "website": "https://www.kwiktrip.com/locator/store?id=574"}}, {"type": "way", "id": 1296457195, "nodes": [12013204379, 12013204380, 12013204381, 12013204382, 12013204383, 12013204384, 12013204385, 12013204379], "tags": {"addr:city": "Marinette", "addr:housenumber": "1740", "addr:postcode": "54143", "addr:state": "WI", "addr:street": "Stephenson Street", "amenity": "bank", "atm": "yes", "building": "yes", "drive_through": "yes", "name": "PCM Credit Union", "opening_hours": "Mo-Fr 09:00-17:00", "phone": "+1-715-732-4051", "website": "http://www.pcmcu.org/"}}]}