{"version": 0.6, "generator": "Overpass API 0.7.62.1 084b4234", "osm3s": {"timestamp_osm_base": "2024-07-23T20:21:00Z", "copyright": "The data included in this document is from www.openstreetmap.org. The data is made available under ODbL."}, "elements": [{"type": "node", "id": 2302458322, "lat": 40.7724631, "lon": -73.9288604}, {"type": "node", "id": 2302458324, "lat": 40.772303, "lon": -73.928551}, {"type": "node", "id": 2302458326, "lat": 40.7724036, "lon": -73.9285595}, {"type": "node", "id": 2302458328, "lat": 40.7724, "lon": -73.9286158}, {"type": "node", "id": 2302458329, "lat": 40.7724379, "lon": -73.9286375}, {"type": "node", "id": 2302458331, "lat": 40.7724544, "lon": -73.928658}, {"type": "node", "id": 2302458332, "lat": 40.7724738, "lon": -73.9287118}, {"type": "node", "id": 2302458333, "lat": 40.7724679, "lon": -73.9286837}, {"type": "node", "id": 2302458334, "lat": 40.7724204, "lon": -73.9286222}, {"type": "node", "id": 2494383819, "lat": 40.7722943, "lon": -73.9286977}, {"type": "node", "id": 2494384292, "lat": 40.7711169, "lon": -73.9270663, "tags": {"addr:housenumber": "28-02", "addr:postcode": "11102", "addr:street": "21st Street", "amenity": "fast_food", "cuisine": "mexican", "name": "Astoria Taco Factory"}}, {"type": "node", "id": 2494384312, "lat": 40.7707975, "lon": -73.9301358, "tags": {"addr:housenumber": "30-02", "addr:postcode": "11102", "addr:street": "14th Street", "amenity": "restaurant", "name": "Compton\u2019s"}}, {"type": "node", "id": 2846908923, "lat": 40.7686407, "lon": -73.9247996, "tags": {"addr:housenumber": "25-01", "addr:postcode": "11102", "addr:street": "30th Avenue", "amenity": "fast_food", "delivery": "yes", "drive_through": "no", "name": "3 Bros Pizza", "opening_hours": "09:00-24:00", "phone": "+1 718-777-7133", "website": "https://pizzaastoria.com/"}}, {"type": "node", "id": 2847009755, "lat": 40.7711493, "lon": -73.9265695, "tags": {"addr:housenumber": "27-37", "addr:postcode": "11102", "addr:street": "21st Street", "amenity": "restaurant", "name": "Mia"}}, {"type": "node", "id": 2847034443, "lat": 40.771989, "lon": -73.9258117, "tags": {"addr:housenumber": "21-04", "addr:postcode": "11102", "addr:street": "Newtown Avenue", "amenity": "restaurant", "cuisine": "chinese", "name": "New King Wah", "phone": "+1 718 545 7000"}}, {"type": "node", "id": 2847034479, "lat": 40.7718909, "lon": -73.9259717, "tags": {"addr:housenumber": "27-09", "addr:postcode": "11102", "addr:street": "21st Street", "amenity": "restaurant", "name": "Roti Boti"}}, {"type": "node", "id": 2886151334, "lat": 40.7722996, "lon": -73.9286085}, {"type": "node", "id": 2886151338, "lat": 40.7722948, "lon": -73.9286892}, {"type": "node", "id": 2886151339, "lat": 40.7722877, "lon": -73.9288454}, {"type": "node", "id": 2886151342, "lat": 40.7722896, "lon": -73.9288017, "tags": {"entrance": "yes"}}, {"type": "node", "id": 4887019669, "lat": 40.7685765, "lon": -73.9252559, "tags": {"addr:city": "Astoria", "addr:housenumber": "23-42", "addr:postcode": "11102", "addr:state": "NY", "addr:street": "30th Avenue", "amenity": "restaurant", "delivery": "yes", "name": "Crescent Kitchen", "opening_hours": "Mo-Su 06:00-21:00", "outdoor_seating": "no", "takeaway": "yes"}}, {"type": "node", "id": 5139539139, "lat": 40.7697031, "lon": -73.9277101, "tags": {"addr:city": "Astoria", "addr:housenumber": "21-02", "addr:postcode": "11102", "addr:state": "NY", "addr:street": "30th Avenue", "amenity": "restaurant", "bar": "yes", "cuisine": "italian", "delivery": "yes", "name": "Vesta", "phone": "+1-718-545-5550", "website": "https://vestavino.com"}}, {"type": "node", "id": 5487091369, "lat": 40.7684896, "lon": -73.9330039, "tags": {"addr:city": "Astoria", "addr:housenumber": "12-14", "addr:postcode": "11106", "addr:state": "NY", "addr:street": "31st Avenue", "amenity": "restaurant", "cuisine": "mexican", "delivery": "yes", "name": "Fresco's Cantina", "phone": "+1-347-808-7338", "takeaway": "yes", "website": "http://www.frescoscantina.com"}}, {"type": "node", "id": 5705270759, "lat": 40.7723382, "lon": -73.9272822, "tags": {"addr:housenumber": "18-01", "addr:street": "Astoria Boulevard", "amenity": "bar", "name": "Ora Wine Bar"}}, {"type": "node", "id": 5710000050, "lat": 40.7732821, "lon": -73.9271738, "tags": {"addr:housenumber": "18-01", "addr:street": "26th Road", "amenity": "bar", "name": "Astoria Craft"}}, {"type": "node", "id": 5763904853, "lat": 40.7689891, "lon": -73.9356112, "tags": {"addr:housenumber": "31-01", "addr:postcode": "11106", "addr:street": "Vernon Boulevard", "amenity": "cafe", "cuisine": "french", "internet_access": "wlan", "name": "Chateau le Woof", "opening_hours": "Mo-Su 07:00-20:00", "website": "https://www.chateaulewoof.com/"}}, {"type": "node", "id": 5906811390, "lat": 40.7709902, "lon": -73.9271641, "tags": {"amenity": "restaurant", "name": "El Ancela"}}, {"type": "node", "id": 5906840086, "lat": 40.7720292, "lon": -73.9258604, "tags": {"amenity": "fast_food", "capacity": "16", "delivery": "yes", "drive_through": "no", "name": "Chubby Burger"}}, {"type": "node", "id": 5956312861, "lat": 40.7722369, "lon": -73.9291489, "tags": {"addr:city": "Long Island City", "addr:housenumber": "12-23", "addr:postcode": "11102", "addr:state": "NY", "addr:street": "Astoria Blvd", "amenity": "restaurant", "cuisine": "american", "name": "Astoria Provisions", "opening_hours": "Mo-Su 08:00-17:00", "outdoor_seating": "yes", "phone": "+1 917-396-4002", "website": "https://www.astoriaprovisions.com/"}}, {"type": "node", "id": 6370603208, "lat": 40.7689633, "lon": -73.9250036, "tags": {"addr:city": "Astoria", "addr:housenumber": "29-14", "addr:postcode": "11102", "addr:state": "NY", "addr:street": "Crescent Street", "amenity": "restaurant", "cuisine": "moroccan", "internet_access": "wlan", "name": "Merzouka Cafe", "outdoor_seating": "no", "phone": "+1 (718) 255-6369", "takeaway": "yes", "website": "https://merzouka.com/"}}, {"type": "node", "id": 6370603209, "lat": 40.7689855, "lon": -73.9249842, "tags": {"addr:city": "Astoria", "addr:housenumber": "29-12", "addr:postcode": "11102", "addr:state": "NY", "addr:street": "Crescent Street", "amenity": "restaurant", "cuisine": "juice;frozen_yogurt", "name": "Green Apple Delight", "outdoor_seating": "no", "phone": "+1 (718) 777-7731", "takeaway": "yes", "website": "https://www.astoriajuicebar.com/"}}, {"type": "node", "id": 6517207644, "lat": 40.7764637, "lon": -73.9354809, "tags": {"tourism": "artwork"}}, {"type": "node", "id": 7706043307, "lat": 40.7696498, "lon": -73.9310661, "tags": {"amenity": "restaurant", "cuisine": "pizza", "name": "Brother\u2019s Pizza"}}, {"type": "node", "id": 7706043309, "lat": 40.7687305, "lon": -73.9314667, "tags": {"addr:housenumber": "30-85", "addr:street": "14th Street", "amenity": "restaurant"}}, {"type": "node", "id": 7768254310, "lat": 40.7690186, "lon": -73.9256213, "tags": {"addr:housenumber": "23-23", "addr:street": "30th Avenue", "amenity": "pharmacy", "dispensing": "yes", "healthcare": "pharmacy", "name": "Hyatt Pharmacy"}}, {"type": "node", "id": 7768254311, "lat": 40.7689976, "lon": -73.9255689, "tags": {"addr:housenumber": "23-23", "addr:street": "30th Avenue", "amenity": "fast_food", "cuisine": "mexican", "name": "Orale Taco!"}}, {"type": "node", "id": 7770887627, "lat": 40.772229, "lon": -73.9295883, "tags": {"addr:street": "Astoria Boulevard", "amenity": "fast_food", "cuisine": "mexican", "name": "Mary\u2019s Taqueria"}}, {"type": "node", "id": 7918381234, "lat": 40.7723874, "lon": -73.9265965, "tags": {"addr:city": "Astoria", "addr:housenumber": "1823", "addr:postcode": "11102", "addr:state": "NY", "addr:street": "Astoria Boulevard", "amenity": "restaurant", "cuisine": "mexican", "delivery": "yes", "name": "Twisted Mexican Grill", "outdoor_seating": "no"}}, {"type": "node", "id": 7918381236, "lat": 40.7735339, "lon": -73.9270762, "tags": {"addr:city": "Long Island City", "addr:housenumber": "2623", "addr:postcode": "11102", "addr:state": "NY", "addr:street": "18th Street", "amenity": "community_centre", "name": "Orsogna Mutual Aid Society", "phone": "+17187289358"}}, {"type": "node", "id": 8340141223, "lat": 40.7750967, "lon": -73.9245875, "tags": {"information": "board", "operator": "NYC Parks", "tourism": "information"}}, {"type": "node", "id": 8544494258, "lat": 40.7719837, "lon": -73.9316654, "tags": {"artwork_type": "mural", "tourism": "artwork"}}, {"type": "node", "id": 8544494260, "lat": 40.7729016, "lon": -73.9324098, "tags": {"artist_name": "Ron Hall", "artwork_type": "mural", "tourism": "artwork"}}, {"type": "node", "id": 8566992153, "lat": 40.7720219, "lon": -73.9257762, "tags": {"emergency": "phone", "fee": "no", "information": "terminal", "internet_access": "wlan", "name": "LinkNYC", "operator": "LinkNYC", "operator:wikidata": "Q19880795", "operator:wikipedia": "en:LinkNYC", "tourism": "information"}}, {"type": "node", "id": 8941943724, "lat": 40.7684383, "lon": -73.9243666, "tags": {"addr:city": "Astoria", "addr:housenumber": "25-17", "addr:state": "NY", "addr:street": "30th Avenue", "amenity": "cafe", "name": "Sip A Cup", "opening_hours": "Mo-Fr 07:00-17:00; Sa 08:00-17:00"}}, {"type": "node", "id": 8941943726, "lat": 40.7685571, "lon": -73.9246122, "tags": {"addr:housenumber": "25-09", "addr:street": "30th Avenue", "amenity": "pharmacy", "healthcare": "pharmacy", "name": "Pharmachoice", "phone": "+1 347 639 0007"}}, {"type": "node", "id": 8941943727, "lat": 40.7684936, "lon": -73.9244865, "tags": {"addr:housenumber": "25-13", "addr:street": "30th Avenue", "amenity": "fast_food", "diet:halal": "yes", "name": "Pita Hot", "opening_hours": "11:00-24:00", "phone": "+1 718 932 8282", "website": "https://www.pitahotastoria.com/"}}, {"type": "node", "id": 8977622627, "lat": 40.7716612, "lon": -73.9266195, "tags": {"amenity": "restaurant"}}, {"type": "node", "id": 10291573909, "lat": 40.7714498, "lon": -73.9314405, "tags": {"name": "Welling Court Mural Project", "tourism": "artwork"}}, {"type": "node", "id": 10780125941, "lat": 40.7676918, "lon": -73.9298514, "tags": {"amenity": "pharmacy", "healthcare": "pharmacy"}}, {"type": "way", "id": 221190748, "nodes": [2302458322, 2886151339, 2886151342, 2494383819, 2886151338, 2886151334, 2302458324, 2302458326, 2302458328, 2302458334, 2302458329, 2302458331, 2302458333, 2302458332, 2302458322], "tags": {"addr:city": "Astoria", "addr:housenumber": "14-01", "addr:postcode": "11102", "addr:state": "NY", "addr:street": "Astoria Boulevard", "amenity": "library", "building": "yes", "ele": "8", "gnis:feature_id": "2079466", "height": "13.4", "name": "Astoria Branch Queens Borough Public Library", "nycdoitt:bin": "4006113", "opening_hours": "Mo-Fr 10:00-17:00; Tu 13:00-17:00; Th 12:00-19:00", "phone": "+1-718-278-2220", "website": "https://www.queenslibrary.org/about-us/locations/astoria"}}]}