{"version": 0.6, "generator": "Overpass API 0.7.62.1 084b4234", "osm3s": {"timestamp_osm_base": "2024-07-29T16:59:22Z", "copyright": "The data included in this document is from www.openstreetmap.org. The data is made available under ODbL."}, "elements": [{"type": "node", "id": 358958408, "lat": 38.8895514, "lon": -77.0027354, "tags": {"artwork_type": "relief", "ele": "12", "gnis:county_id": "001", "gnis:created": "05/01/1991", "gnis:feature_id": "530670", "gnis:state_id": "11", "name": "Scenes from Shakespeare Bas Relief", "tourism": "artwork"}}, {"type": "node", "id": 358960313, "lat": 38.8829796, "lon": -76.9931422, "tags": {"amenity": "community_centre", "ele": "23", "gnis:county_id": "001", "gnis:created": "09/24/2003", "gnis:feature_id": "1999006", "gnis:state_id": "11", "name": "Hill Center at the Old Naval Hospital", "website": "https://hillcenterdc.org/"}}, {"type": "node", "id": 528878219, "lat": 38.8893135, "lon": -77.0029838}, {"type": "node", "id": 528878220, "lat": 38.8892403, "lon": -77.0030054}, {"type": "node", "id": 528878223, "lat": 38.88924, "lon": -77.0031895}, {"type": "node", "id": 528878228, "lat": 38.8892341, "lon": -77.0026127}, {"type": "node", "id": 559163505, "lat": 38.8839653, "lon": -76.9966273}, {"type": "node", "id": 610784098, "lat": 38.8839648, "lon": -76.9966293}, {"type": "node", "id": 610784099, "lat": 38.8839699, "lon": -76.9966319}, {"type": "node", "id": 610784100, "lat": 38.8840104, "lon": -76.9966522}, {"type": "node", "id": 610784101, "lat": 38.8840341, "lon": -76.996664}, {"type": "node", "id": 610784102, "lat": 38.8840833, "lon": -76.9966687}, {"type": "node", "id": 610784103, "lat": 38.8841488, "lon": -76.9966701}, {"type": "node", "id": 610784104, "lat": 38.8841488, "lon": -76.9966645}, {"type": "node", "id": 610784105, "lat": 38.8841486, "lon": -76.9966284, "tags": {"entrance": "yes", "level": "0", "wheelchair": "yes", "wheelchair:description": "ramp to door, elevator to main level inside"}}, {"type": "node", "id": 610784106, "lat": 38.8841478, "lon": -76.996379}, {"type": "node", "id": 610784108, "lat": 38.8841162, "lon": -76.9963791}, {"type": "node", "id": 610784109, "lat": 38.8841161, "lon": -76.9963684}, {"type": "node", "id": 610784110, "lat": 38.8841141, "lon": -76.9963684}, {"type": "node", "id": 610784111, "lat": 38.8840664, "lon": -76.9963686}, {"type": "node", "id": 610784112, "lat": 38.8840609, "lon": -76.9963686}, {"type": "node", "id": 610784113, "lat": 38.8840609, "lon": -76.9963806}, {"type": "node", "id": 610784114, "lat": 38.884031, "lon": -76.9963807}, {"type": "node", "id": 610784115, "lat": 38.8839903, "lon": -76.9965333}, {"type": "node", "id": 610789446, "lat": 38.8866612, "lon": -77.0016534}, {"type": "node", "id": 610789447, "lat": 38.8864397, "lon": -77.0017095}, {"type": "node", "id": 610789448, "lat": 38.8864366, "lon": -77.0017103}, {"type": "node", "id": 610789449, "lat": 38.8864397, "lon": -77.0017291}, {"type": "node", "id": 610789450, "lat": 38.8864467, "lon": -77.0017723}, {"type": "node", "id": 610789451, "lat": 38.8864556, "lon": -77.0017722}, {"type": "node", "id": 610789452, "lat": 38.8864784, "lon": -77.0017719}, {"type": "node", "id": 610789453, "lat": 38.8867052, "lon": -77.0017614}, {"type": "node", "id": 610791073, "lat": 38.8867634, "lon": -77.002235}, {"type": "node", "id": 610791074, "lat": 38.8867924, "lon": -77.0022161}, {"type": "node", "id": 610791075, "lat": 38.886806, "lon": -77.0022522}, {"type": "node", "id": 610791076, "lat": 38.8868832, "lon": -77.0022008}, {"type": "node", "id": 610791077, "lat": 38.8868751, "lon": -77.0021815}, {"type": "node", "id": 610791078, "lat": 38.8868441, "lon": -77.0021812}, {"type": "node", "id": 610791079, "lat": 38.8868438, "lon": -77.0021893}, {"type": "node", "id": 610791080, "lat": 38.8867825, "lon": -77.0021906}, {"type": "node", "id": 610791081, "lat": 38.8867756, "lon": -77.0021909}, {"type": "node", "id": 610791082, "lat": 38.886751, "lon": -77.0021954}, {"type": "node", "id": 610791091, "lat": 38.8867192, "lon": -77.0018239}, {"type": "node", "id": 610791093, "lat": 38.8864949, "lon": -77.001885}, {"type": "node", "id": 610791094, "lat": 38.8866191, "lon": -77.0018854}, {"type": "node", "id": 610791095, "lat": 38.8867276, "lon": -77.0018854}, {"type": "node", "id": 610791101, "lat": 38.8864928, "lon": -77.0018264}, {"type": "node", "id": 610791104, "lat": 38.886727, "lon": -77.001824}, {"type": "node", "id": 695045802, "lat": 38.883495, "lon": -76.9947944}, {"type": "node", "id": 695045803, "lat": 38.8834963, "lon": -76.9946101}, {"type": "node", "id": 695045811, "lat": 38.8835367, "lon": -76.9947944}, {"type": "node", "id": 695045821, "lat": 38.8834963, "lon": -76.9945258}, {"type": "node", "id": 695045827, "lat": 38.8835362, "lon": -76.9945847}, {"type": "node", "id": 695045829, "lat": 38.8835368, "lon": -76.9945259}, {"type": "node", "id": 735126542, "lat": 38.8852096, "lon": -76.9967344, "tags": {"addr:housenumber": "658", "addr:street": "Pennsylvania Avenue Southeast", "air_conditioning": "yes", "amenity": "fast_food", "brand": "District Taco", "brand:wikidata": "Q26237090", "cuisine": "mexican", "dataset": "grocery", "highchair": "yes", "name": "District Taco", "phone": "+1 202-546-9850", "source": "dcgis", "takeaway": "yes"}}, {"type": "node", "id": 737404981, "lat": 38.8871803, "lon": -77.001617, "tags": {"addr:city": "Washington", "addr:housenumber": "308", "addr:postcode": "20003", "addr:street": "Pennsylvania Avenue Southeast", "amenity": "restaurant", "check_date": "2024-07-04", "cuisine": "tex-mex", "name": "Los Caballeros"}}, {"type": "node", "id": 737404993, "lat": 38.8851348, "lon": -76.9980082, "tags": {"addr:housenumber": "609", "addr:street": "Pennsylvania Avenue Southeast", "amenity": "restaurant", "cuisine": "indian", "dataset": "ABRA locations", "delivery": "yes", "name": "Aatish On The Hill", "phone": "+1-202-544-0931", "source": "dcgis", "takeaway": "yes", "website": "https://aatish-onthehill.com/"}}, {"type": "node", "id": 737405011, "lat": 38.8848976, "lon": -76.9974137, "tags": {"addr:housenumber": "629", "addr:street": "Pennsylvania Avenue Southeast", "amenity": "restaurant", "cuisine": "mexican;salvadoran", "dataset": "ABRA locations", "name": "La Plaza", "phone": "+1-202-546-9512", "source": "dcgis", "website": "https://www.laplazadc.com/"}}, {"type": "node", "id": 737405052, "lat": 38.883089, "lon": -76.995186, "tags": {"addr:housenumber": "419", "addr:street": "8th Street Southeast", "amenity": "restaurant", "dataset": "ABRA locations", "name": "Capitol Hill Tandor and Grill", "note": "Delivery + takeout only while undergoing renovations", "opening_hours": "Mo 17:00-21:00; Tu-Th 17:00-22:00; Fr-Sa 17:00-22:30; Su 17:00-22:00", "phone": "+1-202-547-3233", "source": "dcgis", "takeaway": "only", "website": "https://www.capitolhilltandoorandgrill.com"}}, {"type": "node", "id": 737405121, "lat": 38.8850365, "lon": -76.9963828, "tags": {"addr:city": "Washington", "addr:housenumber": "666", "addr:postcode": "20003", "addr:state": "DC", "addr:street": "Pennsylvania Avenue Southeast", "amenity": "cafe", "brand": "Le Pain Quotidien", "brand:wikidata": "Q2046903", "check_date": "2024-02-18", "cuisine": "coffee_shop", "dataset": "ABRA locations", "name": "Le Pain Quotidien", "outdoor_seating": "yes", "source": "dcgis", "takeaway": "yes"}}, {"type": "node", "id": 737405173, "lat": 38.8830374, "lon": -76.9947482, "tags": {"addr:city": "Washington", "addr:housenumber": "424", "addr:postcode": "20003", "addr:state": "DC", "addr:street": "8th Street Southeast", "amenity": "restaurant", "cuisine": "turkish", "dataset": "ABRA locations", "name": "Cafe 8", "outdoor_seating": "yes", "phone": "+1-202-547-1555", "source": "dcgis", "website": "https://www.cafes8.com"}}, {"type": "node", "id": 737405176, "lat": 38.8866697, "lon": -77.0018054, "tags": {"addr:housenumber": "303", "addr:street": "Pennsylvania Avenue Southeast", "amenity": "fast_food", "dataset": "ABRA locations", "name": "Good Stuff Eatery", "phone": "+1-202-791-0168", "source": "dcgis", "website": "https://goodstuffeatery.com/", "wheelchair": "no"}}, {"type": "node", "id": 737405199, "lat": 38.8863985, "lon": -77.0011504, "tags": {"addr:housenumber": "329", "addr:postcode": "20003", "addr:street": "Pennsylvania Avenue Southeast", "amenity": "pub", "contact:instagram": "https://www.instagram.com/hawkndove_dc", "name": "Hawk 'n' Dove", "opening_hours": "Mo-Fr 11:00-23:00; Sa 10:00-23:00; Su 10:00-22:00", "phone": "+1-202-547-0030", "website": "https://www.hawkndovebardc.com/", "website:menu": "https://www.hawkndovebardc.com/menus/"}}, {"type": "node", "id": 737405229, "lat": 38.8851718, "lon": -76.9982684, "tags": {"addr:city": "Washington", "addr:country": "US", "addr:housenumber": "601", "addr:postcode": "20003", "addr:state": "DC", "addr:street": "Pennsylvania Avenue Southeast", "amenity": "restaurant", "dataset": "ABRA locations", "lgbtq": "primary", "name": "Mr. Henry's", "source": "dcgis"}}, {"type": "node", "id": 751839808, "lat": 38.8872858, "lon": -77.0018293, "tags": {"addr:housenumber": "300", "addr:street": "Pennsylvania Avenue Southeast", "amenity": "bank", "brand": "Truist", "brand:wikidata": "Q795486", "name": "Truist"}}, {"type": "node", "id": 751839811, "lat": 38.886836, "lon": -77.0007586, "tags": {"addr:housenumber": "336", "addr:postcode": "20003", "addr:street": "Pennsylvania Avenue Southeast", "amenity": "bank", "brand": "Capital One", "brand:wikidata": "Q1034654", "dataset": "Banks", "drive_through": "no", "name": "Capital One", "opening_hours": "Mo-Fr 09:00-17:00; Sa 09:00-12:00", "phone": "+1-202-543-2510", "source": "dcgis"}}, {"type": "node", "id": 751839878, "lat": 38.8870309, "lon": -77.0011389, "tags": {"addr:housenumber": "316", "addr:street": "Pennsylvania Avenue Southeast", "amenity": "bank", "dataset": "Banks", "name": "The National Capital Bank of Washington", "source": "dcgis"}}, {"type": "node", "id": 751839884, "lat": 38.8853802, "lon": -76.9971685, "tags": {"addr:housenumber": "650", "addr:street": "Pennsylvania Avenue Southeast", "amenity": "bank", "brand": "PNC Bank", "brand:wikidata": "Q38928", "dataset": "Banks", "name": "PNC Bank", "source": "dcgis"}}, {"type": "node", "id": 751839914, "lat": 38.8857435, "lon": -76.99802, "tags": {"addr:housenumber": "600", "addr:street": "Pennsylvania Avenue Southeast", "amenity": "bank", "brand": "Citibank", "brand:wikidata": "Q857063", "dataset": "Banks", "drive_through": "yes", "level": "0", "name": "Citibank", "short_name": "Citi", "source": "dcgis"}}, {"type": "node", "id": 804637885, "lat": 38.8880696, "lon": -77.0024145}, {"type": "node", "id": 804637889, "lat": 38.8879353, "lon": -77.002403}, {"type": "node", "id": 804637899, "lat": 38.8890476, "lon": -77.0031941}, {"type": "node", "id": 804638062, "lat": 38.8889133, "lon": -77.0024008}, {"type": "node", "id": 804638501, "lat": 38.8880696, "lon": -77.0024028}, {"type": "node", "id": 804638629, "lat": 38.8890352, "lon": -77.0030237}, {"type": "node", "id": 804639042, "lat": 38.8879345, "lon": -77.0031961}, {"type": "node", "id": 804639051, "lat": 38.8880698, "lon": -77.0031824}, {"type": "node", "id": 804639139, "lat": 38.8885985, "lon": -77.0031814}, {"type": "node", "id": 804639386, "lat": 38.8889133, "lon": -77.0024115}, {"type": "node", "id": 804639498, "lat": 38.8883841, "lon": -77.0024138}, {"type": "node", "id": 804639569, "lat": 38.8889121, "lon": -77.0031944}, {"type": "node", "id": 804639647, "lat": 38.8885984, "lon": -77.0024012}, {"type": "node", "id": 804639914, "lat": 38.8879342, "lon": -77.0030243}, {"type": "node", "id": 804640041, "lat": 38.8890469, "lon": -77.0024005}, {"type": "node", "id": 804640156, "lat": 38.8883829, "lon": -77.0031945}, {"type": "node", "id": 804640197, "lat": 38.8879355, "lon": -77.0025715}, {"type": "node", "id": 804640419, "lat": 38.8883841, "lon": -77.0024016}, {"type": "node", "id": 804640587, "lat": 38.8879443, "lon": -77.0025715}, {"type": "node", "id": 804640871, "lat": 38.8889121, "lon": -77.0031807}, {"type": "node", "id": 804640898, "lat": 38.8883829, "lon": -77.0031818}, {"type": "node", "id": 804640974, "lat": 38.8879449, "lon": -77.0030243}, {"type": "node", "id": 804641218, "lat": 38.8890346, "lon": -77.0025718}, {"type": "node", "id": 804641544, "lat": 38.8880698, "lon": -77.0031958}, {"type": "node", "id": 804641671, "lat": 38.8890471, "lon": -77.0025718}, {"type": "node", "id": 804641766, "lat": 38.8885984, "lon": -77.0024121}, {"type": "node", "id": 804641931, "lat": 38.8885985, "lon": -77.003194}, {"type": "node", "id": 804642068, "lat": 38.8890474, "lon": -77.0030237}, {"type": "node", "id": 814314091, "lat": 38.8895926, "lon": -76.9992579}, {"type": "node", "id": 814314229, "lat": 38.889602, "lon": -76.9993206}, {"type": "node", "id": 814314551, "lat": 38.889229, "lon": -77.0026126}, {"type": "node", "id": 814314907, "lat": 38.8892325, "lon": -77.0029836}, {"type": "node", "id": 814315191, "lat": 38.8895782, "lon": -76.9993515}, {"type": "node", "id": 814315285, "lat": 38.889247, "lon": -77.0025775}, {"type": "node", "id": 814315448, "lat": 38.8895557, "lon": -76.9992625}, {"type": "node", "id": 814315575, "lat": 38.8894105, "lon": -76.9992625}, {"type": "node", "id": 814315594, "lat": 38.8871927, "lon": -77.0015133, "tags": {"addr:city": "Washington", "addr:housenumber": "312", "addr:postcode": "20003", "addr:state": "DC", "addr:street": "Pennsylvania Avenue Southeast", "amenity": "restaurant", "cuisine": "asian", "dataset": "address", "dcgis:lot": "0012", "dcgis:square": "0789", "delivery": "yes", "name": "Young Chow", "source": "dcgis", "takeaway": "yes", "website": "https://www.youngchowdc.com/"}}, {"type": "node", "id": 814315861, "lat": 38.8892286, "lon": -77.0029687}, {"type": "node", "id": 814315926, "lat": 38.889437, "lon": -76.9993358}, {"type": "node", "id": 814316121, "lat": 38.8894879, "lon": -76.9993407}, {"type": "node", "id": 814316333, "lat": 38.8893134, "lon": -77.0030056}, {"type": "node", "id": 814316357, "lat": 38.8895923, "lon": -76.9992744}, {"type": "node", "id": 814316497, "lat": 38.8896017, "lon": -76.9993396}, {"type": "node", "id": 814316580, "lat": 38.8893158, "lon": -77.0026028}, {"type": "node", "id": 814317248, "lat": 38.8894756, "lon": -76.9993554}, {"type": "node", "id": 814317471, "lat": 38.8895714, "lon": -76.9993423}, {"type": "node", "id": 814317549, "lat": 38.8892473, "lon": -77.0023968}, {"type": "node", "id": 814317711, "lat": 38.8895555, "lon": -76.9992572}, {"type": "node", "id": 814317846, "lat": 38.889592, "lon": -76.999307}, {"type": "node", "id": 814317933, "lat": 38.8892341, "lon": -77.0026026}, {"type": "node", "id": 814318220, "lat": 38.8894145, "lon": -76.9993354}, {"type": "node", "id": 814318800, "lat": 38.8895924, "lon": -76.9993508}, {"type": "node", "id": 814318901, "lat": 38.8893158, "lon": -77.0025777}, {"type": "node", "id": 814319044, "lat": 38.8895507, "lon": -77.0031904}, {"type": "node", "id": 814319505, "lat": 38.8892326, "lon": -77.0029687}, {"type": "node", "id": 814319605, "lat": 38.8894523, "lon": -76.9993567}, {"type": "node", "id": 814319890, "lat": 38.889552, "lon": -77.0023976}, {"type": "node", "id": 925554780, "lat": 38.8864192, "lon": -76.9982247, "tags": {"artwork_type": "statue", "ele": "25", "historic": "statue", "name": "Olive Risley Seward Statue", "tourism": "artwork", "wikidata": "Q7087192", "wikipedia": "en:Olive Risley Seward (Cavanaugh)"}}, {"type": "node", "id": 925567205, "lat": 38.8852165, "lon": -76.9964033, "tags": {"amenity": "cafe", "check_date": "2024-02-18", "internet_access": "wlan", "level": "0", "name": "Peregrine Espresso", "wheelchair": "yes"}}, {"type": "node", "id": 1020922828, "lat": 38.8870056, "lon": -77.0026388, "tags": {"addr:housenumber": "223", "addr:street": "Pennsylvania Avenue Southeast", "amenity": "restaurant", "name": "Sonoma Restaurant and Wine Bar"}}, {"type": "node", "id": 1681865572, "lat": 38.8844608, "lon": -76.9964341, "tags": {"amenity": "pharmacy", "brand": "CVS Pharmacy", "brand:website": "https://www.cvs.com/", "brand:wikidata": "Q2078880", "brand:wikipedia": "en:CVS Pharmacy", "dispensing": "yes", "healthcare": "pharmacy", "name": "CVS Pharmacy", "short_name": "CVS", "website": "https://www.cvs.com/store-locator/washington-dc-pharmacies/661-pennsylvania-avenue-se-washington-dc-20003/storeid=1338", "wheelchair": "yes"}}, {"type": "node", "id": 2748975958, "lat": 38.8863674, "lon": -77.0010395, "tags": {"amenity": "restaurant", "bar": "yes", "cuisine": "american", "name": "Tune Inn"}}, {"type": "node", "id": 3496169033, "lat": 38.884565, "lon": -76.9966804, "tags": {"addr:housenumber": "653", "addr:street": "Pennsylvania Avenue Southeast", "amenity": "restaurant", "cuisine": "thai", "name": "Sanphan Thai", "opening_hours": "Su-Th 11:00-15:30, 16:30-21:15; Fr-Sa 11:00-15:30, 16:30-21:45", "phone": "+1 202-544-9368", "website": "https://www.sanphanrestaurant.com/"}}, {"type": "node", "id": 3559302435, "lat": 38.887199, "lon": -76.9959943, "tags": {"amenity": "cafe", "check_date": "2024-02-18", "name": "7st Hill Cafe", "website": "https://www.portcityjava.com/"}}, {"type": "node", "id": 3559302437, "lat": 38.8870013, "lon": -76.9959919, "tags": {"amenity": "restaurant", "check_date": "2024-02-18", "cuisine": "mexican", "name": "Tortilla Caf\u00e9", "opening_hours": "Mo-Fr,Su 09:00-17:00; Sa 09:00-13:00", "outdoor_seating": "yes"}}, {"type": "node", "id": 3684845708, "lat": 38.8836059, "lon": -76.9951972, "tags": {"addr:city": "Washington", "addr:country": "US", "addr:housenumber": "401", "addr:postcode": "20003", "addr:state": "DC", "addr:street": "8th Street Southeast", "amenity": "cafe", "branch": "Eastern Market, 8th Street Southeast", "brand": "Starbucks", "brand:wikidata": "Q37158", "cuisine": "coffee_shop", "name": "Starbucks", "official_name": "Starbucks Coffee", "phone": "+1 202-544-7913", "ref": "13883", "takeaway": "yes", "website": "https://www.starbucks.com/store-locator/store/13883/eastern-market-8th-street-se-401-8th-street-se-washington-dc-200032833-us"}}, {"type": "node", "id": 4233962106, "lat": 38.8855934, "lon": -76.996384, "tags": {"addr:city": "Washington", "addr:housenumber": "317", "addr:postcode": "20003", "addr:state": "DC", "addr:street": "7th Street Southeast", "amenity": "restaurant", "name": "Bullfrog Bagels"}}, {"type": "node", "id": 4258006190, "lat": 38.8874496, "lon": -77.0018871, "tags": {"amenity": "atm", "brand": "Truist", "brand:wikidata": "Q795486", "currency:USD": "yes", "operator": "Truist", "operator:wikidata": "Q795486"}}, {"type": "node", "id": 4879529887, "lat": 38.8831986, "lon": -76.9951878, "tags": {"addr:city": "Washington", "addr:housenumber": "415", "addr:postcode": "20003", "addr:state": "DC", "addr:street": "8th Street Southeast", "amenity": "bar", "name": "Eat-Bar", "opening_hours": "Mo-Th 16:00-24:00; Fr 14:00-02:00; Sa 12:00-02:00; Su 12:00-24:00", "phone": "+1 202-847-4827", "website": "https://www.eat-bar.com/"}}, {"type": "node", "id": 4974127016, "lat": 38.8830317, "lon": -76.9951851, "tags": {"amenity": "restaurant", "cuisine": "chinese;korean", "name": "ChiKo", "opening_hours": "Mo-Th 17:00-23:00; Fr-Sa 17:00-24:00; Su 17:00-22:00", "phone": "+1-202-558-9934", "website": "http://chikodc.com"}}, {"type": "node", "id": 4974167622, "lat": 38.8834963, "lon": -76.9951833, "tags": {"amenity": "fast_food", "brand": "&pizza", "brand:wikidata": "Q21189222", "cuisine": "pizza", "name": "&pizza", "takeaway": "yes"}}, {"type": "node", "id": 4974167623, "lat": 38.8832544, "lon": -76.995189, "tags": {"addr:city": "Washington", "addr:housenumber": "413", "addr:postcode": "20003", "addr:state": "DC", "addr:street": "8th Street Southeast", "amenity": "fast_food", "brand": "Chipotle", "brand:wikidata": "Q465751", "cuisine": "mexican", "diet:vegan": "yes", "diet:vegetarian": "yes", "name": "Chipotle", "name:en": "Chipotle", "official_name": "Chipotle Mexican Grill", "opening_hours": "Mo-Su 10:45-22:00", "phone": "+1 202-464-3390", "takeaway": "yes", "website": "https://locations.chipotle.com/dc/washington/413-8th-street-se"}}, {"type": "node", "id": 4974167821, "lat": 38.8831494, "lon": -76.9951875, "tags": {"amenity": "fast_food", "brand": "Pizza Boli's", "brand:wikidata": "Q105882930", "cuisine": "pizza", "name": "Pizza Boli's", "phone": "+1 202-546-2900", "takeaway": "yes"}}, {"type": "node", "id": 5109650122, "lat": 38.8850837, "lon": -76.9978761, "tags": {"amenity": "restaurant", "cuisine": "american", "name": "Barrel"}}, {"type": "node", "id": 5376787643, "lat": 38.8866124, "lon": -76.9959819, "tags": {"addr:city": "Washington", "addr:housenumber": "22", "addr:state": "DC", "addr:street": "7th Street Southeast", "amenity": "restaurant", "check_date": "2024-02-25", "cuisine": "american", "diet:vegetarian": "limited", "name": "Tunnicliff's Tavern", "outdoor_seating": "yes", "payment:cash": "yes", "payment:credit_cards": "yes", "payment:debit_cards": "yes", "phone": "+1 202-544-5680", "website": "https://www.tunnicliffstavern.com/", "wheelchair": "no"}}, {"type": "node", "id": 6300462568, "lat": 38.8831074, "lon": -76.9935557, "tags": {"addr:city": "Washington", "addr:housenumber": "921", "addr:postcode": "20003", "addr:state": "DC", "addr:street": "Pennsylvania Avenue Southeast", "amenity": "restaurant", "name": "Little Pearl", "wikidata": "Q73786038"}}, {"type": "node", "id": 8298744531, "lat": 38.8886275, "lon": -77.0031813, "tags": {"entrance": "yes"}}, {"type": "node", "id": 8462985892, "lat": 38.88849, "lon": -77.0031942}, {"type": "node", "id": 8462985943, "lat": 38.887945, "lon": -77.0028187}, {"type": "node", "id": 8462985954, "lat": 38.8879449, "lon": -77.0027621}, {"type": "node", "id": 8462985983, "lat": 38.8879449, "lon": -77.0027867}, {"type": "node", "id": 8462986092, "lat": 38.8884893, "lon": -77.0024014}, {"type": "node", "id": 8462986158, "lat": 38.8895519, "lon": -77.0024721}, {"type": "node", "id": 8462986169, "lat": 38.8895507, "lon": -77.0031604}, {"type": "node", "id": 8462986174, "lat": 38.8895509, "lon": -77.0030893}, {"type": "node", "id": 10261211552, "lat": 38.8861684, "lon": -76.9959892, "tags": {"addr:city": "Washington", "addr:housenumber": "250", "addr:postcode": "20003", "addr:street": "7th Street Southeast", "amenity": "fast_food", "check_date": "2024-02-18", "cuisine": "burger", "diet:vegetarian": "yes", "name": "Eat Brgz", "outdoor_seating": "yes", "website": "https://www.eatbrgz.com/"}}, {"type": "node", "id": 10537539116, "lat": 38.8849723, "lon": -76.9975772, "tags": {"amenity": "restaurant", "cuisine": "american", "name": "Beuchert's Saloon", "opening_hours": "Mo-Th 16:00-22:00; Fr 16:00-23:00; Sa 11:00-15:00, 16:00-23:00; Su 11:00-15:00, 16:00-22:00", "phone": "+1-202-733-1384", "website": "https://beuchertssaloon.com/"}}, {"type": "node", "id": 10537539124, "lat": 38.8848395, "lon": -76.9972858, "tags": {"amenity": "restaurant", "cuisine": "sandwich", "name": "Fight Club", "opening_hours": "Su-Th 11:00-23:00; Fr-Sa 11:00-01:00", "website": "https://www.fightclubdc.com/"}}, {"type": "node", "id": 10539956351, "lat": 38.8864467, "lon": -77.0012298, "tags": {"amenity": "restaurant", "cuisine": "sushi", "name": "Sushi Capitol", "phone": "+1-202-544-9888", "website": "http://www.sushicapitol.com/"}}, {"type": "node", "id": 10539956352, "lat": 38.8864936, "lon": -77.0013567, "tags": {"amenity": "restaurant", "cuisine": "seafood", "happy_hours": "Mo-Su 17:00-20:00", "name": "Coastline Oyster Co.", "opening_hours": "Fr-Sa 11:00-22:00; Su-Th 11:00-21:00", "phone": "+1-202-506-1370", "website": "https://coastlineoysterco.com/"}}, {"type": "node", "id": 10540052935, "lat": 38.8840903, "lon": -76.9963685, "tags": {"entrance": "main", "level": "1", "wheelchair": "no", "wheelchair:description": "stairs to door from sidewalk, additional stairs inside to main level"}}, {"type": "node", "id": 10594328317, "lat": 38.8853361, "lon": -76.9963719, "tags": {"amenity": "restaurant", "contact:instagram": "https://www.instagram.com/lacasinadc/", "cuisine": "pizza", "name": "La Casina", "opening_hours": "Tu-Sa 11:30-14:30, 17:30-21:00; Su 11:30-16:30", "phone": "+1-202-516-5100", "website": "https://lacasinadc.com/"}}, {"type": "node", "id": 11382556901, "lat": 38.8853794, "lon": -76.9963731, "tags": {"amenity": "restaurant", "contact:instagram": "https://www.instagram.com/ruta.dc", "cuisine": "ukrainian", "name": "Ruta", "opening_hours": "Mo off; Tu-Th 17:00-21:00; Fr 17:00-22:00; Sa-Su 11:00-15:00, 16:00-21:00", "phone": "+1 202-492-7986", "website": "https://www.rutadc.us/"}}, {"type": "node", "id": 11895544255, "lat": 38.885274, "lon": -76.995958, "tags": {"addr:housenumber": "360", "addr:postcode": "20003", "addr:street": "7th Street Southeast", "amenity": "bar", "bar": "wine", "name": "The Eastern", "opening_hours": "Mo-Fr 16:00-23:00+; Sa-Su 14:00-23:00+", "phone": "+1-202-621-7950", "website": "https://www.easternwinebar.com/"}}, {"type": "node", "id": 11895544256, "lat": 38.8857256, "lon": -76.9959451, "tags": {"addr:housenumber": "300", "addr:street": "7th Street Southeast", "amenity": "restaurant", "cuisine": "american", "name": "The Duck & The Peach", "opening_hours": "Mo off; Tu-Fr 17:00-22:00; Sa 10:00-15:00, 17:00-22:00; Su 10:00-15:00", "outdoor_seating": "yes", "phone": "+1-202-431-1913", "website": "https://www.duckandpeachdc.com/"}}, {"type": "node", "id": 11904943185, "lat": 38.8848154, "lon": -76.9956751, "tags": {"addr:housenumber": "700", "addr:street": "Pennsylvania Avenue Southeast", "addr:unit": "A", "amenity": "bank", "brand": "Chase", "brand:wikidata": "Q524629", "check_date": "2024-05-14", "name": "Chase", "opening_hours": "Mo-Fr 09:00-17:00; Sa 09:00-13:00; Su off"}}, {"type": "way", "id": 48039099, "nodes": [559163505, 610784098, 610784099, 610784100, 610784101, 610784102, 610784103, 610784104, 610784105, 610784106, 610784108, 610784109, 610784110, 10540052935, 610784111, 610784112, 610784113, 610784114, 610784115, 559163505], "tags": {"addr:city": "Washington", "addr:country": "US", "addr:housenumber": "403", "addr:postcode": "20003", "addr:state": "DC", "addr:street": "7th Street Southeast", "amenity": "library", "building": "yes", "dcgis:captureyear": "19990331", "dcgis:dataset": "buildings", "dcgis:featurecode": "2000", "mappingdc:gid": "9482", "name": "Southeast Neighborhood Library", "opening_hours": "off", "phone": "+1 202-698-3377", "source": "dcgis", "website": "https://www.dclibrary.org/southeast"}}, {"type": "way", "id": 48039595, "nodes": [610789446, 610789447, 610789448, 610789449, 610789450, 610789451, 610789452, 610789453, 610789446], "tags": {"addr:city": "Washington", "addr:postcode": "20003", "addr:street": "Pennsylvania Avenue Southeast", "amenity": "restaurant", "building": "house", "cuisine": "pizza", "dcgis:captureyear": "19990331", "dcgis:dataset": "buildings", "dcgis:featurecode": "2000", "delivery": "yes", "house": "terraced", "mappingdc:gid": "5075", "name": "We the Pizza", "source": "dcgis", "wheelchair": "no"}}, {"type": "way", "id": 48039713, "nodes": [610791073, 610791074, 610791075, 610791076, 610791077, 610791078, 610791079, 610791080, 610791081, 610791082, 610791073], "tags": {"addr:city": "Washington", "addr:country": "US", "addr:housenumber": "237", "addr:postcode": "20003", "addr:state": "DC", "addr:street": "Pennsylvania Avenue Southeast", "amenity": "cafe", "branch": "Capitol Hill, DC", "brand": "Starbucks", "brand:wikidata": "Q37158", "building": "yes", "cuisine": "coffee_shop", "dcgis:captureyear": "19990331", "dcgis:dataset": "buildings", "dcgis:featurecode": "2000", "mappingdc:gid": "2475", "name": "Starbucks", "official_name": "Starbucks Coffee", "phone": "+1 202-544-9783", "ref": "12369", "source": "dcgis", "takeaway": "yes", "website": "https://www.starbucks.com/store-locator/store/12369/capitol-hill-dc-237-pennsylvania-ave-se-washington-dc-200031107-us"}}, {"type": "way", "id": 48039715, "nodes": [610791104, 610791091, 610791101, 610791093, 610791094, 610791095, 610791104], "tags": {"addr:city": "Washington", "addr:housenumber": "301", "addr:postcode": "20003", "addr:street": "Pennsylvania Avenue Southeast", "amenity": "restaurant", "building": "yes", "building:levels": "2", "cuisine": "mexican", "dcgis:captureyear": "19990331", "dcgis:dataset": "buildings", "dcgis:featurecode": "2000", "mappingdc:gid": "2508", "name": "Santa Rosa Taqueria", "opening_hours": "Mo-Su 11:00-22:00", "phone": "+1-202-450-4800", "website": "https://www.santarosataqueria.com/"}}, {"type": "way", "id": 55333102, "nodes": [695045802, 695045803, 695045821, 695045829, 695045827, 695045811, 695045802], "tags": {"addr:city": "Washington", "addr:country": "US", "addr:housenumber": "406", "addr:postcode": "20003", "addr:state": "DC", "addr:street": "8th Street Southeast", "alt_name": "Dunkin' Donuts", "amenity": "fast_food", "brand": "Dunkin'", "brand:wikidata": "Q847743", "building": "house", "cuisine": "donut;coffee_shop", "dcgis:captureyear": "19990331", "dcgis:dataset": "buildings", "dcgis:featurecode": "2000", "drive_through": "no", "house": "terraced", "name": "Dunkin'", "opening_hours": "Mo-Th 05:00-20:00; Fr-Sa 05:00-21:00; Su 05:00-20:00", "phone": "+1 202-630-4930", "ref": "359701", "source": "dcgis", "takeaway": "yes", "website": "https://locations.dunkindonuts.com/en/dc/washington/406-8th-st-se/359701"}}, {"type": "way", "id": 66418878, "nodes": [804637899, 804642068, 804638629, 804641218, 804641671, 804640041, 804638062, 804639386, 804641766, 804639647, 8462986092, 804640419, 804639498, 804637885, 804638501, 804637889, 804640197, 804640587, 8462985954, 8462985983, 8462985943, 804640974, 804639914, 804639042, 804641544, 804639051, 804640898, 804640156, 8462985892, 804641931, 804639139, 8298744531, 804640871, 804639569, 804637899], "tags": {"addr:city": "Washington", "addr:country": "US", "addr:housename": "John Adams Building", "addr:housenumber": "120", "addr:street": "2nd Street Southeast", "amenity": "library", "building": "office", "building:levels": "6", "dataset": "buildings", "dcgis:captureyear": "19990331", "dcgis:lot": "0833", "dcgis:square": "0761", "height": "21.76", "name": "Library of Congress, John Adams Building", "name:de": "Kongressbibliothek, John-Adams-Geb\u00e4ude", "name:etymology:wikidata": "Q11806", "name:pt": "Biblioteca do Congresso, Edif\u00edcio John Adams", "operator": "Library of Congress", "operator:wikidata": "Q131454", "source": "dcgis", "wheelchair": "yes", "wikidata": "Q2337907"}}, {"type": "way", "id": 67460477, "nodes": [814316357, 814314091, 814317711, 814315448, 814315575, 814318220, 814315926, 814319605, 814317248, 814316121, 814317471, 814315191, 814318800, 814316497, 814314229, 814317846, 814316357], "tags": {"addr:housenumber": "501", "addr:street": "East Capitol Street Southeast", "amenity": "restaurant", "building": "yes", "cuisine": "diner", "dataset": "buildings", "dcgis:captureyear": "19990331", "dcgis:lot": "0022", "dcgis:square": "0841", "name": "Jimmy T's", "source": "dcgis"}}, {"type": "way", "id": 67460587, "nodes": [814319890, 814317549, 814315285, 814318901, 814316580, 814317933, 528878228, 814314551, 814315861, 814319505, 814314907, 528878219, 814316333, 528878220, 528878223, 814319044, 8462986169, 8462986174, 358958408, 8462986158, 814319890], "tags": {"addr:city": "Washington", "addr:country": "US", "addr:housenumber": "201", "addr:postcode": "20003", "addr:state": "DC", "addr:street": "East Capitol Street Southeast", "amenity": "library", "building": "yes", "building:levels": "3", "dataset": "buildings", "dcgis:captureyear": "19990331", "dcgis:lot": "0031", "dcgis:square": "0760", "description": "A world famous collection of Shakespeare and Shakespeare related works intended for performance use.", "height": "10.88", "name": "Folger Shakespeare Library", "name:pt": "Biblioteca Folger Shakespeare", "source": "dcgis", "wikidata": "Q728116"}}]}