{"version": 0.6, "generator": "Overpass API 0.7.62.1 084b4234", "osm3s": {"timestamp_osm_base": "2024-07-25T16:07:45Z", "copyright": "The data included in this document is from www.openstreetmap.org. The data is made available under ODbL."}, "elements": [{"type": "node", "id": 651892521, "lat": 40.2546079, "lon": -76.8321372}, {"type": "node", "id": 651892523, "lat": 40.2546452, "lon": -76.8323107}, {"type": "node", "id": 651892524, "lat": 40.2551576, "lon": -76.8321217}, {"type": "node", "id": 651892526, "lat": 40.2551203, "lon": -76.8319482}, {"type": "node", "id": 769916877, "lat": 40.2541596, "lon": -76.8333418}, {"type": "node", "id": 2316627085, "lat": 40.2543121, "lon": -76.8330754}, {"type": "node", "id": 2316627088, "lat": 40.2541089, "lon": -76.8332028}, {"type": "node", "id": 2316627092, "lat": 40.2543629, "lon": -76.8332144}, {"type": "node", "id": 6775484933, "lat": 40.2543122, "lon": -76.8286474, "tags": {"amenity": "fast_food", "brand": "Qdoba", "brand:wikidata": "Q1363885", "cuisine": "mexican", "fixme:atp": "no ATP match, check if still exists", "name": "Qdoba", "official_name": "Qdoba Mexican Grill", "takeaway": "yes"}}, {"type": "node", "id": 6775484934, "lat": 40.2543764, "lon": -76.8290353, "tags": {"amenity": "cafe", "brand": "Starbucks", "brand:wikidata": "Q37158", "contact:website": "https://www.starbucks.com/store-locator/store/18069/paxton-street-3462-paxton-street-harrisburg-pa-171111475-us", "cuisine": "coffee_shop", "name": "Starbucks", "official_name": "Starbucks Coffee", "takeaway": "yes"}}, {"type": "node", "id": 7934513216, "lat": 40.2512909, "lon": -76.8314258, "tags": {"addr:city": "Harrisburg", "addr:housenumber": "3501", "addr:postcode": "17111", "addr:state": "PA", "addr:street": "Paxton Street", "amenity": "cinema", "brand": "Regal Cinemas", "brand:wikidata": "Q835638", "name": "Regal Cinemas", "short_name": "Regal"}}, {"type": "node", "id": 10735691287, "lat": 40.2579445, "lon": -76.8237264}, {"type": "node", "id": 10735691288, "lat": 40.2581467, "lon": -76.8236828}, {"type": "node", "id": 10735691289, "lat": 40.2581654, "lon": -76.8238317}, {"type": "node", "id": 10735691290, "lat": 40.2579313, "lon": -76.8238822}, {"type": "node", "id": 10735691291, "lat": 40.2579172, "lon": -76.8237699}, {"type": "node", "id": 10735691292, "lat": 40.2579491, "lon": -76.823763}, {"type": "node", "id": 10790197544, "lat": 40.2536744, "lon": -76.8306923}, {"type": "node", "id": 10790197545, "lat": 40.2537227, "lon": -76.8310012}, {"type": "node", "id": 10790197546, "lat": 40.2536461, "lon": -76.8310218}, {"type": "node", "id": 10790197547, "lat": 40.253657, "lon": -76.8310913}, {"type": "node", "id": 10790197548, "lat": 40.2535921, "lon": -76.8311087}, {"type": "node", "id": 10790197549, "lat": 40.2535873, "lon": -76.8310778}, {"type": "node", "id": 10790197550, "lat": 40.2535598, "lon": -76.8310852}, {"type": "node", "id": 10790197551, "lat": 40.2535067, "lon": -76.8307454}, {"type": "node", "id": 10790197552, "lat": 40.2536108, "lon": -76.8307174}, {"type": "node", "id": 10790197553, "lat": 40.2536096, "lon": -76.8307097}, {"type": "node", "id": 10790197554, "lat": 40.254483, "lon": -76.8316595, "tags": {"alt_name": "Melting Pot", "amenity": "restaurant", "brand": "The Melting Pot", "brand:wikidata": "Q7750948", "cuisine": "fondue", "name": "The Melting Pot"}}, {"type": "way", "id": 51098980, "nodes": [651892521, 651892523, 651892524, 651892526, 651892521], "tags": {"alt_name": "Melting Pot", "amenity": "restaurant", "brand": "The Melting Pot", "brand:wikidata": "Q7750948", "building": "yes", "cuisine": "fondue", "name": "The Melting Pot"}}, {"type": "way", "id": 222718503, "nodes": [769916877, 2316627092, 2316627085, 2316627088, 769916877], "tags": {"addr:city": "Harrisburg", "addr:housenumber": "3273", "addr:postcode": "17111", "addr:state": "PA", "addr:street": "Paxton St Road", "amenity": "restaurant", "brand": "Pizza Hut", "brand:wikidata": "Q191615", "building": "yes", "cuisine": "pizza", "name": "Pizza Hut", "phone": "+1 717-558-9474", "website": "https://locations.pizzahut.com/pa/harrisburg/3273-paxton-st-rd"}}, {"type": "way", "id": 1154350157, "nodes": [10735691287, 10735691288, 10735691289, 10735691290, 10735691291, 10735691292, 10735691287], "tags": {"amenity": "bar", "building": "yes", "name": "The Tops Bar", "source": "microsoft/BuildingFootprints"}}, {"type": "way", "id": 1160203323, "nodes": [10790197544, 10790197545, 10790197546, 10790197547, 10790197548, 10790197549, 10790197550, 10790197551, 10790197552, 10790197553, 10790197544], "tags": {"amenity": "restaurant", "brand": "Applebee's Neighborhood Grill & Bar", "brand:wikidata": "Q621532", "building": "yes", "cuisine": "american", "name": "Applebee's", "official_name": "Applebee's Neighborhood Grill & Bar", "source": "microsoft/BuildingFootprints"}}]}