{"version": 0.6, "generator": "Overpass API 0.7.62.1 084b4234", "osm3s": {"timestamp_osm_base": "2024-07-23T20:16:46Z", "copyright": "The data included in this document is from www.openstreetmap.org. The data is made available under ODbL."}, "elements": [{"type": "node", "id": 42730310, "lat": 40.838107, "lon": -73.835007, "tags": {"highway": "traffic_signals", "traffic_signals": "signal"}}, {"type": "node", "id": 42730312, "lat": 40.83893, "lon": -73.833265}, {"type": "node", "id": 42730316, "lat": 40.839747, "lon": -73.831541, "tags": {"highway": "stop"}}, {"type": "node", "id": 42730322, "lat": 40.840203, "lon": -73.830559}, {"type": "node", "id": 42730326, "lat": 40.840609, "lon": -73.829674, "tags": {"highway": "traffic_signals", "traffic_signals": "signal"}}, {"type": "node", "id": 42730330, "lat": 40.840965, "lon": -73.828767}, {"type": "node", "id": 42730333, "lat": 40.8412662, "lon": -73.8279088}, {"type": "node", "id": 42730339, "lat": 40.841318, "lon": -73.827032}, {"type": "node", "id": 42730342, "lat": 40.8413777, "lon": -73.8260667}, {"type": "node", "id": 42745501, "lat": 40.838018, "lon": -73.829689}, {"type": "node", "id": 42745504, "lat": 40.839235, "lon": -73.830256}, {"type": "node", "id": 42745507, "lat": 40.8409886, "lon": -73.8307558}, {"type": "node", "id": 42745512, "lat": 40.841713, "lon": -73.830922, "tags": {"direction": "both", "highway": "stop", "stop": "all"}}, {"type": "node", "id": 42745515, "lat": 40.842161, "lon": -73.831014, "tags": {"direction": "N;S", "highway": "stop"}}, {"type": "node", "id": 42745518, "lat": 40.8437511, "lon": -73.8310789}, {"type": "node", "id": 42747384, "lat": 40.838266, "lon": -73.832792}, {"type": "node", "id": 42747389, "lat": 40.839573, "lon": -73.833766}, {"type": "node", "id": 42748007, "lat": 40.837948, "lon": -73.833637}, {"type": "node", "id": 42750618, "lat": 40.837613, "lon": -73.8345154}, {"type": "node", "id": 42750621, "lat": 40.838584, "lon": -73.831947}, {"type": "node", "id": 42750623, "lat": 40.838927, "lon": -73.831051}, {"type": "node", "id": 42750626, "lat": 40.839579, "lon": -73.829363}, {"type": "node", "id": 42762260, "lat": 40.840666, "lon": -73.83146}, {"type": "node", "id": 42770248, "lat": 40.84038, "lon": -73.832062}, {"type": "node", "id": 42770251, "lat": 40.84095, "lon": -73.832529, "tags": {"highway": "stop"}}, {"type": "node", "id": 42770253, "lat": 40.8414193, "lon": -73.8328957}, {"type": "node", "id": 5334946458, "lat": 40.8386625, "lon": -73.8356644}, {"type": "node", "id": 5334946459, "lat": 40.8387496, "lon": -73.8355017, "tags": {"direction": "backward", "highway": "stop"}}, {"type": "node", "id": 5334991038, "lat": 40.8385503, "lon": -73.8300401}, {"type": "node", "id": 9199950377, "lat": 40.8378489, "lon": -73.8303519, "tags": {"crossing": "uncontrolled", "highway": "crossing"}}, {"type": "node", "id": 9247503091, "lat": 40.8392363, "lon": -73.8344758, "tags": {"direction": "both", "surface": "asphalt", "traffic_calming": "hump"}}, {"type": "node", "id": 9275819428, "lat": 40.8387709, "lon": -73.8314588, "tags": {"direction": "both", "surface": "asphalt", "traffic_calming": "hump"}}, {"type": "node", "id": 9936527376, "lat": 40.8413715, "lon": -73.8261659, "tags": {"crossing": "marked", "crossing:markings": "yes", "highway": "crossing"}}, {"type": "node", "id": 9936527377, "lat": 40.8413679, "lon": -73.8262239, "tags": {"direction": "forward", "highway": "stop"}}, {"type": "node", "id": 11404183257, "lat": 40.8376865, "lon": -73.8343228, "tags": {"direction": "backward", "highway": "stop"}}, {"type": "node", "id": 11694296708, "lat": 40.8436676, "lon": -73.8310755, "tags": {"crossing": "uncontrolled", "highway": "crossing"}}, {"type": "node", "id": 11694296836, "lat": 40.8413273, "lon": -73.8268807, "tags": {"direction": "backward", "highway": "stop"}}, {"type": "node", "id": 11694296837, "lat": 40.8413094, "lon": -73.8271601, "tags": {"direction": "forward", "highway": "stop"}}, {"type": "node", "id": 11694296840, "lat": 40.8412553, "lon": -73.8279966, "tags": {"crossing": "unmarked", "crossing:markings": "no", "highway": "crossing"}}, {"type": "node", "id": 11694296849, "lat": 40.8413294, "lon": -73.8328254, "tags": {"direction": "forward", "highway": "stop"}}, {"type": "node", "id": 11694296948, "lat": 40.8421017, "lon": -73.8310018, "tags": {"crossing": "uncontrolled", "highway": "crossing"}}, {"type": "node", "id": 11694296953, "lat": 40.8422303, "lon": -73.8310168, "tags": {"crossing": "uncontrolled", "highway": "crossing"}}, {"type": "node", "id": 11694296992, "lat": 40.8413653, "lon": -73.8328535, "tags": {"crossing": "unmarked", "crossing:markings": "no", "highway": "crossing"}}, {"type": "node", "id": 11694296998, "lat": 40.8417916, "lon": -73.8309381, "tags": {"crossing": "uncontrolled", "highway": "crossing"}}, {"type": "node", "id": 11694297009, "lat": 40.841645, "lon": -73.8309062, "tags": {"crossing": "uncontrolled", "highway": "crossing"}}, {"type": "node", "id": 11694297025, "lat": 40.8408957, "lon": -73.8324845, "tags": {"crossing": "uncontrolled", "highway": "crossing"}}, {"type": "node", "id": 11694297042, "lat": 40.8410146, "lon": -73.8325794, "tags": {"crossing": "uncontrolled", "highway": "crossing"}}, {"type": "node", "id": 11694297051, "lat": 40.8404682, "lon": -73.8321343, "tags": {"direction": "backward", "highway": "stop"}}, {"type": "node", "id": 11694297052, "lat": 40.8402912, "lon": -73.8319889, "tags": {"direction": "forward", "highway": "stop"}}, {"type": "node", "id": 11694297060, "lat": 40.8409329, "lon": -73.830883, "tags": {"direction": "forward", "highway": "stop"}}, {"type": "node", "id": 11694297062, "lat": 40.8409568, "lon": -73.8308284, "tags": {"crossing": "uncontrolled", "highway": "crossing"}}, {"type": "node", "id": 11694297070, "lat": 40.8404355, "lon": -73.8321075, "tags": {"crossing": "uncontrolled", "highway": "crossing"}}, {"type": "node", "id": 11694297146, "lat": 40.8395407, "lon": -73.8338341, "tags": {"crossing": "unmarked", "crossing:markings": "no", "highway": "crossing"}}, {"type": "node", "id": 11694297148, "lat": 40.8396129, "lon": -73.8336817, "tags": {"crossing": "unmarked", "crossing:markings": "no", "highway": "crossing"}}, {"type": "node", "id": 11694411911, "lat": 40.8403124, "lon": -73.8305864, "tags": {"direction": "backward", "highway": "stop"}}, {"type": "node", "id": 11694411912, "lat": 40.840091, "lon": -73.8305239, "tags": {"direction": "forward", "highway": "stop"}}, {"type": "node", "id": 11694411914, "lat": 40.8405652, "lon": -73.8297694, "tags": {"crossing": "traffic_signals", "highway": "crossing"}}, {"type": "node", "id": 11694411916, "lat": 40.8406504, "lon": -73.8295685, "tags": {"crossing": "traffic_signals", "highway": "crossing"}}, {"type": "node", "id": 11694411922, "lat": 40.8395285, "lon": -73.8294941, "tags": {"direction": "forward", "highway": "stop"}}, {"type": "node", "id": 11694411925, "lat": 40.8395461, "lon": -73.8294485, "tags": {"crossing": "uncontrolled", "highway": "crossing"}}, {"type": "node", "id": 11694438100, "lat": 40.8401328, "lon": -73.830537, "tags": {"crossing": "uncontrolled", "highway": "crossing"}}, {"type": "node", "id": 11694438103, "lat": 40.8396801, "lon": -73.831501, "tags": {"crossing": "uncontrolled", "highway": "crossing"}}, {"type": "node", "id": 11694438118, "lat": 40.8398005, "lon": -73.831585, "tags": {"crossing": "uncontrolled", "highway": "crossing"}}, {"type": "node", "id": 11694438122, "lat": 40.8402773, "lon": -73.8305776, "tags": {"crossing": "uncontrolled", "highway": "crossing"}}, {"type": "node", "id": 11694438138, "lat": 40.8413234, "lon": -73.8269441, "tags": {"crossing": "uncontrolled", "highway": "crossing"}}, {"type": "node", "id": 11694438141, "lat": 40.8413133, "lon": -73.8271021, "tags": {"crossing": "uncontrolled", "highway": "crossing"}}, {"type": "node", "id": 11694438181, "lat": 40.8412713, "lon": -73.8278209, "tags": {"crossing": "unmarked", "crossing:markings": "no", "highway": "crossing"}}, {"type": "node", "id": 11694438186, "lat": 40.8409993, "lon": -73.828676, "tags": {"crossing": "unmarked", "crossing:markings": "no", "highway": "crossing"}}, {"type": "node", "id": 11694438188, "lat": 40.840936, "lon": -73.8288408, "tags": {"crossing": "unmarked", "crossing:markings": "no", "highway": "crossing"}}, {"type": "node", "id": 11694438230, "lat": 40.8381263, "lon": -73.8297604, "tags": {"direction": "backward", "highway": "stop"}}, {"type": "node", "id": 11694438305, "lat": 40.8376627, "lon": -73.834385, "tags": {"crossing": "uncontrolled", "highway": "crossing"}}, {"type": "node", "id": 11694438310, "lat": 40.8381683, "lon": -73.8348773, "tags": {"crossing": "traffic_signals", "highway": "crossing"}}, {"type": "node", "id": 11694438313, "lat": 40.8387318, "lon": -73.8355349, "tags": {"crossing": "uncontrolled", "highway": "crossing"}}, {"type": "node", "id": 11694438326, "lat": 40.8388966, "lon": -73.8333357, "tags": {"crossing": "unmarked", "crossing:markings": "no", "highway": "crossing"}}, {"type": "node", "id": 11694438328, "lat": 40.838968, "lon": -73.8331848, "tags": {"crossing": "unmarked", "crossing:markings": "no", "highway": "crossing"}}, {"type": "node", "id": 11694438390, "lat": 40.838087, "lon": -73.8297345, "tags": {"crossing": "uncontrolled", "highway": "crossing"}}, {"type": "node", "id": 11694438512, "lat": 40.8389885, "lon": -73.8310878, "tags": {"crossing": "uncontrolled", "highway": "crossing"}}, {"type": "node", "id": 11694438515, "lat": 40.8392998, "lon": -73.8302763, "tags": {"crossing": "uncontrolled", "highway": "crossing"}}, {"type": "node", "id": 11694438520, "lat": 40.8391753, "lon": -73.8302372, "tags": {"crossing": "uncontrolled", "highway": "crossing"}}, {"type": "node", "id": 11694438522, "lat": 40.8388705, "lon": -73.8310143, "tags": {"crossing": "uncontrolled", "highway": "crossing"}}, {"type": "node", "id": 11694438527, "lat": 40.8389559, "lon": -73.8309765, "tags": {"crossing": "unmarked", "crossing:markings": "no", "highway": "crossing"}}, {"type": "node", "id": 11694438529, "lat": 40.8388996, "lon": -73.8311226, "tags": {"crossing": "unmarked", "crossing:markings": "no", "highway": "crossing"}}, {"type": "node", "id": 11694438574, "lat": 40.8378902, "lon": -73.8303787, "tags": {"direction": "backward", "highway": "stop"}}, {"type": "node", "id": 11694438582, "lat": 40.8397111, "lon": -73.8316167, "tags": {"crossing": "uncontrolled", "highway": "crossing"}}, {"type": "node", "id": 11694438584, "lat": 40.8397848, "lon": -73.8314595, "tags": {"crossing": "uncontrolled", "highway": "crossing"}}, {"type": "node", "id": 11694438590, "lat": 40.8403464, "lon": -73.832133, "tags": {"crossing": "unmarked", "crossing:markings": "no", "highway": "crossing"}}, {"type": "node", "id": 11694438591, "lat": 40.8404188, "lon": -73.8319804, "tags": {"crossing": "unmarked", "crossing:markings": "no", "highway": "crossing"}}, {"type": "node", "id": 11694438593, "lat": 40.84033, "lon": -73.8320209, "tags": {"crossing": "uncontrolled", "highway": "crossing"}}, {"type": "node", "id": 11694438639, "lat": 40.838297, "lon": -73.8327095, "tags": {"crossing": "unmarked", "crossing:markings": "no", "highway": "crossing"}}, {"type": "node", "id": 11694438641, "lat": 40.838239, "lon": -73.8328636, "tags": {"crossing": "unmarked", "crossing:markings": "no", "highway": "crossing"}}, {"type": "node", "id": 11694438658, "lat": 40.8392072, "lon": -73.8303279, "tags": {"crossing": "unmarked", "crossing:markings": "no", "highway": "crossing"}}, {"type": "node", "id": 11694438660, "lat": 40.8392654, "lon": -73.830177, "tags": {"crossing": "unmarked", "crossing:markings": "no", "highway": "crossing"}}, {"type": "node", "id": 11694438666, "lat": 40.8401645, "lon": -73.8306419, "tags": {"crossing": "unmarked", "crossing:markings": "no", "highway": "crossing"}}, {"type": "node", "id": 11694438667, "lat": 40.8402423, "lon": -73.8304733, "tags": {"crossing": "unmarked", "crossing:markings": "no", "highway": "crossing"}}, {"type": "way", "id": 5696317, "nodes": [42730316, 11694438584, 11694438666, 42730322, 11694438667, 11694411914, 42730326, 11694411916, 11694438188, 42730330, 11694438186, 11694296840, 42730333, 11694438181, 11694296837, 11694438141, 42730339, 11694438138, 11694296836, 9936527377, 9936527376, 42730342], "tags": {"highway": "residential", "name": "Coddington Avenue", "tiger:cfcc": "A41", "tiger:county": "Bronx, NY", "tiger:name_base": "Coddington", "tiger:name_type": "Ave", "tiger:reviewed": "no", "tiger:zip_left": "10461", "tiger:zip_right": "10461"}}, {"type": "way", "id": 5697302, "nodes": [42745501, 11694438390, 11694438230, 5334991038, 11694438520, 42745504, 11694438515, 11694411912, 11694438100, 42730322, 11694438122, 11694411911, 42745507, 11694297009, 42745512, 11694296998, 11694296948, 42745515, 11694296953, 11694296708, 42745518], "tags": {"highway": "residential", "name": "Gillespie Avenue", "sidewalk": "both", "smoothness": "excellent", "surface": "asphalt", "tiger:cfcc": "A41", "tiger:county": "Bronx, NY", "tiger:name_base": "Gillespie", "tiger:name_type": "Ave", "tiger:reviewed": "no", "tiger:zip_left": "10461", "tiger:zip_right": "10461"}}, {"type": "way", "id": 5697624, "nodes": [42750618, 11694438305, 11404183257, 42748007, 11694438641, 42747384, 11694438639, 42750621, 9275819428, 11694438529, 42750623], "tags": {"alt_name": "LaSalle Avenue;Lasalle Avenue", "highway": "residential", "name": "La Salle Avenue", "sidewalk": "both", "surface": "asphalt", "tiger:cfcc": "A41", "tiger:county": "Bronx, NY", "tiger:name_base": "Lasalle", "tiger:name_type": "Ave", "tiger:reviewed": "no", "tiger:zip_left": "10461", "tiger:zip_right": "10461"}}, {"type": "way", "id": 5698742, "nodes": [42730316, 11694438118, 11694297052, 11694438593, 42770248, 11694297070, 11694297051, 11694297025, 42770251, 11694297042, 11694296849, 11694296992, 42770253], "tags": {"highway": "residential", "name": "Edison Avenue", "sidewalk": "both", "smoothness": "good", "surface": "asphalt", "tiger:cfcc": "A41", "tiger:county": "Bronx, NY", "tiger:name_base": "Edison", "tiger:name_type": "Ave", "tiger:reviewed": "no", "tiger:zip_left": "10461", "tiger:zip_right": "10461"}}, {"type": "way", "id": 5699086, "nodes": [5334946458, 11694438313, 5334946459, 9247503091, 11694297146, 42747389, 11694297148, 11694438590, 42770248, 11694438591, 42762260, 11694297060, 11694297062, 42745507], "tags": {"highway": "residential", "name": "Harrington Avenue", "tiger:cfcc": "A41", "tiger:county": "Bronx, NY", "tiger:name_base": "Harrington", "tiger:name_type": "Ave", "tiger:reviewed": "no", "tiger:zip_left": "10461", "tiger:zip_right": "10461"}}, {"type": "way", "id": 996309956, "nodes": [42750623, 11694438527, 11694438658, 42745504, 11694438660, 11694411922, 11694411925, 42750626], "tags": {"alt_name": "LaSalle Avenue;Lasalle Avenue", "highway": "residential", "name": "La Salle Avenue", "sidewalk": "both", "surface": "asphalt", "tiger:cfcc": "A41", "tiger:county": "Bronx, NY", "tiger:name_base": "Lasalle", "tiger:name_type": "Ave", "tiger:reviewed": "no", "tiger:zip_left": "10461", "tiger:zip_right": "10461"}}, {"type": "way", "id": 996309957, "nodes": [9199950377, 11694438574, 11694438522, 42750623], "tags": {"highway": "residential", "name": "Edison Avenue", "sidewalk": "both", "smoothness": "intermediate", "surface": "asphalt", "tiger:cfcc": "A41", "tiger:county": "Bronx, NY", "tiger:name_base": "Edison", "tiger:name_type": "Ave", "tiger:reviewed": "no", "tiger:zip_left": "10461", "tiger:zip_right": "10461"}}, {"type": "way", "id": 996309960, "nodes": [42730310, 11694438310, 11694438326, 42730312, 11694438328, 11694438582, 42730316], "tags": {"highway": "residential", "name": "Coddington Avenue", "tiger:cfcc": "A41", "tiger:county": "Bronx, NY", "tiger:name_base": "Coddington", "tiger:name_type": "Ave", "tiger:reviewed": "no", "tiger:zip_left": "10461", "tiger:zip_right": "10461"}}, {"type": "way", "id": 996309961, "nodes": [42750623, 11694438512, 11694438103, 42730316], "tags": {"highway": "residential", "name": "Edison Avenue", "sidewalk": "both", "smoothness": "intermediate", "surface": "asphalt", "tiger:cfcc": "A41", "tiger:county": "Bronx, NY", "tiger:name_base": "Edison", "tiger:name_type": "Ave", "tiger:reviewed": "no", "tiger:zip_left": "10461", "tiger:zip_right": "10461"}}]}