{"version": 0.6, "generator": "Overpass API 0.7.62.1 084b4234", "osm3s": {"timestamp_osm_base": "2024-07-25T18:26:14Z", "copyright": "The data included in this document is from www.openstreetmap.org. The data is made available under ODbL."}, "elements": [{"type": "node", "id": 10929845084, "lat": 32.4130335, "lon": -100.8594442}, {"type": "node", "id": 10929845085, "lat": 32.4128947, "lon": -100.8594053}, {"type": "node", "id": 10929845086, "lat": 32.4129132, "lon": -100.8593127}, {"type": "node", "id": 10929845087, "lat": 32.413052, "lon": -100.8593516}, {"type": "node", "id": 10931124368, "lat": 32.4117036, "lon": -100.8588401}, {"type": "node", "id": 10931124369, "lat": 32.4116722, "lon": -100.8588285}, {"type": "node", "id": 10931124370, "lat": 32.4116765, "lon": -100.8588122}, {"type": "node", "id": 10931124371, "lat": 32.4115715, "lon": -100.8587736}, {"type": "node", "id": 10931124372, "lat": 32.411644, "lon": -100.8584973}, {"type": "node", "id": 10931124373, "lat": 32.4117804, "lon": -100.8585476}, {"type": "node", "id": 10931124374, "lat": 32.4114894, "lon": -100.8587}, {"type": "node", "id": 10931124375, "lat": 32.4114475, "lon": -100.8586848}, {"type": "node", "id": 10931124376, "lat": 32.4115237, "lon": -100.8583901}, {"type": "node", "id": 10931124377, "lat": 32.4115656, "lon": -100.8584053}, {"type": "node", "id": 10931124382, "lat": 32.411217, "lon": -100.8611278}, {"type": "node", "id": 10931124383, "lat": 32.4110116, "lon": -100.8612737}, {"type": "node", "id": 10931124384, "lat": 32.4109616, "lon": -100.8611751}, {"type": "node", "id": 10931124385, "lat": 32.4108297, "lon": -100.8612688}, {"type": "node", "id": 10931124386, "lat": 32.4107709, "lon": -100.8611528}, {"type": "node", "id": 10931124387, "lat": 32.4109063, "lon": -100.8610565}, {"type": "node", "id": 10931124388, "lat": 32.4108937, "lon": -100.8610317}, {"type": "node", "id": 10931124389, "lat": 32.4110957, "lon": -100.8608882}, {"type": "node", "id": 10931124810, "lat": 32.410469, "lon": -100.8638815}, {"type": "node", "id": 10931124811, "lat": 32.4102677, "lon": -100.86383}, {"type": "node", "id": 10931124812, "lat": 32.4102854, "lon": -100.8637327}, {"type": "node", "id": 10931124813, "lat": 32.4104868, "lon": -100.8637842}, {"type": "node", "id": 10931124814, "lat": 32.4103117, "lon": -100.8644834}, {"type": "node", "id": 10931124815, "lat": 32.4102973, "lon": -100.8644597}, {"type": "node", "id": 10931124816, "lat": 32.4102031, "lon": -100.8644358}, {"type": "node", "id": 10931124817, "lat": 32.4102137, "lon": -100.8643774}, {"type": "node", "id": 10931124818, "lat": 32.4101667, "lon": -100.8643655}, {"type": "node", "id": 10931124819, "lat": 32.4101799, "lon": -100.8642925}, {"type": "node", "id": 10931124820, "lat": 32.4102177, "lon": -100.8643021}, {"type": "node", "id": 10931124821, "lat": 32.4102315, "lon": -100.8642258}, {"type": "node", "id": 10931124822, "lat": 32.4103611, "lon": -100.8642587}, {"type": "node", "id": 10931124823, "lat": 32.4103309, "lon": -100.8644254}, {"type": "node", "id": 10931124824, "lat": 32.4103476, "lon": -100.8644529}, {"type": "node", "id": 10933437459, "lat": 32.4100272, "lon": -100.8609396}, {"type": "node", "id": 10933437460, "lat": 32.4098792, "lon": -100.8609491}, {"type": "node", "id": 10933437461, "lat": 32.4098744, "lon": -100.8608432}, {"type": "node", "id": 10933437462, "lat": 32.4100224, "lon": -100.8608337}, {"type": "node", "id": 10933437475, "lat": 32.4132901, "lon": -100.8610811}, {"type": "node", "id": 10933437476, "lat": 32.413157, "lon": -100.8610494}, {"type": "node", "id": 10933437477, "lat": 32.4131969, "lon": -100.8608153}, {"type": "node", "id": 10933437478, "lat": 32.4133299, "lon": -100.8608471}, {"type": "way", "id": 1176370414, "nodes": [10929845084, 10929845085, 10929845086, 10929845087, 10929845084], "tags": {"addr:city": "Colorado City", "addr:housenumber": "150", "addr:postcode": "79512", "addr:state": "TX", "addr:street": "East Interstate 20", "amenity": "fast_food", "brand": "Subway", "brand:wikidata": "Q244457", "building": "yes", "cuisine": "sandwich", "name": "Subway", "opening_hours": "Mo-Fr 09:00-22:00; Sa 09:00-21:30; Su 09:00-22:00", "phone": "+1 325-728-8828", "takeaway": "yes", "website": "https://restaurants.subway.com/united-states/tx/colorado-city/150-e-i-20"}}, {"type": "way", "id": 1176517008, "nodes": [10931124368, 10931124369, 10931124370, 10931124371, 10931124372, 10931124373, 10931124368]}, {"type": "way", "id": 1176517009, "nodes": [10931124374, 10931124375, 10931124376, 10931124377, 10931124374]}, {"type": "way", "id": 1176517011, "nodes": [10931124382, 10931124383, 10931124384, 10931124385, 10931124386, 10931124387, 10931124388, 10931124389, 10931124382], "tags": {"addr:city": "Colorado City", "addr:housenumber": "2225", "addr:postcode": "79512", "addr:state": "TX", "addr:street": "Hickory Street", "amenity": "bank", "building": "yes", "name": "FirstBank & Trust"}}, {"type": "way", "id": 1176517015, "nodes": [10931124810, 10931124811, 10931124812, 10931124813, 10931124810], "tags": {"addr:city": "Colorado City", "addr:housenumber": "643", "addr:postcode": "79512", "addr:state": "TX", "addr:street": "West Interstate 20", "amenity": "fast_food", "brand": "Golden Chick", "brand:wikidata": "Q3772930", "building": "yes", "cuisine": "chicken", "name": "Golden Chick", "takeaway": "yes"}}, {"type": "way", "id": 1176517016, "nodes": [10931124814, 10931124815, 10931124816, 10931124817, 10931124818, 10931124819, 10931124820, 10931124821, 10931124822, 10931124823, 10931124824, 10931124814], "tags": {"addr:city": "Colorado City", "addr:housenumber": "2250", "addr:postcode": "79512", "addr:state": "TX", "addr:street": "Chestnut Street", "amenity": "pharmacy", "building": "yes", "healthcare": "pharmacy", "name": "The Medicine Place"}}, {"type": "way", "id": 1176846901, "nodes": [10933437459, 10933437460, 10933437461, 10933437462, 10933437459], "tags": {"addr:city": "Colorado City", "addr:housenumber": "2205", "addr:postcode": "79512", "addr:state": "TX", "addr:street": "Hickory Street", "amenity": "fast_food", "building": "yes", "cuisine": "donut", "name": "C-City Donuts"}}, {"type": "way", "id": 1176846904, "nodes": [10933437475, 10933437476, 10933437477, 10933437478, 10933437475], "tags": {"addr:city": "Colorado City", "addr:housenumber": "2301", "addr:postcode": "79512", "addr:state": "TX", "addr:street": "North State Highway 208", "alt_name": "Dairy Queen", "amenity": "fast_food", "brand": "DQ Grill & Chill", "brand:wikidata": "Q1141226", "building": "yes", "cuisine": "ice_cream;burger", "name": "DQ Grill & Chill", "phone": "+1 325-728-2626", "takeaway": "yes", "website": "https://www.dairyqueen.com/locations/tx/colorado-city/2301-n-state-highway-208/3701"}}, {"type": "relation", "id": 15908135, "members": [{"type": "way", "ref": 1176517009, "role": "outer"}, {"type": "way", "ref": 1176517008, "role": "outer"}], "tags": {"addr:city": "Colorado City", "addr:housenumber": "125", "addr:postcode": "79512", "addr:state": "TX", "addr:street": "East Interstate 20", "amenity": "fast_food", "brand": "Sonic", "brand:wikidata": "Q7561808", "building": "yes", "cuisine": "burger", "drive_in": "yes", "name": "Sonic", "takeaway": "yes", "type": "multipolygon"}}]}