{"version": 0.6, "generator": "Overpass API 0.7.62.1 084b4234", "osm3s": {"timestamp_osm_base": "2024-07-25T18:35:36Z", "copyright": "The data included in this document is from www.openstreetmap.org. The data is made available under ODbL."}, "elements": [{"type": "node", "id": 2871725726, "lat": 40.415647, "lon": -86.8153422}, {"type": "node", "id": 2871725727, "lat": 40.4154974, "lon": -86.8153404}, {"type": "node", "id": 2871725728, "lat": 40.4154995, "lon": -86.8150374}, {"type": "node", "id": 2871725729, "lat": 40.415649, "lon": -86.8150391}, {"type": "node", "id": 2871725730, "lat": 40.4169205, "lon": -86.8161369}, {"type": "node", "id": 2871725731, "lat": 40.4167739, "lon": -86.8161392}, {"type": "node", "id": 2871725732, "lat": 40.4167727, "lon": -86.8160073}, {"type": "node", "id": 2871725733, "lat": 40.4169193, "lon": -86.8160049}, {"type": "node", "id": 2871725734, "lat": 40.4169469, "lon": -86.8165937}, {"type": "node", "id": 2871725735, "lat": 40.4167426, "lon": -86.8166051}, {"type": "node", "id": 2871725736, "lat": 40.4167429, "lon": -86.8164613}, {"type": "node", "id": 2871725737, "lat": 40.4169471, "lon": -86.8164769}, {"type": "node", "id": 2871725738, "lat": 40.4167103, "lon": -86.8175006}, {"type": "node", "id": 2871725739, "lat": 40.4165025, "lon": -86.8176291}, {"type": "node", "id": 2871725740, "lat": 40.4163826, "lon": -86.8173419}, {"type": "node", "id": 2871725741, "lat": 40.4164407, "lon": -86.8173}, {"type": "node", "id": 2871725742, "lat": 40.4165023, "lon": -86.8174476}, {"type": "node", "id": 2871725743, "lat": 40.4166407, "lon": -86.8173339}, {"type": "node", "id": 2871725756, "lat": 40.4181134, "lon": -86.8162257}, {"type": "node", "id": 2871725757, "lat": 40.4179177, "lon": -86.8162257}, {"type": "node", "id": 2871725758, "lat": 40.4179177, "lon": -86.8160834}, {"type": "node", "id": 2871725759, "lat": 40.4181164, "lon": -86.8160834}, {"type": "node", "id": 2871725772, "lat": 40.418565, "lon": -86.8178747}, {"type": "node", "id": 2871725773, "lat": 40.418294, "lon": -86.8180131}, {"type": "node", "id": 2871725774, "lat": 40.4181796, "lon": -86.8176334}, {"type": "node", "id": 2871725775, "lat": 40.4184566, "lon": -86.8174871}, {"type": "node", "id": 6770319450, "lat": 40.4154867, "lon": -86.8151871}, {"type": "node", "id": 6770319451, "lat": 40.4154865, "lon": -86.8152145}, {"type": "node", "id": 6770319452, "lat": 40.4154985, "lon": -86.8151872}, {"type": "node", "id": 6770319453, "lat": 40.4154983, "lon": -86.8152147}, {"type": "node", "id": 6770335118, "lat": 40.4166688, "lon": -86.8173853}, {"type": "node", "id": 6770335119, "lat": 40.4166772, "lon": -86.8173961}, {"type": "node", "id": 6770335120, "lat": 40.4166882, "lon": -86.8174194}, {"type": "node", "id": 6770335121, "lat": 40.4166929, "lon": -86.8174421}, {"type": "node", "id": 6770335122, "lat": 40.4166597, "lon": -86.8173783}, {"type": "node", "id": 6770335123, "lat": 40.4166934, "lon": -86.817459}, {"type": "node", "id": 6770335124, "lat": 40.4165526, "lon": -86.8175868}, {"type": "node", "id": 6770335125, "lat": 40.4165573, "lon": -86.8175884}, {"type": "node", "id": 6770335126, "lat": 40.4165528, "lon": -86.8175814}, {"type": "node", "id": 6770335127, "lat": 40.4165938, "lon": -86.8175863}, {"type": "node", "id": 6770335128, "lat": 40.4166213, "lon": -86.817577}, {"type": "node", "id": 6770335129, "lat": 40.4166416, "lon": -86.817566}, {"type": "node", "id": 6770335130, "lat": 40.4165716, "lon": -86.8175886}, {"type": "node", "id": 6770335131, "lat": 40.4165488, "lon": -86.817571}, {"type": "node", "id": 6770335132, "lat": 40.4165357, "lon": -86.8175803}, {"type": "node", "id": 6770335133, "lat": 40.4165437, "lon": -86.8175995}, {"type": "node", "id": 6770335134, "lat": 40.4166468, "lon": -86.8175219}, {"type": "node", "id": 6770335135, "lat": 40.4166594, "lon": -86.8175519}, {"type": "node", "id": 6770335136, "lat": 40.4166699, "lon": -86.8175297}, {"type": "node", "id": 6770335137, "lat": 40.416662, "lon": -86.8175109}, {"type": "node", "id": 6770335138, "lat": 40.4166075, "lon": -86.81738}, {"type": "node", "id": 6770335139, "lat": 40.4165813, "lon": -86.8173989}, {"type": "node", "id": 6770335140, "lat": 40.4166004, "lon": -86.8173629}, {"type": "node", "id": 6770335141, "lat": 40.4165787, "lon": -86.8173925}, {"type": "node", "id": 6770335142, "lat": 40.4165428, "lon": -86.8174291}, {"type": "node", "id": 6770335143, "lat": 40.4165158, "lon": -86.8174486}, {"type": "node", "id": 6770335144, "lat": 40.4165124, "lon": -86.8174403}, {"type": "node", "id": 6770335145, "lat": 40.4165393, "lon": -86.8174209}, {"type": "node", "id": 6770335146, "lat": 40.4164413, "lon": -86.8174926}, {"type": "node", "id": 6770335147, "lat": 40.4164787, "lon": -86.8175821}, {"type": "node", "id": 6770335148, "lat": 40.4164819, "lon": -86.8175798}, {"type": "node", "id": 6770335149, "lat": 40.4164445, "lon": -86.8174902}, {"type": "node", "id": 6770335150, "lat": 40.4168472, "lon": -86.816456}, {"type": "node", "id": 6770335151, "lat": 40.4168174, "lon": -86.8164559}, {"type": "node", "id": 6770335152, "lat": 40.4168173, "lon": -86.8164616}, {"type": "node", "id": 6770335153, "lat": 40.4168472, "lon": -86.8164617}, {"type": "node", "id": 6770335154, "lat": 40.4168879, "lon": -86.8166062}, {"type": "node", "id": 6770335155, "lat": 40.4168894, "lon": -86.8166062}, {"type": "node", "id": 6770335156, "lat": 40.4168717, "lon": -86.8166145}, {"type": "node", "id": 6770335157, "lat": 40.4168717, "lon": -86.8166055}, {"type": "node", "id": 6770335158, "lat": 40.4168879, "lon": -86.8166145}, {"type": "node", "id": 6770335159, "lat": 40.4168894, "lon": -86.8165935}, {"type": "node", "id": 6770335160, "lat": 40.4168886, "lon": -86.8164767}, {"type": "node", "id": 6770335161, "lat": 40.4168886, "lon": -86.8164619}, {"type": "node", "id": 6770335162, "lat": 40.4169339, "lon": -86.8160715}, {"type": "node", "id": 6770335163, "lat": 40.4169336, "lon": -86.8160371}, {"type": "node", "id": 6770335164, "lat": 40.4169196, "lon": -86.8160373}, {"type": "node", "id": 6770335165, "lat": 40.4169199, "lon": -86.8160717}, {"type": "node", "id": 6770335166, "lat": 40.4168515, "lon": -86.8159921}, {"type": "node", "id": 6770335167, "lat": 40.4168346, "lon": -86.8159924}, {"type": "node", "id": 6770335168, "lat": 40.4168347, "lon": -86.8160063}, {"type": "node", "id": 6770335169, "lat": 40.4168516, "lon": -86.816006}, {"type": "node", "id": 6770335170, "lat": 40.4167425, "lon": -86.816031}, {"type": "node", "id": 6770335171, "lat": 40.416743, "lon": -86.8160836}, {"type": "node", "id": 6770335172, "lat": 40.4167729, "lon": -86.8160305}, {"type": "node", "id": 6770335173, "lat": 40.4167734, "lon": -86.8160831}, {"type": "node", "id": 11306530572, "lat": 40.4164711, "lon": -86.8173729}, {"type": "node", "id": 11306530573, "lat": 40.4164184, "lon": -86.8174276}, {"type": "node", "id": 11607154926, "lat": 40.4152862, "lon": -86.8118958, "tags": {"amenity": "pharmacy", "drive_through": "yes", "healthcare": "pharmacy", "name": "Meijer"}}, {"type": "way", "id": 283289477, "nodes": [2871725726, 2871725727, 6770319453, 6770319451, 6770319450, 6770319452, 2871725728, 2871725729, 2871725726], "tags": {"addr:city": "Lafayette", "addr:country": "US", "addr:housenumber": "200", "addr:postcode": "47905", "addr:state": "IN", "addr:street": "Meijer Drive", "amenity": "fast_food", "brand": "Steak 'n Shake", "brand:wikidata": "Q7605233", "building": "yes", "cuisine": "burger", "name": "Steak 'n Shake", "takeaway": "yes"}}, {"type": "way", "id": 283289479, "nodes": [2871725730, 2871725731, 6770335173, 6770335171, 6770335170, 6770335172, 2871725732, 6770335168, 6770335167, 6770335166, 6770335169, 2871725733, 6770335164, 6770335163, 6770335162, 6770335165, 2871725730], "tags": {"addr:city": "Lafayette", "addr:country": "US", "addr:housenumber": "4723", "addr:postcode": "47905", "addr:state": "IN", "addr:street": "Meijer Court", "amenity": "fast_food", "brand": "White Castle", "brand:wikidata": "Q1244034", "building": "yes", "cuisine": "burger", "name": "White Castle", "takeaway": "yes"}}, {"type": "way", "id": 283289481, "nodes": [2871725734, 6770335159, 6770335155, 6770335154, 6770335158, 6770335156, 6770335157, 2871725735, 2871725736, 6770335152, 6770335151, 6770335150, 6770335153, 6770335161, 6770335160, 2871725737, 2871725734], "tags": {"addr:city": "Lafayette", "addr:country": "US", "addr:housenumber": "4717", "addr:postcode": "47905", "addr:state": "IN", "addr:street": "Meijer Court", "alt_name": "Dairy Queen", "amenity": "fast_food", "brand": "DQ Grill & Chill", "brand:wikidata": "Q1141226", "building": "yes", "cuisine": "ice_cream;burger", "name": "DQ Grill & Chill", "phone": "+1 765-448-7979", "takeaway": "yes", "website": "https://www.dairyqueen.com/locations/in/lafayette/4717-meijer-ct/8299"}}, {"type": "way", "id": 283289485, "nodes": [2871725738, 6770335136, 6770335137, 6770335134, 6770335135, 6770335129, 6770335128, 6770335127, 6770335130, 6770335125, 6770335124, 6770335126, 6770335131, 6770335132, 6770335133, 2871725739, 6770335148, 6770335147, 6770335146, 6770335149, 11306530573, 2871725740, 2871725741, 11306530572, 2871725742, 6770335144, 6770335143, 6770335142, 6770335145, 6770335141, 6770335139, 6770335138, 6770335140, 2871725743, 6770335122, 6770335118, 6770335119, 6770335120, 6770335121, 6770335123, 2871725738], "tags": {"addr:city": "Lafayette", "addr:country": "US", "addr:housenumber": "4709", "addr:postcode": "47905", "addr:state": "IN", "addr:street": "Meijer Court", "amenity": "bank", "building": "yes", "name": "Purdue Federal Credit Union"}}, {"type": "way", "id": 283289492, "nodes": [2871725756, 2871725757, 2871725758, 2871725759, 2871725756], "tags": {"addr:city": "Lafayette", "addr:housenumber": "17", "addr:postcode": "47905", "addr:state": "IN", "addr:street": "North Frontage Road", "amenity": "cafe", "branch": "State Route 26 & I 65", "brand": "Starbucks", "brand:wikidata": "Q37158", "building": "yes", "cuisine": "coffee_shop", "name": "Starbucks", "official_name": "Starbucks Coffee", "phone": "+1 765-449-1205", "ref": "18298", "takeaway": "yes", "website": "https://www.starbucks.com/store-locator/store/18298/sr-26-i-65-17-north-frontage-rd-lafayette-in-479054687-us"}}, {"type": "way", "id": 283289497, "nodes": [2871725772, 2871725773, 2871725774, 2871725775, 2871725772], "tags": {"amenity": "restaurant", "brand": "Cracker Barrel", "brand:wikidata": "Q4492609", "building": "yes", "cuisine": "american", "name": "Cracker Barrel", "official_name": "Cracker Barrel Old Country Store"}}]}