{"version": 0.6, "generator": "Overpass API 0.7.62.1 084b4234", "osm3s": {"timestamp_osm_base": "2024-07-25T18:28:21Z", "copyright": "The data included in this document is from www.openstreetmap.org. The data is made available under ODbL."}, "elements": [{"type": "node", "id": 1405866991, "lat": 43.458874, "lon": -71.5596151, "tags": {"amenity": "fast_food", "brand": "Jersey Mike's Subs", "brand:wikidata": "Q6184897", "cuisine": "sandwich", "name": "Jersey Mike's Subs", "short_name": "Jersey Mike's", "source": "Local Knowledge", "takeaway": "yes", "website": "https://www.jerseymikes.com/37006/tilton-nh"}}, {"type": "node", "id": 1405867340, "lat": 43.4585975, "lon": -71.5609893}, {"type": "node", "id": 1405867343, "lat": 43.4586099, "lon": -71.5606557}, {"type": "node", "id": 1405867345, "lat": 43.4586162, "lon": -71.5609718}, {"type": "node", "id": 1405867369, "lat": 43.4586306, "lon": -71.5610568}, {"type": "node", "id": 1405867388, "lat": 43.4586755, "lon": -71.5606075}, {"type": "node", "id": 1405867392, "lat": 43.4586764, "lon": -71.5606532}, {"type": "node", "id": 1405867429, "lat": 43.4587677, "lon": -71.560604}, {"type": "node", "id": 1405867432, "lat": 43.4587764, "lon": -71.5610373}, {"type": "node", "id": 1405867446, "lat": 43.4587986, "lon": -71.559684}, {"type": "node", "id": 1405867467, "lat": 43.4589209, "lon": -71.5592727}, {"type": "node", "id": 1405867541, "lat": 43.459361, "lon": -71.5615545}, {"type": "node", "id": 1405867604, "lat": 43.4597233, "lon": -71.5615389}, {"type": "node", "id": 1405867615, "lat": 43.4598314, "lon": -71.5602668}, {"type": "node", "id": 1405867620, "lat": 43.4598895, "lon": -71.5602565}, {"type": "node", "id": 1405867628, "lat": 43.4599468, "lon": -71.5600641}, {"type": "node", "id": 1405867632, "lat": 43.4599778, "lon": -71.560835}, {"type": "node", "id": 1405867634, "lat": 43.4599786, "lon": -71.560082}, {"type": "node", "id": 1405867636, "lat": 43.4600327, "lon": -71.5599001}, {"type": "node", "id": 1405867639, "lat": 43.4600372, "lon": -71.560876}, {"type": "node", "id": 1405867644, "lat": 43.4600715, "lon": -71.560382}, {"type": "node", "id": 1405867647, "lat": 43.4600818, "lon": -71.5632276}, {"type": "node", "id": 1405867652, "lat": 43.4600945, "lon": -71.5603187}, {"type": "node", "id": 1405867654, "lat": 43.4600965, "lon": -71.562405}, {"type": "node", "id": 1405867664, "lat": 43.4601662, "lon": -71.5604504}, {"type": "node", "id": 1405867666, "lat": 43.4601868, "lon": -71.5604646}, {"type": "node", "id": 1405867667, "lat": 43.4601901, "lon": -71.5603846}, {"type": "node", "id": 1405867670, "lat": 43.4602226, "lon": -71.5623019}, {"type": "node", "id": 1405867673, "lat": 43.4602635, "lon": -71.563079}, {"type": "node", "id": 1405867685, "lat": 43.4603132, "lon": -71.5625121}, {"type": "node", "id": 1405867692, "lat": 43.4603504, "lon": -71.5624816}, {"type": "node", "id": 1405867694, "lat": 43.4603507, "lon": -71.5625942}, {"type": "node", "id": 1405867700, "lat": 43.4603864, "lon": -71.562565}, {"type": "node", "id": 1405867705, "lat": 43.4604346, "lon": -71.5629392, "tags": {"amenity": "toilets", "fee": "no"}}, {"type": "node", "id": 1405867712, "lat": 43.4604825, "lon": -71.5629}, {"type": "node", "id": 1927696599, "lat": 43.4586463, "lon": -71.5610423}, {"type": "node", "id": 2940623937, "lat": 43.4565907, "lon": -71.5621053, "tags": {"amenity": "restaurant", "cuisine": "chinese", "name": "Green Ginger"}}, {"type": "node", "id": 2940623938, "lat": 43.4598459, "lon": -71.5580867}, {"type": "node", "id": 2940623939, "lat": 43.459138, "lon": -71.5591754}, {"type": "node", "id": 5583238431, "lat": 43.459213, "lon": -71.5589611}, {"type": "node", "id": 5583238432, "lat": 43.4594064, "lon": -71.5590808}, {"type": "node", "id": 5583238433, "lat": 43.4593393, "lon": -71.5592983}, {"type": "node", "id": 5583238435, "lat": 43.4598781, "lon": -71.5579862}, {"type": "node", "id": 5583238436, "lat": 43.459847, "lon": -71.5579672}, {"type": "node", "id": 5583238437, "lat": 43.4598653, "lon": -71.5579102}, {"type": "node", "id": 5583238438, "lat": 43.4596723, "lon": -71.5577928}, {"type": "node", "id": 5583238439, "lat": 43.4596319, "lon": -71.5579186}, {"type": "node", "id": 5583238440, "lat": 43.4596776, "lon": -71.5579464}, {"type": "node", "id": 5583238441, "lat": 43.4596776, "lon": -71.5579616}, {"type": "node", "id": 5583238442, "lat": 43.4597155, "lon": -71.5579938}, {"type": "node", "id": 5583238443, "lat": 43.459721, "lon": -71.5580107}, {"type": "node", "id": 6275885641, "lat": 43.4597375, "lon": -71.5602138}, {"type": "node", "id": 6275885642, "lat": 43.4595498, "lon": -71.5601079}, {"type": "node", "id": 6275885643, "lat": 43.4591742, "lon": -71.5598959}, {"type": "node", "id": 6275885644, "lat": 43.4590803, "lon": -71.5598429}, {"type": "node", "id": 6275885645, "lat": 43.4589864, "lon": -71.5597899}, {"type": "node", "id": 6275885646, "lat": 43.4588925, "lon": -71.5597369}, {"type": "node", "id": 7020623901, "lat": 43.4586966, "lon": -71.5613813, "tags": {"addr:city": "Tilton", "addr:housenumber": "120", "addr:postcode": "03276", "addr:state": "NH", "addr:street": "Laconia Road", "addr:unit": "500", "amenity": "cafe", "branch": "Tilton, Tanger Outlets", "brand": "Starbucks", "brand:wikidata": "Q37158", "cuisine": "coffee_shop", "name": "Starbucks", "official_name": "Starbucks Coffee", "phone": "+1 603-286-2640", "ref": "1019292", "takeaway": "yes", "website": "https://www.starbucks.com/store-locator/store/1019292/tilton-tanger-outlets-120-laconia-road-suite-500-tilton-nh-032765238-us"}}, {"type": "node", "id": 7020623902, "lat": 43.4586966, "lon": -71.5612618, "tags": {"addr:city": "Tilton", "addr:housenumber": "120", "addr:postcode": "03276", "addr:state": "NH", "addr:street": "Laconia Road", "addr:unit": "510", "amenity": "fast_food", "branch": "Tilton Tanger Outlets", "brand": "Five Guys", "brand:wikidata": "Q1131810", "cuisine": "burger", "name": "Five Guys", "official_name": "Five Guys Burgers and Fries", "opening_hours": "11:00-21:30", "phone": "+1 603-729-3230", "takeaway": "yes", "website": "https://restaurants.fiveguys.com/120-laconia-road"}}, {"type": "node", "id": 7541455763, "lat": 43.4598214, "lon": -71.560127, "tags": {"name": "LRAA Art Gallery", "tourism": "gallery"}}, {"type": "node", "id": 7810493844, "lat": 43.4584903, "lon": -71.5582278}, {"type": "node", "id": 7810493845, "lat": 43.4585267, "lon": -71.5581246}, {"type": "node", "id": 7810493846, "lat": 43.4587295, "lon": -71.5582604}, {"type": "node", "id": 7810493847, "lat": 43.4586931, "lon": -71.5583636}, {"type": "way", "id": 126902723, "nodes": [1405867541, 1405867647, 1405867673, 1405867705, 1405867712, 1405867694, 1405867700, 1405867692, 1405867685, 1405867670, 1405867654, 1405867604, 1405867632, 1405867639, 1405867666, 1405867664, 1405867667, 1405867652, 1405867644, 1405867620, 1405867628, 1405867634, 1405867636, 1405867467, 1405867446, 6275885646, 6275885645, 6275885644, 6275885643, 6275885642, 6275885641, 1405867615, 1405867541], "tags": {"addr:city": "Tilton", "addr:housenumber": "120", "addr:postcode": "03276", "addr:state": "NH", "addr:street": "Laconia Road", "building": "retail"}}, {"type": "way", "id": 126902729, "nodes": [1927696599, 1405867432, 1405867429, 1405867388, 1405867392, 1405867343, 1405867345, 1405867340, 1405867369, 1927696599], "tags": {"addr:city": "Tilton", "addr:housenumber": "120", "addr:postcode": "03276", "addr:state": "NH", "addr:street": "Laconia Road", "amenity": "restaurant", "brand": "Unos", "brand:wikidata": "Q7897209", "building": "yes", "cuisine": "pizza", "name": "Unos", "source": "Local Knowledge"}}, {"type": "way", "id": 584031314, "nodes": [2940623939, 5583238431, 5583238432, 5583238433, 2940623939], "tags": {"amenity": "restaurant", "brand": "Ninety Nine Restaurant & Pub", "brand:wikidata": "Q64358371", "building": "yes", "cuisine": "american", "name": "Ninety Nine Restaurant & Pub"}}, {"type": "way", "id": 584031315, "nodes": [2940623938, 5583238435, 5583238436, 5583238437, 5583238438, 5583238439, 5583238440, 5583238441, 5583238442, 5583238443, 2940623938], "tags": {"addr:city": "Tilton", "addr:housenumber": "156", "addr:postcode": "03276", "addr:state": "NH", "addr:street": "Laconia Road", "amenity": "fast_food", "brand": "Wendy's", "brand:wikidata": "Q550258", "building": "yes", "cuisine": "burger", "delivery": "no", "drive_through": "yes", "name": "Wendy's", "opening_hours": "09:00-22:00", "opening_hours:drive_through": "Mo-Th 06:30-22:00; Fr-Sa 06:30-00:00; Su 06:30-22:00", "phone": "+1 603-286-9644", "takeaway": "yes", "website": "https://locations.wendys.com/united-states/nh/tilton/156-laconia-rd", "wheelchair": "yes"}}, {"type": "way", "id": 836863147, "nodes": [7810493844, 7810493845, 7810493846, 7810493847, 7810493844], "tags": {"addr:city": "Tilton", "addr:housenumber": "155", "addr:postcode": "03276", "addr:state": "NH", "addr:street": "Laconia Road", "amenity": "fast_food", "brand": "Taco Bell", "brand:wikidata": "Q752941", "building": "yes", "cuisine": "tex-mex", "name": "Taco Bell", "opening_hours": "08:00-24:00", "phone": "+1 603-286-7340", "takeaway": "yes", "website": "https://locations.tacobell.com/nh/tilton/155-laconia-road.html"}}]}