{"version": 0.6, "generator": "Overpass API 0.7.62.1 084b4234", "osm3s": {"timestamp_osm_base": "2024-07-25T18:56:54Z", "copyright": "The data included in this document is from www.openstreetmap.org. The data is made available under ODbL."}, "elements": [{"type": "node", "id": 1687412069, "lat": 39.9704766, "lon": -75.1457629}, {"type": "node", "id": 1712067122, "lat": 39.9698591, "lon": -75.1435298, "tags": {"addr:housenumber": "412", "addr:postcode": "19123", "addr:street": "West Girard Ave", "amenity": "bar", "name": "The Fire"}}, {"type": "node", "id": 2384794165, "lat": 39.9702511, "lon": -75.1470265}, {"type": "node", "id": 2613831410, "lat": 39.9645985, "lon": -75.1425425}, {"type": "node", "id": 3092951029, "lat": 39.9699311, "lon": -75.1440071, "tags": {"amenity": "restaurant", "name": "Las Cazuelas", "source": "bug report"}}, {"type": "node", "id": 4115073190, "lat": 39.9672588, "lon": -75.1414315, "tags": {"addr:city": "Philadelphia", "addr:housenumber": "1009", "addr:postcode": "19123", "addr:state": "PA", "addr:street": "North Bodine Street", "amenity": "restaurant", "cuisine": "italian_pizza", "name": "D\u2019Oliva evoo Pizza & Grill", "opening_hours": "Mo-Th 10:00-22:00, Fr-Sa 10:00-23:00, Su 12:00-22:00", "phone": "+1 215-454-6798", "website": "https://dolivapizza.com"}}, {"type": "node", "id": 5769249302, "lat": 39.9701994, "lon": -75.1488591, "tags": {"amenity": "restaurant", "name": "EAT"}}, {"type": "node", "id": 6374506682, "lat": 39.9715701, "lon": -75.1444817}, {"type": "node", "id": 6595453641, "lat": 39.9709629, "lon": -75.1521288, "tags": {"addr:city": "Philadelphia", "addr:housenumber": "917", "addr:postcode": "19123", "addr:state": "PA", "addr:street": "West Girard Avenue", "alt_name": "Dunkin' Donuts", "amenity": "fast_food", "brand": "Dunkin'", "brand:wikidata": "Q847743", "cuisine": "donut;coffee_shop", "drive_through": "yes", "name": "Dunkin'", "opening_hours": "04:30-21:00", "phone": "+1 215-769-0137", "ref": "331955", "takeaway": "yes", "website": "https://locations.dunkindonuts.com/en/pa/philadelphia/917-w-girard-ave/331955"}}, {"type": "node", "id": 6595453651, "lat": 39.9713829, "lon": -75.1510598, "tags": {"amenity": "restaurant", "brand": "Pizza Hut", "brand:wikidata": "Q191615", "cuisine": "pizza", "name": "Pizza Hut"}}, {"type": "node", "id": 6595453652, "lat": 39.971332, "lon": -75.1510681, "tags": {"amenity": "pharmacy", "dispensing": "yes", "drive_through": "no", "healthcare": "pharmacy", "name": "9th & Girard Pharmacy"}}, {"type": "node", "id": 6595453653, "lat": 39.9702938, "lon": -75.1517808, "tags": {"amenity": "restaurant", "name": "Larry's Steaks"}}, {"type": "node", "id": 6641156506, "lat": 39.9721139, "lon": -75.1430247}, {"type": "node", "id": 6641156507, "lat": 39.9721266, "lon": -75.1435649}, {"type": "node", "id": 6641156515, "lat": 39.9719474, "lon": -75.1430314}, {"type": "node", "id": 6641156516, "lat": 39.9720628, "lon": -75.1429982}, {"type": "node", "id": 6641156518, "lat": 39.9721582, "lon": -75.1429803}, {"type": "node", "id": 6641156519, "lat": 39.9721959, "lon": -75.1434862}, {"type": "node", "id": 6641156520, "lat": 39.972067, "lon": -75.1430339}, {"type": "node", "id": 6641156521, "lat": 39.9721225, "lon": -75.1435317}, {"type": "node", "id": 6641156527, "lat": 39.9720901, "lon": -75.1432676}, {"type": "node", "id": 6641156528, "lat": 39.9720572, "lon": -75.1429993}, {"type": "node", "id": 6641156529, "lat": 39.9721587, "lon": -75.1432532}, {"type": "node", "id": 6641156532, "lat": 39.9721662, "lon": -75.1433135}, {"type": "node", "id": 6641156535, "lat": 39.9721283, "lon": -75.1427254}, {"type": "node", "id": 6641156544, "lat": 39.9722138, "lon": -75.1433858}, {"type": "node", "id": 6641156557, "lat": 39.9721996, "lon": -75.1435155}, {"type": "node", "id": 6641156570, "lat": 39.9722256, "lon": -75.1434799}, {"type": "node", "id": 6641156582, "lat": 39.9721848, "lon": -75.1433096}, {"type": "node", "id": 6641156583, "lat": 39.9721948, "lon": -75.1433898}, {"type": "node", "id": 8943089059, "lat": 39.9644885, "lon": -75.1421301}, {"type": "node", "id": 8943089060, "lat": 39.9644484, "lon": -75.1421408}, {"type": "node", "id": 8943089061, "lat": 39.9645417, "lon": -75.1425562}, {"type": "node", "id": 9019808966, "lat": 39.9706649, "lon": -75.1457103}, {"type": "node", "id": 9019808968, "lat": 39.9704785, "lon": -75.1457791}, {"type": "node", "id": 9019808969, "lat": 39.9704306, "lon": -75.1457886}, {"type": "node", "id": 9019808970, "lat": 39.9705842, "lon": -75.1457417}, {"type": "node", "id": 9019808971, "lat": 39.9705824, "lon": -75.1457266}, {"type": "node", "id": 9020054483, "lat": 39.9715642, "lon": -75.1444403}, {"type": "node", "id": 9020340742, "lat": 39.9724807, "lon": -75.1410895}, {"type": "node", "id": 9020340743, "lat": 39.9725098, "lon": -75.1408824}, {"type": "node", "id": 9020340745, "lat": 39.9723126, "lon": -75.1410616}, {"type": "node", "id": 9020340746, "lat": 39.9723961, "lon": -75.1410844}, {"type": "node", "id": 9020340747, "lat": 39.9723988, "lon": -75.1410673}, {"type": "node", "id": 9440750403, "lat": 39.9702126, "lon": -75.1466698}, {"type": "node", "id": 9440750404, "lat": 39.9700195, "lon": -75.1467077}, {"type": "node", "id": 9440750405, "lat": 39.9700578, "lon": -75.1470618}, {"type": "node", "id": 9440750406, "lat": 39.9700192, "lon": -75.1467051}, {"type": "node", "id": 11608713665, "lat": 39.9725239, "lon": -75.1408}, {"type": "node", "id": 11608713666, "lat": 39.9725326, "lon": -75.1408024}, {"type": "node", "id": 11608713667, "lat": 39.972525, "lon": -75.1408494}, {"type": "node", "id": 11608713668, "lat": 39.9724332, "lon": -75.1408242}, {"type": "node", "id": 11608844269, "lat": 39.972544, "lon": -75.1406753}, {"type": "node", "id": 11608844270, "lat": 39.9724274, "lon": -75.1408601}, {"type": "node", "id": 11608844271, "lat": 39.9723842, "lon": -75.1406315}, {"type": "node", "id": 11608844302, "lat": 39.9723244, "lon": -75.140988}, {"type": "node", "id": 11608844304, "lat": 39.9725139, "lon": -75.1408835}, {"type": "node", "id": 11608844326, "lat": 39.9722676, "lon": -75.1408076}, {"type": "node", "id": 11608844345, "lat": 39.9722764, "lon": -75.1407464}, {"type": "node", "id": 11608844364, "lat": 39.9722782, "lon": -75.140703}, {"type": "node", "id": 11608844384, "lat": 39.9723177, "lon": -75.1404943}, {"type": "node", "id": 11608844395, "lat": 39.9722421, "lon": -75.1409656}, {"type": "node", "id": 11608844412, "lat": 39.9722635, "lon": -75.1408065}, {"type": "node", "id": 11608844427, "lat": 39.9722714, "lon": -75.140745}, {"type": "node", "id": 11608844446, "lat": 39.9722838, "lon": -75.1407045}, {"type": "node", "id": 11608844463, "lat": 39.9724026, "lon": -75.1405174}, {"type": "node", "id": 11635787641, "lat": 39.9721098, "lon": -75.1429899}, {"type": "node", "id": 11635803977, "lat": 39.97194, "lon": -75.1429703}, {"type": "node", "id": 11635803982, "lat": 39.9715513, "lon": -75.1446017}, {"type": "node", "id": 11635803984, "lat": 39.9718356, "lon": -75.1430558}, {"type": "node", "id": 11635804008, "lat": 39.9715767, "lon": -75.1444802}, {"type": "node", "id": 11635804024, "lat": 39.9715911, "lon": -75.1445921}, {"type": "node", "id": 11635804029, "lat": 39.9719152, "lon": -75.1427673}, {"type": "node", "id": 11635804036, "lat": 39.9719073, "lon": -75.1436118}, {"type": "node", "id": 11635804071, "lat": 39.9715298, "lon": -75.1444487}, {"type": "node", "id": 11638186155, "lat": 39.9706594, "lon": -75.145662}, {"type": "node", "id": 11638240545, "lat": 39.9704208, "lon": -75.1457092}, {"type": "node", "id": 11650020624, "lat": 39.9644562, "lon": -75.1421983}, {"type": "node", "id": 11650020758, "lat": 39.9645369, "lon": -75.142536}, {"type": "node", "id": 11650021043, "lat": 39.9644612, "lon": -75.1421963}, {"type": "node", "id": 11650021109, "lat": 39.9645286, "lon": -75.1422974}, {"type": "node", "id": 11650021174, "lat": 39.964497, "lon": -75.1423689}, {"type": "node", "id": 11650021525, "lat": 39.9645406, "lon": -75.1422927}, {"type": "node", "id": 11787201544, "lat": 39.9722618, "lon": -75.1408433}, {"type": "node", "id": 11899305069, "lat": 39.9653686, "lon": -75.1425732, "tags": {"addr:city": "Philadelphia", "addr:housenumber": "908", "addr:postcode": "19106", "addr:street": "North 3rd Street", "addr:unit": "A", "amenity": "cafe", "cuisine": "coffee_shop", "email": "menageriecoffee@gmail.com", "internet_access": "wlan", "level": "0", "name": "Menagerie Coffee", "opening_hours": "Mo-Th 07:00-17:00; Fr 07:00-18:00; Sa 08:00-18:00; Su 08:00-17:00", "website": "https://www.menageriecoffee.com"}}, {"type": "node", "id": 11908737571, "lat": 39.9664314, "lon": -75.1454646, "tags": {"addr:postcode": "19123", "amenity": "bar", "name": "Bardot", "website": "https://m.facebook.com/people/Bardot-Cafe/100063457602918/"}}, {"type": "way", "id": 706728929, "nodes": [6641156583, 6641156582, 6641156532, 6641156529, 6641156527, 6641156528, 6641156516, 6641156520, 6641156506, 11635787641, 6641156518, 6641156535, 11635804029, 11635803977, 6641156515, 11635803984, 11635804036, 6641156507, 6641156521, 6641156557, 6641156519, 6641156570, 6641156544, 6641156583], "tags": {"addr:city": "Philadelphia", "addr:housenumber": "1328", "addr:state": "PA", "addr:street": "North 4th Street", "addr:unit": "36", "alt_name": "Project Rainbow Community Center", "amenity": "community_centre", "building": "yes", "height": "10.05", "name": "Drueding Center", "source": "City of Philadelphia"}}, {"type": "way", "id": 966635306, "nodes": [11650021525, 11650021109, 8943089059, 8943089060, 11650021043, 11650020624, 11650021174, 11650020758, 8943089061, 2613831410, 11650021525], "tags": {"addr:city": "Philadelphia", "addr:housenumber": "847", "addr:postcode": "19123", "addr:state": "PA", "addr:street": "North 3rd Street", "amenity": "bar", "building": "yes", "height": "17.67", "min_age": "21", "name": "Ortlieb's Lounge", "opening_hours": "Tu,Fr,Sa 18:00-26:00, We,Th,Su 18:00-24:00", "phone": "+1 267-324-3348", "source": "City of Philadelphia", "website": "https://www.ortliebsphilly.com/"}}, {"type": "way", "id": 974625880, "nodes": [11638186155, 11638240545, 9019808969, 9019808968, 1687412069, 9019808970, 9019808971, 9019808966, 11638186155], "tags": {"addr:city": "Philadelphia", "addr:housename": "Sahara Indian Cuisine", "addr:housenumber": "517", "addr:postcode": "19123", "addr:state": "PA", "addr:street": "West Girard Avenue", "amenity": "restaurant", "building": "yes", "cuisine": "indian", "height": "11.58", "name": "Sahara Indian Cuisine", "source": "City of Philadelphia"}}, {"type": "way", "id": 974652516, "nodes": [11635804024, 11635804008, 6374506682, 9020054483, 11635804071, 11635803982, 11635804024], "tags": {"addr:city": "Philadelphia", "addr:housenumber": "1303", "addr:postcode": "19122", "addr:state": "PA", "addr:street": "North 5th Street", "amenity": "restaurant", "building": "yes", "height": "10.36", "name": "Helm", "source": "City of Philadelphia"}}, {"type": "way", "id": 974686420, "nodes": [9020340743, 11608844270, 11608713668, 11608713667, 11608713666, 11608713665, 11608844269, 11608844271, 11608844463, 11608844384, 11608844446, 11608844364, 11608844427, 11608844345, 11608844412, 11608844326, 11787201544, 11608844395, 11608844302, 9020340745, 9020340746, 9020340747, 9020340742, 11608844304, 9020340743], "tags": {"addr:city": "Philadelphia", "addr:housenumber": "310", "addr:state": "PA", "addr:street": "West Master Street", "addr:unit": "14", "amenity": "cafe", "building": "yes", "height": "12.8", "name": "ReAnimator Coffee", "source": "City of Philadelphia"}}, {"type": "way", "id": 1023749526, "nodes": [9440750404, 9440750405, 2384794165, 9440750403, 9440750406, 9440750404], "tags": {"addr:city": "Philadelphia", "addr:housenumber": "600", "addr:postcode": "19123", "addr:state": "PA", "addr:street": "West Girard Avenue", "addr:unit": "16", "amenity": "library", "building": "yes", "designation": "Library", "height": "6.7", "library": "public", "name": "Ramonita G. de Rodriguez Library", "opening_hours": "Mo-Tu 10:00-18:00; We-Fr 10:00-17:00; Sa,Su,PH off", "operator": "Free Library of Philadelphia", "operator:type": "public", "operator:wikidata": "Q3087288", "phone": "+1-215-686-1768", "ref:isil": "US-PP", "source": "City of Philadelphia;http://libwww.freelibrary.org/branches/branch.cfm?loc=RGR", "website": "https://libwww.freelibrary.org/locations/ramonita-g-de-rodriguez-library", "wheelchair": "yes"}}]}