{"version": 0.6, "generator": "Overpass API 0.7.62.1 084b4234", "osm3s": {"timestamp_osm_base": "2024-07-25T18:07:03Z", "copyright": "The data included in this document is from www.openstreetmap.org. The data is made available under ODbL."}, "elements": [{"type": "node", "id": 495864150, "lat": 36.3971836, "lon": -87.030022, "tags": {"addr:city": "Pleasant View", "addr:housenumber": "111", "addr:postcode": "37146", "addr:state": "TN", "addr:street": "Ren Mar Drive", "amenity": "fast_food", "name": "KFC/Taco Bell", "phone": "+1 615-746-3332", "website": "https://locations.tacobell.com/tn/pleasant-view/111-ren-mar-drive.html"}}, {"type": "node", "id": 495864434, "lat": 36.3976955, "lon": -87.030155}, {"type": "node", "id": 495869950, "lat": 36.3952576, "lon": -87.0322163, "tags": {"amenity": "restaurant", "cuisine": "pizza", "name": "Pizza Done Right"}}, {"type": "node", "id": 1314685151, "lat": 36.3974831, "lon": -87.0313614, "tags": {"amenity": "bank", "brand": "Community Bank", "brand:wikidata": "Q5154635", "name": "Community Bank"}}, {"type": "node", "id": 1314685158, "lat": 36.3978976, "lon": -87.0317691, "tags": {"amenity": "bank", "atm": "yes", "brand": "U.S. Bank", "brand:wikidata": "Q739084", "name": "U.S. Bank"}}, {"type": "node", "id": 1314685159, "lat": 36.3968181, "lon": -87.0325416, "tags": {"amenity": "bank", "name": "Hertiage Bank"}}, {"type": "node", "id": 1314685166, "lat": 36.3971273, "lon": -87.0341367, "tags": {"name": "Balthrop Park", "tourism": "picnic_site"}}, {"type": "node", "id": 1314685228, "lat": 36.4002595, "lon": -87.0304548, "tags": {"addr:city": "Pleasant View", "addr:housenumber": "2601", "addr:postcode": "37146", "addr:state": "TN", "addr:street": "Highway 49 East", "amenity": "fast_food", "brand": "Wendy's", "brand:wikidata": "Q550258", "cuisine": "burger", "name": "Wendy's", "opening_hours": "05:00-22:00", "opening_hours:drive_through": "Mo-Sa 05:00-01:00; Su 05:00-23:00", "phone": "+1 615-746-5383", "takeaway": "yes", "website": "https://locations.wendys.com/united-states/tn/pleasant-view/2601-highway-49-e"}}, {"type": "node", "id": 1314685274, "lat": 36.4004149, "lon": -87.0301813, "tags": {"addr:city": "Pleasant View", "addr:housenumber": "2601", "addr:postcode": "37146", "addr:state": "TN", "addr:street": "Highway 49 East", "alt_name": "Dunkin' Donuts", "amenity": "fast_food", "brand": "Dunkin'", "brand:wikidata": "Q847743", "cuisine": "donut;coffee_shop", "drive_through": "yes", "name": "Dunkin' Donuts", "opening_hours": "04:00-21:00", "phone": "+1 615-746-5360", "ref": "346822", "takeaway": "yes", "website": "https://locations.dunkindonuts.com/en/tn/pleasant-view/2601-highway-49-east/346822"}}, {"type": "node", "id": 11400869449, "lat": 36.3976619, "lon": -87.0301224}, {"type": "node", "id": 11400869450, "lat": 36.3976336, "lon": -87.0301676}, {"type": "node", "id": 11400869451, "lat": 36.3975839, "lon": -87.0301196}, {"type": "node", "id": 11400869452, "lat": 36.3976142, "lon": -87.0300714}, {"type": "node", "id": 11400869453, "lat": 36.3975812, "lon": -87.0300395}, {"type": "node", "id": 11400869454, "lat": 36.397316, "lon": -87.0304624}, {"type": "node", "id": 11400869455, "lat": 36.3973525, "lon": -87.0304977}, {"type": "node", "id": 11400869456, "lat": 36.3974171, "lon": -87.0303947}, {"type": "node", "id": 11400869457, "lat": 36.3974658, "lon": -87.0304418}, {"type": "node", "id": 11400869458, "lat": 36.3974014, "lon": -87.0305443}, {"type": "node", "id": 11400869459, "lat": 36.3974323, "lon": -87.0305742}, {"type": "node", "id": 11400869460, "lat": 36.399078, "lon": -87.0308403}, {"type": "node", "id": 11400869461, "lat": 36.3990024, "lon": -87.030724}, {"type": "node", "id": 11400869462, "lat": 36.3989416, "lon": -87.0307849}, {"type": "node", "id": 11400869463, "lat": 36.3989276, "lon": -87.0307632}, {"type": "node", "id": 11400869464, "lat": 36.3988593, "lon": -87.0308317}, {"type": "node", "id": 11400869465, "lat": 36.3989398, "lon": -87.0309556}, {"type": "node", "id": 11400869466, "lat": 36.3989967, "lon": -87.0308984}, {"type": "node", "id": 11400869467, "lat": 36.3990059, "lon": -87.0309126}, {"type": "way", "id": 1229447511, "nodes": [495864434, 11400869449, 11400869450, 11400869451, 11400869452, 11400869453, 11400869454, 11400869455, 11400869456, 11400869457, 11400869458, 11400869459, 495864434], "tags": {"addr:city": "Pleasant View", "addr:housenumber": "105", "addr:postcode": "37146", "addr:state": "TN", "addr:street": "Ren Mar Center Drive", "amenity": "fast_food", "brand": "Sonic", "brand:wikidata": "Q7561808", "cuisine": "burger", "drive_in": "yes", "name": "Sonic", "opening_hours": "Mo-Sa 06:00-23:00; Su 08:00-23:00", "phone": "+1 615-746-5567", "takeaway": "yes", "website": "https://locations.sonicdrivein.com/tn/pleasantview/105-ren-mar-center-drive.html"}}, {"type": "way", "id": 1229449159, "nodes": [11400869460, 11400869461, 11400869462, 11400869463, 11400869464, 11400869465, 11400869466, 11400869467, 11400869460], "tags": {"addr:city": "Pleasant View", "addr:housenumber": "6503", "addr:postcode": "37146", "addr:state": "TN", "addr:street": "Highway 41-A", "amenity": "fast_food", "brand": "Hardee's", "brand:wikidata": "Q1585088", "building": "yes", "cuisine": "burger", "name": "Hardee's", "phone": "+1 615-746-5681", "ref": "1506391", "takeaway": "yes", "website": "https://locations.hardees.com/tn/pleasant-view/6503-highway-41-a"}}]}