{"version": 0.6, "generator": "Overpass API 0.7.62.1 084b4234", "osm3s": {"timestamp_osm_base": "2024-07-10T16:58:00Z", "copyright": "The data included in this document is from www.openstreetmap.org. The data is made available under ODbL."}, "elements": [{"type": "node", "id": 60471261, "lat": 38.9154205, "lon": -77.0317015, "tags": {"addr:city": "Washington", "addr:housenumber": "1847", "addr:postcode": "20009", "addr:state": "DC", "addr:street": "14th Street Northwest", "amenity": "bar", "atm": "yes", "name": "Cafe Saint Ex", "opening_hours": "Su 11:00-01:30; Mo 17:00-01:30; Tu-Th 11:00-01:30; Fr-Sa 11:00-02:30", "phone": "+1 202-265-7839", "website": "https://cafesaint-ex.com/", "wheelchair": "no"}}, {"type": "node", "id": 358957989, "lat": 38.9206998, "lon": -77.0356998, "tags": {"artwork_type": "statue", "ele": "59", "gnis:county_id": "001", "gnis:created": "07/01/1991", "gnis:feature_id": "530340", "gnis:state_id": "11", "name": "Joan of Arc Memorial", "tourism": "artwork", "wikidata": "Q3497615", "wikipedia": "en:Joan of Arc (Dubois)"}}, {"type": "node", "id": 358957994, "lat": 38.9219648, "lon": -77.0361377, "tags": {"artwork_type": "statue", "ele": "56", "gnis:county_id": "001", "gnis:created": "07/01/1991", "gnis:feature_id": "530341", "gnis:state_id": "11", "name": "Serenity Statue", "tourism": "artwork", "wikidata": "Q7453217", "wikipedia": "en:Serenity (Clara)"}}, {"type": "node", "id": 358957998, "lat": 38.9202123, "lon": -77.0349654, "tags": {"artwork_type": "statue", "ele": "52", "gnis:county_id": "001", "gnis:created": "07/01/1991", "gnis:feature_id": "530342", "gnis:state_id": "11", "name": "Dante Statue", "tourism": "artwork", "wikidata": "Q5221150"}}, {"type": "node", "id": 358958001, "lat": 38.9196501, "lon": -77.0349847, "tags": {"artwork_type": "statue", "ele": "44", "gnis:county_id": "001", "gnis:created": "07/01/1991", "gnis:feature_id": "530343", "gnis:state_id": "11", "name": "James Buchanan Memorial", "tourism": "artwork", "wikidata": "Q6130442"}}, {"type": "node", "id": 487493227, "lat": 38.9171584, "lon": -77.0287742, "tags": {"addr:housenumber": "1213", "addr:street": "U Street Northwest", "amenity": "fast_food", "check_date": "2024-03-06", "contact:facebook": "https://www.facebook.com/benschilibowl", "contact:instagram": "https://www.instagram.com/benseverything", "contact:twitter": "https://twitter.com/benschilibowl", "name": "Ben's Chili Bowl", "opening_hours": "Mo 11:00-21:00; Tu 11:00-21:00; We 11:00-21:00; Th 11:00-23:00; Fr 11:00-04:00; Sa 11:00-04:00; Su 11:00-22:00", "outdoor_seating": "no", "payment:american_express": "yes", "payment:cash": "yes", "payment:discover_card": "yes", "payment:mastercard": "yes", "payment:visa": "yes", "phone": "+1-202-667-0909", "website": "https://benschilibowl.com/", "wikidata": "Q2895279"}}, {"type": "node", "id": 487493301, "lat": 38.9168652, "lon": -77.0321846, "tags": {"addr:city": "Washington", "addr:housenumber": "1944", "addr:postcode": "20009", "addr:state": "DC", "addr:street": "14th Street Northwest", "amenity": "fast_food", "brand": "McDonald's", "brand:wikidata": "Q38076", "cuisine": "burger", "internet_access": "wlan", "name": "McDonald's", "opening_hours": "24/7", "phone": "+1 202-733-1950", "takeaway": "yes", "website": "https://www.mcdonalds.com/us/en-us/location/14307.html", "wheelchair": "yes"}}, {"type": "node", "id": 488370905, "lat": 38.9189228, "lon": -77.0317177, "tags": {"amenity": "pharmacy", "brand": "CVS Pharmacy", "brand:wikidata": "Q2078880", "healthcare": "pharmacy", "name": "CVS Pharmacy", "short_name": "CVS", "website": "https://www.cvs.com/store-locator/washington-dc-pharmacies/2129-14th-street-nw-washington-dc-20009/storeid=4546"}}, {"type": "node", "id": 611049534, "lat": 38.9171752, "lon": -77.0303323, "tags": {"amenity": "fast_food", "cuisine": "pizza", "name": "We The Pizza Express", "opening_hours": "Mo-Su 09:00-21:00+", "phone": "+1-202-891-7992", "website": "https://wethepizza.com/locations/express-ust_dc"}}, {"type": "node", "id": 611399466, "lat": 38.913864, "lon": -77.03214}, {"type": "node", "id": 611399483, "lat": 38.914023, "lon": -77.0321413}, {"type": "node", "id": 611503108, "lat": 38.9142757, "lon": -77.031761}, {"type": "node", "id": 750467821, "lat": 38.9151257, "lon": -77.0317048, "tags": {"addr:city": "Washington", "addr:housenumber": "1833", "addr:state": "DC", "addr:street": "14th Street Northwest", "alcohol": "yes", "amenity": "restaurant", "bar": "yes", "cuisine": "american", "dataset": "ABRA locations", "name": "Bar Pilar", "phone": "+1-202-265-1751", "source": "dcgis", "website": "https://www.pilardc.com/"}}, {"type": "node", "id": 750467825, "lat": 38.9171926, "lon": -77.0283133, "tags": {"addr:housenumber": "1201", "addr:street": "U Street Northwest", "amenity": "restaurant", "cuisine": "caribbean", "dataset": "ABRA locations", "name": "Archipelago", "source": "dcgis", "website": "http://archipelagobardc.com"}}, {"type": "node", "id": 750467826, "lat": 38.916811, "lon": -77.031047, "tags": {"addr:housenumber": "1336", "addr:street": "U Street Northwest", "amenity": "bar", "dataset": "ABRA locations", "food": "yes", "name": "Hawthorne", "source": "dcgis"}}, {"type": "node", "id": 750467836, "lat": 38.9167297, "lon": -77.0273026, "tags": {"addr:housenumber": "1940", "addr:street": "11th Street Northwest", "amenity": "bar", "bar": "wine_bar", "dataset": "ABRA locations", "name": "Vinoteca", "source": "dcgis"}}, {"type": "node", "id": 750467842, "lat": 38.917929, "lon": -77.0316968, "tags": {"amenity": "cafe", "cost:coffee": "$2.75", "cuisine": "american", "internet_access": "yes", "name": "Busboys and Poets", "shop": "books", "wheelchair": "limited", "wikidata": "Q5001291"}}, {"type": "node", "id": 750467844, "lat": 38.9168588, "lon": -77.0370696, "tags": {"addr:city": "Washington", "addr:country": "US", "addr:housenumber": "1602", "addr:state": "DC", "addr:street": "U Street Northwest", "amenity": "restaurant", "cuisine": "french", "dataset": "ABRA locations;address", "dcgis:lot": "0077", "dcgis:square": "0176", "name": "Baby Shank", "opening_hours": "Mo-Th 17:00-02:00; Fr 17:00-03:00; Sa 11:00-03:00; Su 11:00-05:00", "source": "dcgis"}}, {"type": "node", "id": 750467856, "lat": 38.9171453, "lon": -77.0314825, "tags": {"addr:city": "Washington", "addr:country": "US", "addr:housenumber": "1359", "addr:state": "DC", "addr:street": "U Street Northwest", "amenity": "bar", "dataset": "address", "dcgis:lot": "0001", "dcgis:square": "0236", "disused:amenity": "bar", "name": "Cloak & Dagger", "source": "dcgis", "wheelchair": "no"}}, {"type": "node", "id": 750467858, "lat": 38.917176, "lon": -77.0298689, "tags": {"addr:city": "Washington", "addr:country": "US", "addr:housenumber": "1301", "addr:state": "DC", "addr:street": "U Street Northwest", "amenity": "restaurant", "cuisine": "mexican", "dataset": "ABRA locations", "name": "Alero Restaurant and Lounge", "opening_hours": "Fr-Sa 11:00-02:30; Su-Th 11:00-24:00", "phone": "+1-202-462-2322", "source": "dcgis", "website": "http://www.alerorestaurant.com/", "wheelchair": "yes"}}, {"type": "node", "id": 750467861, "lat": 38.9182765, "lon": -77.0278524, "tags": {"addr:housenumber": "1119", "addr:street": "V Street Northwest", "amenity": "cafe", "dataset": "ABRA locations", "name": "Gori Cafe", "source": "dcgis"}}, {"type": "node", "id": 750467871, "lat": 38.9168427, "lon": -77.0326513, "tags": {"addr:housenumber": "1416", "addr:street": "U Street Northwest", "amenity": "pub", "dataset": "ABRA locations", "name": "Utopia Bar & Grill", "source": "dcgis"}}, {"type": "node", "id": 750467876, "lat": 38.9196507, "lon": -77.0322896, "tags": {"addr:housenumber": "2212", "addr:street": "14th Street Northwest", "amenity": "restaurant", "bar": "yes", "check_date": "2023-10-02", "contact:instagram": "https://www.instagram.com/judyrestaurantdc/", "cuisine": "mexican;latin_american", "dataset": "ABRA locations", "name": "Judy Restaurant", "opening_hours": "Mo,Su off; Tu-Th 11:00-24:00; Fr-Sa 11:00-02:00", "source": "dcgis"}}, {"type": "node", "id": 750467877, "lat": 38.9168579, "lon": -77.0311816, "tags": {"addr:housenumber": "1340", "addr:street": "U Street Northwest", "amenity": "bar", "check_date": "2023-12-06", "contact:facebook": "https://www.facebook.com/sudhousedc", "contact:instagram": "https://www.instagram.com/sudhousedc", "contact:twitter": "https://twitter.com/sudhousedc", "name": "Sudhouse", "opening_hours": "Mo-Th 16:00-02:00; Fr 16:00-03:00; Sa 14:00-03:00; Su 13:00-02:00", "payment:american_express": "yes", "payment:cash": "yes", "payment:discover_card": "yes", "payment:mastercard": "yes", "payment:visa": "yes", "phone": "+1 202-525-4188", "website": "https://www.sudhousedc.com/"}}, {"type": "node", "id": 750467880, "lat": 38.9167984, "lon": -77.0286441, "tags": {"addr:housenumber": "1214", "addr:street": "U Street Northwest", "amenity": "restaurant", "bar": "yes", "dataset": "ABRA locations", "name": "The Prospect", "source": "dcgis"}}, {"type": "node", "id": 750467884, "lat": 38.9168151, "lon": -77.0286012, "tags": {"addr:housenumber": "1212", "addr:street": "U Street Northwest", "amenity": "restaurant", "dataset": "ABRA locations", "name": "Alphonse Italian Market & Osteria", "source": "dcgis"}}, {"type": "node", "id": 750467889, "lat": 38.9168536, "lon": -77.0373146, "tags": {"addr:city": "Washington", "addr:country": "US", "addr:housenumber": "1610", "addr:state": "DC", "addr:street": "U Street Northwest", "amenity": "pub", "atm": "yes", "cuisine": "american", "food": "yes", "internet_access": "no", "name": "Exiles", "outdoor_seating": "no", "smoking": "outside", "takeaway": "yes", "wheelchair": "no"}}, {"type": "node", "id": 750467891, "lat": 38.9171563, "lon": -77.0286898, "tags": {"addr:housenumber": "1211", "addr:street": "U Street Northwest", "amenity": "restaurant", "dataset": "ABRA locations", "name": "Ben's Next Door", "source": "dcgis", "website": "https://www.bensnextdoor.com/"}}, {"type": "node", "id": 750467895, "lat": 38.9168501, "lon": -77.0272435, "tags": {"addr:housenumber": "1942", "addr:street": "11th Street Northwest", "amenity": "pub", "check_date": "2023-09-04", "dataset": "ABRA locations", "name": "Solly's Tavern", "opening_hours": "16:00-24:00", "outdoor_seating": "yes", "payment:american_express": "yes", "payment:discover_card": "yes", "payment:mastercard": "yes", "payment:unionpay": "yes", "payment:visa": "yes", "phone": "+1 202-232-6590", "source": "dcgis", "website": "https://www.sollystavern.com/"}}, {"type": "node", "id": 750467898, "lat": 38.9175831, "lon": -77.0267987, "tags": {"addr:housenumber": "2019", "addr:street": "11th Street Northwest", "amenity": "restaurant", "contact:instagram": "spicywaterafricangrill", "cuisine": "west_african;african", "dataset": "ABRA locations", "name": "Spicy Water", "old_name": "Charcoal Town Shawarma", "source": "dcgis"}}, {"type": "node", "id": 750467900, "lat": 38.9171762, "lon": -77.0301564, "tags": {"addr:city": "Washington", "addr:country": "US", "addr:housenumber": "1301", "addr:postcode": "20008", "addr:state": "DC", "addr:street": "U Street Northwest", "amenity": "restaurant", "cuisine": "ethiopian", "diet:vegetarian": "yes", "name": "Eatopia Eatery", "source": "dcgis", "website": "https://www.eatopiaeatery.com/", "wheelchair": "yes"}}, {"type": "node", "id": 750467907, "lat": 38.9182991, "lon": -77.0316837, "tags": {"addr:housenumber": "2121", "addr:street": "14th Street Northwest", "amenity": "restaurant", "cuisine": "middle_eastern", "name": "Ancient Rivers", "opening_hours": "Mo-Th 17:00-23:00; Fr 17:00-00:00; Sa 11:00-00:00; Su 11:00-23:00", "website": "https://www.ancientriversdc.com/"}}, {"type": "node", "id": 750467910, "lat": 38.9167905, "lon": -77.0307384, "tags": {"addr:housenumber": "1326", "addr:street": "U Street Northwest", "amenity": "bar", "dataset": "ABRA locations;address", "dcgis:lot": "0182", "dcgis:square": "0237", "name": "Pure Nightclub & Lounge", "source": "dcgis"}}, {"type": "node", "id": 750467916, "lat": 38.9176386, "lon": -77.0316179, "tags": {"addr:housenumber": "2017", "addr:street": "14th Street Northwest", "amenity": "bar", "dataset": "ABRA locations", "name": "Quarter & Glory", "source": "dcgis"}}, {"type": "node", "id": 750467920, "lat": 38.9168408, "lon": -77.0326008, "tags": {"addr:housenumber": "1414", "addr:street": "U Street Northwest", "amenity": "restaurant", "cuisine": "pizza", "dataset": "ABRA locations", "name": "Coppi's Pizza", "source": "dcgis"}}, {"type": "node", "id": 750467934, "lat": 38.9174716, "lon": -77.0316138, "tags": {"addr:housenumber": "2013", "addr:street": "14th Street Northwest", "amenity": "bar", "dataset": "address", "dcgis:lot": "0007", "dcgis:square": "0236", "fixme": "this may be gone", "name": "Red Lounge", "source": "dcgis"}}, {"type": "node", "id": 750467940, "lat": 38.9172062, "lon": -77.0264261, "tags": {"addr:housenumber": "1013", "addr:street": "U Street Northwest", "amenity": "bar", "dataset": "ABRA locations", "name": "Lounge of Three", "source": "dcgis"}}, {"type": "node", "id": 750467945, "lat": 38.9168217, "lon": -77.0278994, "tags": {"addr:housenumber": "1114", "addr:street": "U Street Northwest", "amenity": "restaurant", "check_date": "2023-09-04", "cuisine": "ethiopian", "dataset": "ABRA locations", "name": "Dukem", "payment:american_express": "yes", "payment:discover_card": "yes", "payment:mastercard": "yes", "payment:unionpay": "yes", "payment:visa": "yes", "source": "dcgis", "website": "https://www.dukemrestaurant.com/"}}, {"type": "node", "id": 750467948, "lat": 38.9168375, "lon": -77.0353832, "tags": {"addr:city": "Washington", "addr:country": "US", "addr:housenumber": "1518", "addr:postcode": "20009", "addr:state": "DC", "addr:street": "U Street Northwest", "amenity": "bar", "dataset": "ABRA locations", "name": "JoJo Restaurant & Bar", "source": "dcgis"}}, {"type": "node", "id": 750467955, "lat": 38.9168151, "lon": -77.0285153, "tags": {"addr:housenumber": "1208", "addr:street": "U Street Northwest", "amenity": "restaurant", "dataset": "ABRA locations", "name": "Amsterdam Cafe & Lounge", "phone": "+1 202-986-6800", "source": "dcgis"}}, {"type": "node", "id": 750467957, "lat": 38.9167971, "lon": -77.0357409, "tags": {"addr:housenumber": "1524", "addr:street": "U Street Northwest", "amenity": "restaurant", "dataset": "ABRA locations", "name": "Selam Restaurant", "source": "dcgis", "wheelchair": "no"}}, {"type": "node", "id": 750467960, "lat": 38.9196651, "lon": -77.0316646, "tags": {"addr:housenumber": "2213", "addr:street": "14th Street Northwest", "amenity": "restaurant", "dataset": "address", "dcgis:lot": "0163", "dcgis:square": "0234", "name": "Mercadito Ramos", "source": "dcgis"}}, {"type": "node", "id": 750467963, "lat": 38.9168613, "lon": -77.027323, "tags": {"addr:housenumber": "1102", "addr:street": "U Street Northwest", "amenity": "bar", "check_date": "2023-09-04", "dataset": "ABRA locations", "name": "DNA", "source": "dcgis"}}, {"type": "node", "id": 751826716, "lat": 38.917444, "lon": -77.0324035, "tags": {"addr:housenumber": "2000", "addr:street": "14th Street Northwest", "amenity": "bank", "dataset": "Banks;address", "dcgis:lot": "0844", "dcgis:square": "0204", "name": "Industrial Bank", "source": "dcgis"}}, {"type": "node", "id": 751826729, "lat": 38.9167862, "lon": -77.0333283, "tags": {"addr:housenumber": "1432", "addr:street": "U Street Northwest", "amenity": "bank", "dataset": "Banks", "name": "City First Bank of DC", "source": "dcgis"}}, {"type": "node", "id": 751826734, "lat": 38.916809, "lon": -77.0287413, "tags": {"addr:housenumber": "1250", "addr:street": "U Street Northwest", "amenity": "bank", "branch": "(CLOSED)", "dataset": "Banks", "old_name": "SunTrust", "source": "dcgis"}}, {"type": "node", "id": 810439654, "lat": 38.9138068, "lon": -77.0321396}, {"type": "node", "id": 810440072, "lat": 38.9138626, "lon": -77.0324957}, {"type": "node", "id": 810442643, "lat": 38.9138047, "lon": -77.0326353}, {"type": "node", "id": 810443477, "lat": 38.9138621, "lon": -77.0326165}, {"type": "node", "id": 810464734, "lat": 38.913862, "lon": -77.0326357}, {"type": "node", "id": 810471504, "lat": 38.9139752, "lon": -77.0324953}, {"type": "node", "id": 810627234, "lat": 38.9168595, "lon": -77.0369634, "tags": {"addr:city": "Washington", "addr:housenumber": "1600", "addr:postcode": "20009", "addr:state": "DC", "addr:street": "U Street Northwest", "amenity": "cafe", "branch": "16th & U Street", "brand": "Starbucks", "brand:wikidata": "Q37158", "cuisine": "coffee_shop", "dataset": "address", "dcgis:lot": "0077", "dcgis:square": "0176", "internet_access": "wlan", "internet_access:fee": "no", "name": "Starbucks", "official_name": "Starbucks Coffee", "operator": "Starbucks", "phone": "+1 202-902-8372", "source": "dcgis;survey", "takeaway": "yes", "website": "https://www.starbucks.com/store-locator/store/13411/16th-u-street-1600-u-street-nw-washington-dc-200096210-us"}}, {"type": "node", "id": 810756797, "lat": 38.9168226, "lon": -77.0349418}, {"type": "node", "id": 810758239, "lat": 38.9182589, "lon": -77.0322542, "tags": {"addr:housenumber": "2100", "addr:street": "14th Street Northwest", "amenity": "restaurant", "bar": "yes", "construction:amenity": "restaurant", "cuisine": "american", "dcgis:lot": "0001", "dcgis:square": "0203", "name": "V14 Street Lounge", "old_name": "Provision 14", "opening_hours": "Mo-Th off; Fr 17:00-03:00; Sa 11:00-03:00; Su 11:00-21:00", "phone": "+1-202-743-4873", "source:addr": "dcgis", "website": "https://v14lounge.com/"}}, {"type": "node", "id": 810758483, "lat": 38.9157048, "lon": -77.0321712, "tags": {"addr:housenumber": "1401", "addr:postcode": "20009", "addr:street": "T Street Northwest", "amenity": "restaurant", "bar": "yes", "check_date": "2023-09-04", "contact:facebook": "https://www.facebook.com/lupoverdedc", "contact:twitter": "https://twitter.com/LupoVerdeDC", "cuisine": "italian", "dataset": "address", "dcgis:lot": "0802", "dcgis:square": "0205", "delivery": "yes", "name": "Lupo Verde", "opening_hours": "Mo-Su 11:00-23:30", "outdoor_seating": "yes", "phone": "+1 202-827-4752", "reservation": "yes", "source": "dcgis;survey", "takeaway": "yes", "website": "https://www.lupoverdedc.com"}}, {"type": "node", "id": 810758712, "lat": 38.9168833, "lon": -77.0350218}, {"type": "node", "id": 810759235, "lat": 38.9171323, "lon": -77.0351263, "tags": {"addr:housenumber": "1511", "addr:street": "U Street Northwest", "amenity": "fast_food", "brand": "Pizza Boli's", "brand:wikidata": "Q105882930", "cuisine": "pizza", "dataset": "address", "dcgis:lot": "0804", "dcgis:square": "0189", "name": "Pizza Boli's", "source": "dcgis", "takeaway": "yes"}}, {"type": "node", "id": 810759832, "lat": 38.9157294, "lon": -77.0325266, "tags": {"addr:housenumber": "1409", "addr:street": "T Street Northwest", "amenity": "restaurant", "cuisine": "american", "dataset": "address", "dcgis:lot": "0804", "dcgis:square": "0205", "name": "butter me up", "opening_hours": "Mo-Su 08:00-16:00", "source": "dcgis", "website": "https://buttermeupdc.com/"}}, {"type": "node", "id": 810760432, "lat": 38.9168229, "lon": -77.0350222}, {"type": "node", "id": 810764594, "lat": 38.9152993, "lon": -77.0317745}, {"type": "node", "id": 810765284, "lat": 38.9144877, "lon": -77.0282334}, {"type": "node", "id": 810765381, "lat": 38.9144643, "lon": -77.0282147}, {"type": "node", "id": 810765956, "lat": 38.9152994, "lon": -77.031769}, {"type": "node", "id": 810766003, "lat": 38.9171639, "lon": -77.0284843, "tags": {"addr:housenumber": "1205", "addr:street": "U Street Northwest", "amenity": "bar", "dataset": "ABRA locations", "dcgis:lot": "0078", "dcgis:square": "0273", "name": "Saloon", "phone": "+1 202-462-2640", "source": "dcgis", "website": "https://www.facebook.com/Saloon-on-U-Street-71737813972/"}}, {"type": "node", "id": 810766123, "lat": 38.9163753, "lon": -77.0317403, "tags": {"addr:city": "Washington", "addr:housenumber": "1921", "addr:postcode": "20009", "addr:state": "DC", "addr:street": "14th Street Northwest", "amenity": "ice_cream", "brand": "Jeni's Splendid Ice Creams", "brand:wikidata": "Q16851196", "check_date": "2023-09-04", "cuisine": "ice_cream", "dataset": "address", "dcgis:lot": "0180", "dcgis:square": "0237", "name": "Jeni's Splendid Ice Creams", "opening_hours": "12:00-24:00", "outdoor_seating": "yes", "phone": "+1 202-621-8625", "short_name": "Jeni's", "source": "dcgis", "website": "https://jenis.com"}}, {"type": "node", "id": 810767129, "lat": 38.9144548, "lon": -77.0282298}, {"type": "node", "id": 810768971, "lat": 38.9144373, "lon": -77.0282301}, {"type": "node", "id": 810769011, "lat": 38.9153445, "lon": -77.0316368}, {"type": "node", "id": 810769189, "lat": 38.9171622, "lon": -77.0273845, "tags": {"addr:housenumber": "2000", "addr:street": "11th Street Northwest", "amenity": "bank", "dataset": "Banks", "dcgis:lot": "0030", "dcgis:square": "0304", "name": "Industrial Bank", "opening_hours": "Mo-Fr 09:00-16:00; Sa 09:00-13:00", "source": "dcgis"}}, {"type": "node", "id": 810769760, "lat": 38.9142145, "lon": -77.0282294}, {"type": "node", "id": 810770140, "lat": 38.9153325, "lon": -77.031775}, {"type": "node", "id": 810770672, "lat": 38.9142242, "lon": -77.0315298}, {"type": "node", "id": 810770969, "lat": 38.914437, "lon": -77.0282549}, {"type": "node", "id": 810771003, "lat": 38.9153445, "lon": -77.0316274}, {"type": "node", "id": 810771770, "lat": 38.914484, "lon": -77.0283154}, {"type": "node", "id": 810771958, "lat": 38.9153326, "lon": -77.031763}, {"type": "node", "id": 810772346, "lat": 38.9142141, "lon": -77.0283127}, {"type": "node", "id": 810772657, "lat": 38.9143961, "lon": -77.0282545}, {"type": "node", "id": 810773091, "lat": 38.9153003, "lon": -77.0316943}, {"type": "node", "id": 810773191, "lat": 38.9143044, "lon": -77.0283147}, {"type": "node", "id": 810773496, "lat": 38.9144916, "lon": -77.0283154}, {"type": "node", "id": 810773726, "lat": 38.9153443, "lon": -77.0317631}, {"type": "node", "id": 810774119, "lat": 38.9142757, "lon": -77.0315884}, {"type": "node", "id": 810774474, "lat": 38.9143956, "lon": -77.0282321}, {"type": "node", "id": 810774941, "lat": 38.9153011, "lon": -77.0316268}, {"type": "node", "id": 810774997, "lat": 38.9206307, "lon": -77.0272831, "tags": {"addr:housenumber": "1100", "addr:street": "Florida Avenue Northwest", "amenity": "restaurant", "bar": "yes", "dataset": "address", "dcgis:lot": "0079", "dcgis:square": "0302", "name": "Florida Avenue Grill", "opening_hours": "We-Su 09:00-14:00", "phone": "+1 202-265-1586", "source": "dcgis", "website": "http://www.floridaavenuegrill.com"}}, {"type": "node", "id": 810775340, "lat": 38.9144915, "lon": -77.0282334}, {"type": "node", "id": 810775434, "lat": 38.9144787, "lon": -77.0282147}, {"type": "node", "id": 810785289, "lat": 38.9168171, "lon": -77.0317168, "tags": {"addr:housenumber": "1939", "addr:street": "14th Street Northwest", "amenity": "fast_food", "cuisine": "cheesesteak", "dataset": "address", "dcgis:lot": "0836", "dcgis:square": "0237", "name": "JJ's Cheesesteaks", "source": "dcgis"}}, {"type": "node", "id": 810786889, "lat": 38.9144111, "lon": -77.0317277, "tags": {"addr:housenumber": "1807", "addr:street": "14th Street Northwest", "amenity": "cafe", "brand": "Blank Street Coffee", "brand:wikidata": "Q114792509", "cuisine": "coffee_shop", "dataset": "address", "dcgis:lot": "0849", "dcgis:square": "0238", "name": "Blank Street Coffee", "opening_hours": "Mo-Fr 07:00-18:00; Sa-Su 08:00-18:00", "source": "dcgis", "takeaway": "yes", "website": "https://www.blankstreet.com/"}}, {"type": "node", "id": 1276325781, "lat": 38.9175413, "lon": -77.0268032, "tags": {"amenity": "fast_food", "cuisine": "greek;gyro;sandwich", "diet:vegetarian": "yes", "name": "The Greek Spot", "opening_hours": "Mo-Fr 11:00-22:30; Sa 12:00-22:30", "outdoor_seating": "yes", "phone": "+1-202-265-3118", "takeaway": "yes", "website": "https://www.greekspotdc.com/"}}, {"type": "node", "id": 1422372699, "lat": 38.917194, "lon": -77.0312041, "tags": {"name": "Hamiltonian Gallery", "tourism": "gallery"}}, {"type": "node", "id": 1584935434, "lat": 38.9171459, "lon": -77.0317421, "tags": {"addr:city": "Washington", "addr:housenumber": "2001", "addr:postcode": "20009", "addr:state": "DC", "addr:street": "14th Street Northwest", "addr:unit": "1st", "amenity": "fast_food", "brand": "Subway", "brand:wikidata": "Q244457", "cuisine": "sandwich", "name": "Subway", "opening_hours": "24/7", "phone": "+1 202-506-7885", "takeaway": "yes", "website": "https://restaurants.subway.com/united-states/dc/washington/2001-14th-street-nw", "wheelchair": "no"}}, {"type": "node", "id": 1736494563, "lat": 38.9168196, "lon": -77.0312337, "tags": {"addr:housenumber": "1342", "addr:street": "U Street Northwest", "amenity": "bar", "name": "Desperados"}}, {"type": "node", "id": 1739589112, "lat": 38.9139743, "lon": -77.0326172}, {"type": "node", "id": 1739589113, "lat": 38.9140211, "lon": -77.0326175}, {"type": "node", "id": 1796362231, "lat": 38.9198012, "lon": -77.032474, "tags": {"amenity": "fast_food", "cuisine": "mexican;tacos", "name": "DC Taco & Wings", "opening_hours": "Mo-Th 09:30-03:00; Fr-Sa 09:30-04:00; Su 09:30-03:00", "phone": "+1-202-518-6820", "website": "https://www.picatacos.com/"}}, {"type": "node", "id": 2048917250, "lat": 38.9171347, "lon": -77.0347944, "tags": {"amenity": "restaurant", "cuisine": "pizza", "name": "DC Stone Pizza", "outdoor_seating": "no", "smoking": "no", "takeaway": "yes"}}, {"type": "node", "id": 2076863951, "lat": 38.9142677, "lon": -77.0282722, "tags": {"addr:city": "Washington", "addr:country": "US", "addr:housenumber": "1201", "addr:postcode": "20009", "addr:state": "DC", "addr:street": "S Street Northwest", "amenity": "cafe", "check_date": "2023-08-26", "contact:facebook": "https://www.facebook.com/TheCoffeeBarDC", "contact:instagram": "https://www.instagram.com/thecoffeebardc", "contact:twitter": "https://twitter.com/thecoffeebardc", "cost:coffee": "$3.50", "cuisine": "coffee_shop", "email": "coffeetalk@thecoffeebardc.com", "internet_access": "yes", "name": "The Coffee Bar (TCB)", "opening_hours": "Mo-Fr 07:00-17:00; Sa-Su 08:00-18:00", "outdoor_seating": "yes", "payment:american_express": "yes", "payment:mastercard": "yes", "payment:visa": "yes", "phone": "+1 202-733-1049", "takeaway": "yes", "toilets": "yes", "website": "https://www.thecoffeebardc.com/"}}, {"type": "node", "id": 2402694703, "lat": 38.91932, "lon": -77.0313431, "tags": {"addr:city": "Washington", "addr:housenumber": "1325", "addr:postcode": "20009", "addr:state": "DC", "addr:street": "W Street Northwest", "amenity": "fast_food", "brand": "Sweetgreen", "brand:wikidata": "Q18636413", "cuisine": "salad", "name": "Sweetgreen", "phone": "+1 202-506-2956", "takeaway": "yes", "website": "https://sweetgreen.com/"}}, {"type": "node", "id": 2439191510, "lat": 38.9146964, "lon": -77.0322271, "tags": {"addr:city": "Washington", "addr:housenumber": "1818", "addr:postcode": "20009", "addr:state": "DC", "addr:street": "14th Street Northwest", "air_conditioning": "yes", "amenity": "restaurant", "bakery": "yes", "coffee": "yes", "cuisine": "american", "name": "Ted\u2019s Bulletin", "opening_hours": "Mo-Th 07:00-22:00; Fr-Sa 07:00-23:00; Su 07:00-22:00", "outdoor_seating": "no", "phone": "+1-202-265-8337", "website": "https://tedsbulletin.com/"}}, {"type": "node", "id": 2565838457, "lat": 38.9168542, "lon": -77.0292866, "tags": {"addr:housenumber": "1250", "addr:postcode": "20009", "addr:street": "U Street Northwest", "amenity": "fast_food", "brand": "&pizza", "brand:wikidata": "Q21189222", "cuisine": "pizza", "name": "&pizza", "takeaway": "yes", "website": "https://www.andpizza.com/"}}, {"type": "node", "id": 3025215485, "lat": 38.9141781, "lon": -77.0315295}, {"type": "node", "id": 3025215486, "lat": 38.9141784, "lon": -77.0316914}, {"type": "node", "id": 3025215487, "lat": 38.9142202, "lon": -77.0316913}, {"type": "node", "id": 3025215488, "lat": 38.9142203, "lon": -77.0317612}, {"type": "node", "id": 3725028264, "lat": 38.9142566, "lon": -77.0322271, "tags": {"addr:city": "Washington", "addr:housenumber": "1800", "addr:postcode": "20009", "addr:state": "DC", "addr:street": "14th Street Northwest", "amenity": "restaurant", "name": "Doi Moi", "name:en": "Doi Moi", "name:vi": "\u0110\u1ed5i M\u1edbi", "opening_hours": "Mo 03:00-22:00; Tu 11:30-22:00; We-Th 11:30-24:00; Fr 11:30-02:00; Sa 11:00-02:00; Su 11:00-22:00", "website": "https://www.doimoidc.com/"}}, {"type": "node", "id": 3783473367, "lat": 38.9166332, "lon": -77.0321725, "tags": {"amenity": "bank", "brand": "Wells Fargo", "brand:wikidata": "Q744149", "name": "Wells Fargo", "opening_hours": "Mo-Fr 09:00-17:00; Sa 09:00-14:00"}}, {"type": "node", "id": 3784891426, "lat": 38.9171928, "lon": -77.0317049, "tags": {"addr:street": "14th Street Northwest", "alt_name": "Dunkin' Donuts", "amenity": "fast_food", "brand": "Dunkin'", "brand:wikidata": "Q847743", "cuisine": "donut;coffee_shop", "fixme:atp": "Check if still exists. No corresponding ATP object.", "name": "Dunkin'", "takeaway": "yes"}}, {"type": "node", "id": 3784891427, "lat": 38.9166323, "lon": -77.0317251, "tags": {"addr:housenumber": "1931", "addr:street": "14th Street Northwest", "amenity": "fast_food", "cuisine": "burger", "drive_through": "no", "name": "BossBurger", "outdoor_seating": "yes", "takeaway": "yes"}}, {"type": "node", "id": 3784891428, "lat": 38.9154335, "lon": -77.0315545, "tags": {"addr:housenumber": "1346", "addr:street": "T Street Northwest", "amenity": "restaurant", "cuisine": "international", "name": "Compass Rose", "opening_hours": "Mo-Th 17:00-24:00; Fr-Sa 17:00-01:00; Su 11:00-22:00", "outdoor_seating": "yes", "website": "https://www.compassrosedc.com/"}}, {"type": "node", "id": 3784892672, "lat": 38.9164531, "lon": -77.0321911, "tags": {"addr:housenumber": "1920", "addr:street": "14th Street Northwest", "amenity": "cafe", "brand:wikidata": "Q55608242", "name": "Compass Coffee", "old_name": "The Wydown", "website": "https://www.compasscoffee.com/"}}, {"type": "node", "id": 3784892677, "lat": 38.9182316, "lon": -77.0277958, "tags": {"addr:street": "V Street Northwest", "amenity": "restaurant", "name": "Izakaya Seki"}}, {"type": "node", "id": 3892122961, "lat": 38.9168544, "lon": -77.0313093, "tags": {"addr:housenumber": "1344", "addr:street": "U Street Northwest", "amenity": "fast_food", "check_date": "2023-07-17", "cuisine": "pizza", "name": "Jumbo Slice Pizza", "takeaway": "only"}}, {"type": "node", "id": 4348904104, "lat": 38.9145149, "lon": -77.0322092, "tags": {"amenity": "bank", "atm": "yes", "brand": "Truist", "brand:wikidata": "Q795486", "name": "Truist", "official_name": "Branch Banking and Trust Company"}}, {"type": "node", "id": 4348913783, "lat": 38.9153241, "lon": -77.0316703, "tags": {"level": "1", "name": "White Cloud Gallery", "tourism": "gallery"}}, {"type": "node", "id": 4348913784, "lat": 38.915323, "lon": -77.0316405, "tags": {"amenity": "arts_centre", "level": "2", "name": "Look Art Studio"}}, {"type": "node", "id": 4350322328, "lat": 38.9177569, "lon": -77.0322396, "tags": {"amenity": "community_centre", "community_centre:for": "homosexual;bisexual;transgender", "name": "The DC Center"}}, {"type": "node", "id": 4350322334, "lat": 38.9172598, "lon": -77.0316932, "tags": {"addr:city": "Washington", "addr:housenumber": "2005", "addr:postcode": "20009", "addr:state": "DC", "addr:street": "14th Street Northwest", "amenity": "bar", "name": "Victory Restaurant & Lounge", "old_name": "Diet Starts Monday"}}, {"type": "node", "id": 4433431823, "lat": 38.920055, "lon": -77.031033, "tags": {"addr:city": "Washington", "addr:housenumber": "1346", "addr:postcode": "20009", "addr:state": "DC", "addr:street": "Florida Avenue Northwest", "amenity": "cafe", "atm": "no", "brand": "La Colombe Coffee Roasters", "brand:wikidata": "Q23461663", "check_date": "2023-10-07", "cuisine": "coffee_shop", "drive_through": "no", "internet_access": "wlan", "internet_access:fee": "customers", "name": "La Colombe Coffee Roasters", "opening_hours": "Mo-Fr 07:00-19:00; Sa-Su 08:00-19:00", "payment:cash": "yes", "payment:mastercard": "yes", "payment:visa": "yes", "phone": "+1 202-795-7909", "short_name": "La Colombe", "smoking": "no", "takeaway": "yes", "website": "https://www.lacolombe.com/pages/cafes"}}, {"type": "node", "id": 4762818155, "lat": 38.9157273, "lon": -77.0323693, "tags": {"addr:city": "Washington", "addr:housenumber": "1405", "addr:state": "DC", "addr:street": "T Street Northwest", "amenity": "bar", "cuisine": "cuban", "name": "Colada Shop", "opening_hours": "Su-Mo 08:00-19:00; Tu-Th 08:00-21:00; Fr-Sa 08:00-22:00", "outdoor_seating": "yes", "phone": "+1-202-332-8800", "website": "https://www.coladashop.com/"}}, {"type": "node", "id": 4832005348, "lat": 38.9171761, "lon": -77.0304248, "tags": {"addr:city": "Washington", "addr:housenumber": "1301", "addr:postcode": "20009", "addr:state": "DC", "addr:street": "U Street Northwest", "amenity": "fast_food", "cuisine": "chicken;sandwich;wings", "diet:vegetarian": "limited", "name": "Roaming Rooster", "opening_hours": "Mo-Th 11:00-23:00; Fr-Su 11:00-24:00", "phone": "+1-202-808-2993", "takeaway": "yes", "website": "https://www.roamingroosterdc.com/"}}, {"type": "node", "id": 4879582889, "lat": 38.9167747, "lon": -77.0309777, "tags": {"addr:city": "Washington", "addr:floor": "-1", "addr:housenumber": "1334", "addr:postcode": "20009", "addr:street": "U Street Northwest", "amenity": "bar", "name": "The Alchemist", "opening_hours": "We 17:00-22:00; Th 17:00-02:00; Fr-Sa 17:00-03:00; Su 17:00-22:00", "website": "http://thealchemistdc.com/"}}, {"type": "node", "id": 4887182723, "lat": 38.919426, "lon": -77.0321861, "tags": {"amenity": "restaurant", "bar": "yes", "check_date": "2023-10-02", "name": "Sakerum"}}, {"type": "node", "id": 4887182724, "lat": 38.9168086, "lon": -77.0308625, "tags": {"addr:housenumber": "1330", "addr:street": "U Street Northwest", "amenity": "bar", "bar": "yes", "contact:instagram": "https://www.instagram.com/enigmadclounge/", "description": "Cocktail Lounge and Wine Vault", "name": "Enigma", "opening_hours": "Mo-Tu off; We 17:00-23:00; Th 17:00-24:00; Fr-Sa 17:00-01:00; Su 10:00-18:00", "phone": "+1-202-525-2802", "website": "https://www.enigmadc.com/"}}, {"type": "node", "id": 4922793034, "lat": 38.9138293, "lon": -77.0322076, "tags": {"amenity": "restaurant", "cuisine": "peruvian", "name": "Chicken + Whiskey", "opening_hours": "Mo-Tu 11:00-23:00; We-Th 11:00-24:00; Fr-Sa 11:00-03:00; Su 11:00-23:00", "phone": "+1-202-667-2456", "start_date": "2017-06-20", "website": "https://www.chickenandwhiskey.com/"}}, {"type": "node", "id": 4929073082, "lat": 38.9200515, "lon": -77.0312484, "tags": {"addr:city": "Washington", "addr:housenumber": "1346", "addr:postcode": "20009", "addr:state": "DC", "addr:street": "Florida Avenue Northwest", "amenity": "bar", "name": "Franklin Hall"}}, {"type": "node", "id": 4936276312, "lat": 38.92149, "lon": -77.0321672, "tags": {"addr:city": "Washington", "addr:housenumber": "2436", "addr:state": "DC", "addr:street": "14th Street Northwest", "amenity": "restaurant", "name": "Rooster & Owl", "opening_hours": "Tu-Su 17:00-22:00"}}, {"type": "node", "id": 5319524414, "lat": 38.914254, "lon": -77.0315008, "tags": {"amenity": "bar", "name": "Left Door", "opening_hours": "Mo off; Tu-Sa 17:00-24:00; Su off"}}, {"type": "node", "id": 5714341022, "lat": 38.9157309, "lon": -77.0331609, "tags": {"addr:postcode": "20009", "amenity": "restaurant", "cuisine": "ice_cream", "name": "Ice Cream Jubilee"}}, {"type": "node", "id": 6110062418, "lat": 38.9167794, "lon": -77.0264919, "tags": {"name": "Lee's Flowers Mural", "tourism": "artwork"}}, {"type": "node", "id": 6110062419, "lat": 38.916819, "lon": -77.0276426, "tags": {"amenity": "bar", "check_date": "2023-09-04", "name": "Apple Lounge Hookah Bar", "opening_hours": "Mo-Fr,Su 18:00-21:00; Sa off", "phone": "+1 202-667-8735", "website": "https://appleloungedc.com/"}}, {"type": "node", "id": 6299710951, "lat": 38.9157574, "lon": -77.0321871, "tags": {"addr:city": "Washington", "addr:housenumber": "190", "addr:postcode": "20009", "addr:state": "DC", "addr:street": "14th Street Northwest", "amenity": "restaurant", "name": "Bresca", "opening_hours": "Mo off; Tu off; We-Th 05:30-21:30; Fr 05:00-22:00; Sa 04:00-22:00; Su 04:00-21:30", "outdoor_seating": "no", "wikidata": "Q59618693"}}, {"type": "node", "id": 6302439536, "lat": 38.9199398, "lon": -77.0311988, "tags": {"addr:city": "Washington", "addr:housenumber": "1346", "addr:postcode": "20009", "addr:state": "DC", "addr:street": "Florida Avenue Northwest", "amenity": "restaurant", "name": "Maydan", "wikidata": "Q73785534"}}, {"type": "node", "id": 6689841248, "lat": 38.9166496, "lon": -77.0371928, "tags": {"addr:city": "Washington", "addr:housenumber": "1946", "addr:postcode": "20009", "addr:state": "DC", "addr:street": "New Hampshire Avenue Northwest", "amenity": "fast_food", "cuisine": "mexican", "name": "Bandit Taco"}}, {"type": "node", "id": 8165129736, "lat": 38.9157286, "lon": -77.0324453, "tags": {"addr:city": "Washington", "addr:housenumber": "1407", "addr:postcode": "20009", "addr:state": "DC", "addr:street": "T Street Northwest", "amenity": "ice_cream", "name": "Malai", "opening_hours": "Fr-Sa 12:00-23:00; Su-Th 12:00-22:00", "website": "https://www.malai.co/"}}, {"type": "node", "id": 9137124887, "lat": 38.9158286, "lon": -77.0321672, "tags": {"amenity": "fast_food", "cuisine": "pizza", "food": "pizza", "name": "Lupo Pizzeria"}}, {"type": "node", "id": 9532820874, "lat": 38.9168225, "lon": -77.0349111}, {"type": "node", "id": 9532820875, "lat": 38.9168829, "lon": -77.0349115}, {"type": "node", "id": 10691359544, "lat": 38.9171725, "lon": -77.0307671, "tags": {"amenity": "bank", "atm": "yes", "brand": "United Bank", "brand:wikidata": "Q16920636", "drive_through": "no", "name": "United Bank", "opening_hours": "Mo-Th 09:00-16:00; Fr 09:00-17:00; Sa 09:00-12:00", "opening_hours:atm": "24/7", "phone": "+1-202-717-8700"}}, {"type": "node", "id": 11038073146, "lat": 38.919041, "lon": -77.0322087, "tags": {"addr:city": "Washington", "addr:housenumber": "1400", "addr:postcode": "20009", "addr:state": "DC", "addr:street": "W Street Northwest", "amenity": "cafe", "name": "Tatte"}}, {"type": "node", "id": 11038169120, "lat": 38.9157491, "lon": -77.0316998, "tags": {"amenity": "restaurant", "cuisine": "mexican", "name": "Mi Vida"}}, {"type": "node", "id": 11151405919, "lat": 38.9142753, "lon": -77.0315292}, {"type": "node", "id": 11168356787, "lat": 38.9168559, "lon": -77.0277315, "tags": {"addr:housenumber": "1114", "addr:street": "U Street Northwest", "amenity": "atm", "check_date": "2023-09-04"}}, {"type": "node", "id": 11168356788, "lat": 38.9168573, "lon": -77.0276398, "tags": {"addr:housenumber": "1010", "addr:street": "U Street Northwest", "amenity": "restaurant", "check_date": "2023-09-04", "name": "Italien kitchen", "opening_hours": "off", "website": "https://italianonu.com/"}}, {"type": "node", "id": 11234957456, "lat": 38.9193749, "lon": -77.0321789, "tags": {"addr:housenumber": "2202", "addr:street": "14th Street Northwest", "amenity": "atm", "brand": "Bank of America", "brand:wikidata": "Q487907", "check_date": "2023-10-02", "indoor": "yes", "lit": "yes", "operator": "Bank of America", "operator:wikidata": "Q487907", "website": "https://locators.bankofamerica.com/dc/washington/atm-washington-110133.html"}}, {"type": "node", "id": 11234957458, "lat": 38.9195867, "lon": -77.0321836, "tags": {"addr:housenumber": "2210", "addr:street": "14th Street Northwest", "amenity": "restaurant", "check_date": "2023-10-02", "name": "Flair restaurant & Lounge"}}, {"type": "node", "id": 11234957467, "lat": 38.9183457, "lon": -77.0321845, "tags": {"amenity": "bank", "atm": "yes", "brand": "Capital Bank", "brand:wikidata": "Q5035481", "check_date": "2023-10-02", "drive_through": "no", "name": "Capital Bank", "opening_hours": "Mo-Th 09:00-16:00; Fr 09:00-17:00; Sa-Su off"}}, {"type": "node", "id": 11234957469, "lat": 38.9212048, "lon": -77.0321028, "tags": {"addr:housenumber": "2424", "addr:street": "14th Street Northwest", "amenity": "restaurant", "check_date": "2023-10-02", "cuisine": "vietnamese", "delivery": "yes", "email": "pho54dc@gmail.com", "name": "Phonatics", "payment:mastercard": "yes", "payment:visa": "yes", "phone": "+1 202-986-1695", "website": "https://phonaticsdc.com/"}}, {"type": "node", "id": 11234957471, "lat": 38.9199936, "lon": -77.0316887, "tags": {"addr:housenumber": "1350", "addr:street": "Florida Avenue Northwest", "amenity": "restaurant", "bar": "yes", "brewery": "yes", "check_date": "2023-10-07", "contact:instagram": "https://www.instagram.com/lucybardc", "cuisine": "pizza", "email": "EVENTS@lucybardc.com", "name": "Lucy Bar", "phone": "+1 202-299-0514", "website": "https://www.lucybardc.com/"}}, {"type": "node", "id": 11371659613, "lat": 38.9168338, "lon": -77.030586, "tags": {"addr:housenumber": "1314", "addr:street": "U Street Northwest", "amenity": "bar", "email": "dcinfo@sportsandsocial.com", "name": "Sports & Social", "opening_hours": "Mo-Th 16:00-24:00; Fr 16:00-02:00; Sa 11:30-02:00; Su 11:30-24:00", "phone": "+1-202-449-5583", "website": "https://sportsandsocial.com/dc/"}}, {"type": "node", "id": 11428002163, "lat": 38.916808, "lon": -77.0354444, "tags": {"addr:housenumber": "1520", "addr:street": "U Street Northwest", "amenity": "bar", "changing_table": "no", "level": "1", "name": "Licht", "toilets": "yes", "toilets:access": "customers", "wheelchair": "no"}}, {"type": "node", "id": 11506905538, "lat": 38.9167721, "lon": -77.0321864, "tags": {"amenity": "fast_food", "brand": "Smoothie King", "brand:wikidata": "Q5491421", "check_date": "2024-01-10", "cuisine": "juice", "name": "Smoothie King", "takeaway": "yes"}}, {"type": "node", "id": 11735045851, "lat": 38.9168469, "lon": -77.0309962, "tags": {"addr:floor": "0", "addr:housenumber": "1334", "addr:street": "U Street Northwest", "amenity": "bar", "contact:instagram": "https://www.instagram.com/voodoobardc/", "name": "Voodoo", "start_date": "2024-03-22"}}, {"type": "node", "id": 11735101172, "lat": 38.9168828, "lon": -77.0347812, "tags": {"artist:wikidata": "Q16216140", "artist_name": "Aniekan Udofia;Liz Brown", "artwork_type": "mural", "name": "Gagged Washington", "start_date": "2011", "tourism": "artwork"}}, {"type": "way", "id": 67085803, "nodes": [810439654, 810442643, 810464734, 810443477, 810440072, 611399466, 810439654], "tags": {"addr:housenumber": "1738", "addr:street": "14th Street Northwest", "building": "retail", "dataset": "buildings", "dcgis:captureyear": "19990331", "dcgis:lot": "0069", "dcgis:square": "0207", "source": "dcgis"}}, {"type": "way", "id": 67086252, "nodes": [810440072, 810443477, 1739589112, 810471504, 810440072], "tags": {"addr:city": "Washington", "addr:housenumber": "1740", "addr:postcode": "20009", "addr:state": "DC", "addr:street": "14th Street Northwest", "building": "retail", "building:levels": "1", "dataset": "buildings", "dcgis:captureyear": "19990331", "dcgis:lot": "0114", "dcgis:square": "0207", "source": "dcgis"}}, {"type": "way", "id": 67132028, "nodes": [810774941, 810773091, 810765956, 810764594, 810770140, 810771958, 810773726, 810769011, 810771003, 810774941], "tags": {"addr:housenumber": "1843", "addr:street": "14th Street Northwest", "building": "retail", "dataset": "buildings", "dcgis:captureyear": "19990331", "dcgis:gis_id": "92076", "dcgis:lot": "0085", "dcgis:square": "0238", "source": "dcgis"}}, {"type": "way", "id": 67132203, "nodes": [810772346, 810773191, 810771770, 810773496, 810775340, 810765284, 810775434, 810765381, 810767129, 810768971, 810770969, 810772657, 810774474, 810769760, 810772346], "tags": {"building": "retail", "dataset": "buildings", "dcgis:captureyear": "19990331", "source": "dcgis"}}, {"type": "way", "id": 162013755, "nodes": [1739589112, 1739589113, 611399483, 611399466, 810440072, 810443477, 1739589112], "tags": {"access": "customers", "addr:city": "Washington", "addr:housenumber": "1740", "addr:postcode": "20009", "addr:state": "DC", "addr:street": "14th Street Northwest", "amenity": "biergarten", "dc-gis:pubdate": "2009-06-12", "dcgis:capturedate": "1999/03/31", "dcgis:featurecode": "1070", "dcgis:gis_id": "329410", "name": "Aslin Beer Company", "opening_hours": "Su-Th 11:00-23:00; Fr,Sa 11:00-12:00", "outdoor_seating": "yes", "phone": "+1-202-629-2220", "website": "https://www.aslinbeer.com/dc", "wheelchair": "yes"}}, {"type": "way", "id": 298627924, "nodes": [611503108, 810774119, 11151405919, 810770672, 3025215485, 3025215486, 3025215487, 3025215488, 611503108], "tags": {"amenity": "biergarten", "bar": "yes", "name": "Garden District", "opening_hours": "Mo-Th 17:00-01:00; Fr 13:00-02:00; Sa 12:00-02:00; Su 12:00-01:00", "wheelchair": "yes"}}, {"type": "way", "id": 453424323, "nodes": [9532820874, 810756797, 810760432, 810758712, 9532820875, 9532820874], "tags": {"addr:city": "Washington", "addr:housenumber": "1506", "addr:postcode": "20009", "addr:state": "DC", "addr:street": "U Street Northwest", "amenity": "restaurant", "building": "yes", "building:levels": "1", "cuisine": "vietnamese;pho", "name": "Pho Viet USA", "website": "https://phovietus.com/"}}]}